StreetAddress,City,State,ZipCode,Name,Telephone
73358 School Street,Anchor Point,AK,99556,Anchor Point Food Pantry (APFP),(907) 756-3719
73358 School Street,Anchor Point,AK,99556,Anchor Point Food Pantry (APFP),(907) 756-3719
73358 School Street,Anchor Point,AK,99556,Anchor Point Food Pantry (APFP),(907) 756-3719
73358 School Street,Anchor Point,AK,99556,Anchor Point Food Pantry (APFP),(907) 756-3719
73358 School Street,Anchor Point,AK,99556,Anchor Point Food Pantry (APFP),(907) 756-3719
73358 School Street,Anchor Point,AK,99556,Anchor Point Food Pantry (APFP),(907) 756-3719
73358 School Street,Anchor Point,AK,99556,Anchor Point Food Pantry (APFP),(907) 756-3719
73358 School Street,Anchor Point,AK,99556,Anchor Point Food Pantry (APFP),(907) 756-3719
73358 School Street,Anchor Point,AK,99556,Anchor Point Food Pantry (APFP),(907) 756-3719
73358 School Street,Anchor Point,AK,99556,Anchor Point Food Pantry (APFP),(907) 756-3719
1121 E 10th Ave,Anchorage,AK,99501,Mobile Food Pantry - Fairview Recreation Center,(907) 343-4130
1121 E 10th Ave,Anchorage,AK,99501,Mobile Food Pantry - Fairview Recreation Center,(907) 343-4130
1121 E 10th Ave,Anchorage,AK,99501,Mobile Food Pantry - Fairview Recreation Center,(907) 343-4130
1121 E 10th Ave,Anchorage,AK,99501,Mobile Food Pantry - Fairview Recreation Center,(907) 343-4130
1121 E 10th Ave,Anchorage,AK,99501,Mobile Food Pantry - Fairview Recreation Center,(907) 343-4130
1121 E 10th Ave,Anchorage,AK,99501,Mobile Food Pantry - Fairview Recreation Center,(907) 343-4130
1121 E 10th Ave,Anchorage,AK,99501,Mobile Food Pantry - Fairview Recreation Center,(907) 343-4130
1121 E 10th Ave,Anchorage,AK,99501,Mobile Food Pantry - Fairview Recreation Center,(907) 343-4130
1121 E 10th Ave,Anchorage,AK,99501,Mobile Food Pantry - Fairview Recreation Center,(907) 343-4130
1121 E 10th Ave,Anchorage,AK,99501,Mobile Food Pantry - Fairview Recreation Center,(907) 343-4130
3600 Macinnes Street,Anchorage,AK,99508,Mobile Food Pantry  First Christian Methodist Episcopal Church,(907) 563-7044
3600 Macinnes Street,Anchorage,AK,99508,Mobile Food Pantry  First Christian Methodist Episcopal Church,(907) 563-7044
3600 Macinnes Street,Anchorage,AK,99508,Mobile Food Pantry  First Christian Methodist Episcopal Church,(907) 563-7044
3600 Macinnes Street,Anchorage,AK,99508,Mobile Food Pantry  First Christian Methodist Episcopal Church,(907) 563-7044
3600 Macinnes Street,Anchorage,AK,99508,Mobile Food Pantry  First Christian Methodist Episcopal Church,(907) 563-7044
3600 Macinnes Street,Anchorage,AK,99508,Mobile Food Pantry  First Christian Methodist Episcopal Church,(907) 563-7044
3600 Macinnes Street,Anchorage,AK,99508,Mobile Food Pantry  First Christian Methodist Episcopal Church,(907) 563-7044
3600 Macinnes Street,Anchorage,AK,99508,Mobile Food Pantry  First Christian Methodist Episcopal Church,(907) 563-7044
3600 Macinnes Street,Anchorage,AK,99508,Mobile Food Pantry  First Christian Methodist Episcopal Church,(907) 563-7044
3600 Macinnes Street,Anchorage,AK,99508,Mobile Food Pantry  First Christian Methodist Episcopal Church,(907) 563-7044
4025 W 88th Ave,Anchorage,AK,99502,Mobile Food Pantry Jewel Lake Church Of The Nazarene,(907) 243-2344
4025 W 88th Ave,Anchorage,AK,99502,Mobile Food Pantry Jewel Lake Church Of The Nazarene,(907) 243-2344
4025 W 88th Ave,Anchorage,AK,99502,Mobile Food Pantry Jewel Lake Church Of The Nazarene,(907) 243-2344
4025 W 88th Ave,Anchorage,AK,99502,Mobile Food Pantry Jewel Lake Church Of The Nazarene,(907) 243-2344
4025 W 88th Ave,Anchorage,AK,99502,Mobile Food Pantry Jewel Lake Church Of The Nazarene,(907) 243-2344
4025 W 88th Ave,Anchorage,AK,99502,Mobile Food Pantry Jewel Lake Church Of The Nazarene,(907) 243-2344
4025 W 88th Ave,Anchorage,AK,99502,Mobile Food Pantry Jewel Lake Church Of The Nazarene,(907) 243-2344
4025 W 88th Ave,Anchorage,AK,99502,Mobile Food Pantry Jewel Lake Church Of The Nazarene,(907) 243-2344
4025 W 88th Ave,Anchorage,AK,99502,Mobile Food Pantry Jewel Lake Church Of The Nazarene,(907) 243-2344
4025 W 88th Ave,Anchorage,AK,99502,Mobile Food Pantry Jewel Lake Church Of The Nazarene,(907) 243-2344
1847 W Northern Lights Blvd,Anchorage,AK,99517,Mobile Food Pantry  Lutheran Church Of Hope,907-272-3663
1847 W Northern Lights Blvd,Anchorage,AK,99517,Mobile Food Pantry  Lutheran Church Of Hope,907-272-3663
1847 W Northern Lights Blvd,Anchorage,AK,99517,Mobile Food Pantry  Lutheran Church Of Hope,907-272-3663
1847 W Northern Lights Blvd,Anchorage,AK,99517,Mobile Food Pantry  Lutheran Church Of Hope,907-272-3663
1847 W Northern Lights Blvd,Anchorage,AK,99517,Mobile Food Pantry  Lutheran Church Of Hope,907-272-3663
1847 W Northern Lights Blvd,Anchorage,AK,99517,Mobile Food Pantry  Lutheran Church Of Hope,907-272-3663
1847 W Northern Lights Blvd,Anchorage,AK,99517,Mobile Food Pantry  Lutheran Church Of Hope,907-272-3663
1847 W Northern Lights Blvd,Anchorage,AK,99517,Mobile Food Pantry  Lutheran Church Of Hope,907-272-3663
1847 W Northern Lights Blvd,Anchorage,AK,99517,Mobile Food Pantry  Lutheran Church Of Hope,907-272-3663
1847 W Northern Lights Blvd,Anchorage,AK,99517,Mobile Food Pantry  Lutheran Church Of Hope,907-272-3663
2121 Spar Ave.,Anchorage,AK,99501,Food Bank of Alaska,(907) 272-3663
2121 Spar Ave.,Anchorage,AK,99501,Food Bank of Alaska,(907) 272-3663
2121 Spar Ave.,Anchorage,AK,99501,Food Bank of Alaska,(907) 272-3663
2121 Spar Ave.,Anchorage,AK,99501,Food Bank of Alaska,(907) 272-3663
2121 Spar Ave.,Anchorage,AK,99501,Food Bank of Alaska,(907) 272-3663
2121 Spar Ave.,Anchorage,AK,99501,Food Bank of Alaska,(907) 272-3663
2121 Spar Ave.,Anchorage,AK,99501,Food Bank of Alaska,(907) 272-3663
2121 Spar Ave.,Anchorage,AK,99501,Food Bank of Alaska,(907) 272-3663
2121 Spar Ave.,Anchorage,AK,99501,Food Bank of Alaska,(907) 272-3663
2121 Spar Ave.,Anchorage,AK,99501,Food Bank of Alaska,(907) 272-3663
7041 Debarr Rd,Anchorage,AK,99504,Mobile Food Pantry - Muldoon Community Assembly,907-272-3663
7041 Debarr Rd,Anchorage,AK,99504,Mobile Food Pantry - Muldoon Community Assembly,907-272-3663
7041 Debarr Rd,Anchorage,AK,99504,Mobile Food Pantry - Muldoon Community Assembly,907-272-3663
7041 Debarr Rd,Anchorage,AK,99504,Mobile Food Pantry - Muldoon Community Assembly,907-272-3663
7041 Debarr Rd,Anchorage,AK,99504,Mobile Food Pantry - Muldoon Community Assembly,907-272-3663
7041 Debarr Rd,Anchorage,AK,99504,Mobile Food Pantry - Muldoon Community Assembly,907-272-3663
7041 Debarr Rd,Anchorage,AK,99504,Mobile Food Pantry - Muldoon Community Assembly,907-272-3663
7041 Debarr Rd,Anchorage,AK,99504,Mobile Food Pantry - Muldoon Community Assembly,907-272-3663
7041 Debarr Rd,Anchorage,AK,99504,Mobile Food Pantry - Muldoon Community Assembly,907-272-3663
7041 Debarr Rd,Anchorage,AK,99504,Mobile Food Pantry - Muldoon Community Assembly,907-272-3663
201 E 9th Ave,Anchorage,AK,99501,Mobile Food Pantry - The Adelaide,907-272-3663
201 E 9th Ave,Anchorage,AK,99501,Mobile Food Pantry - The Adelaide,907-272-3663
201 E 9th Ave,Anchorage,AK,99501,Mobile Food Pantry - The Adelaide,907-272-3663
201 E 9th Ave,Anchorage,AK,99501,Mobile Food Pantry - The Adelaide,907-272-3663
201 E 9th Ave,Anchorage,AK,99501,Mobile Food Pantry - The Adelaide,907-272-3663
201 E 9th Ave,Anchorage,AK,99501,Mobile Food Pantry - The Adelaide,907-272-3663
201 E 9th Ave,Anchorage,AK,99501,Mobile Food Pantry - The Adelaide,907-272-3663
201 E 9th Ave,Anchorage,AK,99501,Mobile Food Pantry - The Adelaide,907-272-3663
201 E 9th Ave,Anchorage,AK,99501,Mobile Food Pantry - The Adelaide,907-272-3663
201 E 9th Ave,Anchorage,AK,99501,Mobile Food Pantry - The Adelaide,907-272-3663
4233 Mountain View Dr,Anchorage,AK,99508,Lions Clubs Of Alaska,907-561-3680
4233 Mountain View Dr,Anchorage,AK,99508,Lions Clubs Of Alaska,907-561-3680
4233 Mountain View Dr,Anchorage,AK,99508,Lions Clubs Of Alaska,907-561-3680
4233 Mountain View Dr,Anchorage,AK,99508,Lions Clubs Of Alaska,907-561-3680
4233 Mountain View Dr,Anchorage,AK,99508,Lions Clubs Of Alaska,907-561-3680
4233 Mountain View Dr,Anchorage,AK,99508,Lions Clubs Of Alaska,907-561-3680
4233 Mountain View Dr,Anchorage,AK,99508,Lions Clubs Of Alaska,907-561-3680
4233 Mountain View Dr,Anchorage,AK,99508,Lions Clubs Of Alaska,907-561-3680
4233 Mountain View Dr,Anchorage,AK,99508,Lions Clubs Of Alaska,907-561-3680
4233 Mountain View Dr,Anchorage,AK,99508,Lions Clubs Of Alaska,907-561-3680
2108 Roosevelt Dr,Anchorage,AK,99517,Spenard Lions Club - Anchorage,907-428-0832
2108 Roosevelt Dr,Anchorage,AK,99517,Spenard Lions Club - Anchorage,907-428-0832
2108 Roosevelt Dr,Anchorage,AK,99517,Spenard Lions Club - Anchorage,907-428-0832
2108 Roosevelt Dr,Anchorage,AK,99517,Spenard Lions Club - Anchorage,907-428-0832
2108 Roosevelt Dr,Anchorage,AK,99517,Spenard Lions Club - Anchorage,907-428-0832
2108 Roosevelt Dr,Anchorage,AK,99517,Spenard Lions Club - Anchorage,907-428-0832
2108 Roosevelt Dr,Anchorage,AK,99517,Spenard Lions Club - Anchorage,907-428-0832
2108 Roosevelt Dr,Anchorage,AK,99517,Spenard Lions Club - Anchorage,907-428-0832
2108 Roosevelt Dr,Anchorage,AK,99517,Spenard Lions Club - Anchorage,907-428-0832
2108 Roosevelt Dr,Anchorage,AK,99517,Spenard Lions Club - Anchorage,907-428-0832
3609 Richmond Ave.,Anchorage,AK,99508,Mother Lawrence Foundation,(907) 272-0989
3609 Richmond Ave.,Anchorage,AK,99508,Mother Lawrence Foundation,(907) 272-0989
3609 Richmond Ave.,Anchorage,AK,99508,Mother Lawrence Foundation,(907) 272-0989
3609 Richmond Ave.,Anchorage,AK,99508,Mother Lawrence Foundation,(907) 272-0989
3609 Richmond Ave.,Anchorage,AK,99508,Mother Lawrence Foundation,(907) 272-0989
3609 Richmond Ave.,Anchorage,AK,99508,Mother Lawrence Foundation,(907) 272-0989
3609 Richmond Ave.,Anchorage,AK,99508,Mother Lawrence Foundation,(907) 272-0989
3609 Richmond Ave.,Anchorage,AK,99508,Mother Lawrence Foundation,(907) 272-0989
3609 Richmond Ave.,Anchorage,AK,99508,Mother Lawrence Foundation,(907) 272-0989
3609 Richmond Ave.,Anchorage,AK,99508,Mother Lawrence Foundation,(907) 272-0989
4301 Mountain View Drive,Anchorage,AK,99508,Mountain View Baptist Church,(907) 279-1244
4301 Mountain View Drive,Anchorage,AK,99508,Mountain View Baptist Church,(907) 279-1244
4301 Mountain View Drive,Anchorage,AK,99508,Mountain View Baptist Church,(907) 279-1244
4301 Mountain View Drive,Anchorage,AK,99508,Mountain View Baptist Church,(907) 279-1244
4301 Mountain View Drive,Anchorage,AK,99508,Mountain View Baptist Church,(907) 279-1244
4301 Mountain View Drive,Anchorage,AK,99508,Mountain View Baptist Church,(907) 279-1244
4301 Mountain View Drive,Anchorage,AK,99508,Mountain View Baptist Church,(907) 279-1244
4301 Mountain View Drive,Anchorage,AK,99508,Mountain View Baptist Church,(907) 279-1244
4301 Mountain View Drive,Anchorage,AK,99508,Mountain View Baptist Church,(907) 279-1244
4301 Mountain View Drive,Anchorage,AK,99508,Mountain View Baptist Church,(907) 279-1244
1220 E Street ,Anchorage,AK,99501,New Hope Compassionate Ministry Food Pantry ,(907) 274-4673
1220 E Street ,Anchorage,AK,99501,New Hope Compassionate Ministry Food Pantry ,(907) 274-4673
1220 E Street ,Anchorage,AK,99501,New Hope Compassionate Ministry Food Pantry ,(907) 274-4673
1220 E Street ,Anchorage,AK,99501,New Hope Compassionate Ministry Food Pantry ,(907) 274-4673
1220 E Street ,Anchorage,AK,99501,New Hope Compassionate Ministry Food Pantry ,(907) 274-4673
1220 E Street ,Anchorage,AK,99501,New Hope Compassionate Ministry Food Pantry ,(907) 274-4673
1220 E Street ,Anchorage,AK,99501,New Hope Compassionate Ministry Food Pantry ,(907) 274-4673
1220 E Street ,Anchorage,AK,99501,New Hope Compassionate Ministry Food Pantry ,(907) 274-4673
1220 E Street ,Anchorage,AK,99501,New Hope Compassionate Ministry Food Pantry ,(907) 274-4673
1220 E Street ,Anchorage,AK,99501,New Hope Compassionate Ministry Food Pantry ,(907) 274-4673
1712 A Stret,Anchorage,AK,99501,Salvation Army - McKinnell House,(907) 277-2593
1712 A Stret,Anchorage,AK,99501,Salvation Army - McKinnell House,(907) 277-2593
1712 A Stret,Anchorage,AK,99501,Salvation Army - McKinnell House,(907) 277-2593
1712 A Stret,Anchorage,AK,99501,Salvation Army - McKinnell House,(907) 277-2593
1712 A Stret,Anchorage,AK,99501,Salvation Army - McKinnell House,(907) 277-2593
1712 A Stret,Anchorage,AK,99501,Salvation Army - McKinnell House,(907) 277-2593
1712 A Stret,Anchorage,AK,99501,Salvation Army - McKinnell House,(907) 277-2593
1712 A Stret,Anchorage,AK,99501,Salvation Army - McKinnell House,(907) 277-2593
1712 A Stret,Anchorage,AK,99501,Salvation Army - McKinnell House,(907) 277-2593
1712 A Stret,Anchorage,AK,99501,Salvation Army - McKinnell House,(907) 277-2593
1928 Juneau St,Anchorage,AK,99501,Shiloh Baptist Family Services,907-276-6673
1928 Juneau St,Anchorage,AK,99501,Shiloh Baptist Family Services,907-276-6673
1928 Juneau St,Anchorage,AK,99501,Shiloh Baptist Family Services,907-276-6673
1928 Juneau St,Anchorage,AK,99501,Shiloh Baptist Family Services,907-276-6673
1928 Juneau St,Anchorage,AK,99501,Shiloh Baptist Family Services,907-276-6673
1928 Juneau St,Anchorage,AK,99501,Shiloh Baptist Family Services,907-276-6673
1928 Juneau St,Anchorage,AK,99501,Shiloh Baptist Family Services,907-276-6673
1928 Juneau St,Anchorage,AK,99501,Shiloh Baptist Family Services,907-276-6673
1928 Juneau St,Anchorage,AK,99501,Shiloh Baptist Family Services,907-276-6673
1928 Juneau St,Anchorage,AK,99501,Shiloh Baptist Family Services,907-276-6673
8110 Jewel Lake Road,Anchorage,AK,99502,Emergency Food Bank St Benedict''s Outreach,907-273-1596
8110 Jewel Lake Road,Anchorage,AK,99502,Emergency Food Bank St Benedict''s Outreach,907-273-1596
8110 Jewel Lake Road,Anchorage,AK,99502,Emergency Food Bank St Benedict''s Outreach,907-273-1596
8110 Jewel Lake Road,Anchorage,AK,99502,Emergency Food Bank St Benedict''s Outreach,907-273-1596
8110 Jewel Lake Road,Anchorage,AK,99502,Emergency Food Bank St Benedict''s Outreach,907-273-1596
8110 Jewel Lake Road,Anchorage,AK,99502,Emergency Food Bank St Benedict''s Outreach,907-273-1596
8110 Jewel Lake Road,Anchorage,AK,99502,Emergency Food Bank St Benedict''s Outreach,907-273-1596
8110 Jewel Lake Road,Anchorage,AK,99502,Emergency Food Bank St Benedict''s Outreach,907-273-1596
8110 Jewel Lake Road,Anchorage,AK,99502,Emergency Food Bank St Benedict''s Outreach,907-273-1596
8110 Jewel Lake Road,Anchorage,AK,99502,Emergency Food Bank St Benedict''s Outreach,907-273-1596
7208 Duben Ave,Anchorage,AK,99504,St. Christopher''s Episcopal Church,907-333-5010
7208 Duben Ave,Anchorage,AK,99504,St. Christopher''s Episcopal Church,907-333-5010
7208 Duben Ave,Anchorage,AK,99504,St. Christopher''s Episcopal Church,907-333-5010
7208 Duben Ave,Anchorage,AK,99504,St. Christopher''s Episcopal Church,907-333-5010
7208 Duben Ave,Anchorage,AK,99504,St. Christopher''s Episcopal Church,907-333-5010
7208 Duben Ave,Anchorage,AK,99504,St. Christopher''s Episcopal Church,907-333-5010
7208 Duben Ave,Anchorage,AK,99504,St. Christopher''s Episcopal Church,907-333-5010
7208 Duben Ave,Anchorage,AK,99504,St. Christopher''s Episcopal Church,907-333-5010
7208 Duben Ave,Anchorage,AK,99504,St. Christopher''s Episcopal Church,907-333-5010
7208 Duben Ave,Anchorage,AK,99504,St. Christopher''s Episcopal Church,907-333-5010
855 E. 20th Ave.,Anchorage,AK,99501,Shiloh Food Pantry,(907) 276-6673
855 E. 20th Ave.,Anchorage,AK,99501,Shiloh Food Pantry,(907) 276-6673
855 E. 20th Ave.,Anchorage,AK,99501,Shiloh Food Pantry,(907) 276-6673
855 E. 20th Ave.,Anchorage,AK,99501,Shiloh Food Pantry,(907) 276-6673
855 E. 20th Ave.,Anchorage,AK,99501,Shiloh Food Pantry,(907) 276-6673
855 E. 20th Ave.,Anchorage,AK,99501,Shiloh Food Pantry,(907) 276-6673
855 E. 20th Ave.,Anchorage,AK,99501,Shiloh Food Pantry,(907) 276-6673
855 E. 20th Ave.,Anchorage,AK,99501,Shiloh Food Pantry,(907) 276-6673
855 E. 20th Ave.,Anchorage,AK,99501,Shiloh Food Pantry,(907) 276-6673
855 E. 20th Ave.,Anchorage,AK,99501,Shiloh Food Pantry,(907) 276-6673
1711 Bragaw Street,Anchorage,AK,99508,North Anchorage Church Of God,(907) 338-2316
1711 Bragaw Street,Anchorage,AK,99508,North Anchorage Church Of God,(907) 338-2316
1711 Bragaw Street,Anchorage,AK,99508,North Anchorage Church Of God,(907) 338-2316
1711 Bragaw Street,Anchorage,AK,99508,North Anchorage Church Of God,(907) 338-2316
1711 Bragaw Street,Anchorage,AK,99508,North Anchorage Church Of God,(907) 338-2316
1711 Bragaw Street,Anchorage,AK,99508,North Anchorage Church Of God,(907) 338-2316
1711 Bragaw Street,Anchorage,AK,99508,North Anchorage Church Of God,(907) 338-2316
1711 Bragaw Street,Anchorage,AK,99508,North Anchorage Church Of God,(907) 338-2316
1711 Bragaw Street,Anchorage,AK,99508,North Anchorage Church Of God,(907) 338-2316
1711 Bragaw Street,Anchorage,AK,99508,North Anchorage Church Of God,(907) 338-2316
3609 Richmond Avenue,Anchorage,AK,99508,Mother Lawrence Foundation,(907) 272-0989
3609 Richmond Avenue,Anchorage,AK,99508,Mother Lawrence Foundation,(907) 272-0989
3609 Richmond Avenue,Anchorage,AK,99508,Mother Lawrence Foundation,(907) 272-0989
3609 Richmond Avenue,Anchorage,AK,99508,Mother Lawrence Foundation,(907) 272-0989
3609 Richmond Avenue,Anchorage,AK,99508,Mother Lawrence Foundation,(907) 272-0989
3609 Richmond Avenue,Anchorage,AK,99508,Mother Lawrence Foundation,(907) 272-0989
3609 Richmond Avenue,Anchorage,AK,99508,Mother Lawrence Foundation,(907) 272-0989
3609 Richmond Avenue,Anchorage,AK,99508,Mother Lawrence Foundation,(907) 272-0989
3609 Richmond Avenue,Anchorage,AK,99508,Mother Lawrence Foundation,(907) 272-0989
3609 Richmond Avenue,Anchorage,AK,99508,Mother Lawrence Foundation,(907) 272-0989
201 E 9th Avenue,Anchorage,AK,99501,Mobile Food Pantry - The Adelaide,(907) 272-3663
201 E 9th Avenue,Anchorage,AK,99501,Mobile Food Pantry - The Adelaide,(907) 272-3663
201 E 9th Avenue,Anchorage,AK,99501,Mobile Food Pantry - The Adelaide,(907) 272-3663
201 E 9th Avenue,Anchorage,AK,99501,Mobile Food Pantry - The Adelaide,(907) 272-3663
201 E 9th Avenue,Anchorage,AK,99501,Mobile Food Pantry - The Adelaide,(907) 272-3663
201 E 9th Avenue,Anchorage,AK,99501,Mobile Food Pantry - The Adelaide,(907) 272-3663
201 E 9th Avenue,Anchorage,AK,99501,Mobile Food Pantry - The Adelaide,(907) 272-3663
201 E 9th Avenue,Anchorage,AK,99501,Mobile Food Pantry - The Adelaide,(907) 272-3663
201 E 9th Avenue,Anchorage,AK,99501,Mobile Food Pantry - The Adelaide,(907) 272-3663
201 E 9th Avenue,Anchorage,AK,99501,Mobile Food Pantry - The Adelaide,(907) 272-3663
1005 Ermine Street,Anchorage,AK,99504,Mobile Food Pantry - Muldoon Community Assembly,(907) 272-3663
1005 Ermine Street,Anchorage,AK,99504,Mobile Food Pantry - Muldoon Community Assembly,(907) 272-3663
1005 Ermine Street,Anchorage,AK,99504,Mobile Food Pantry - Muldoon Community Assembly,(907) 272-3663
1005 Ermine Street,Anchorage,AK,99504,Mobile Food Pantry - Muldoon Community Assembly,(907) 272-3663
1005 Ermine Street,Anchorage,AK,99504,Mobile Food Pantry - Muldoon Community Assembly,(907) 272-3663
1005 Ermine Street,Anchorage,AK,99504,Mobile Food Pantry - Muldoon Community Assembly,(907) 272-3663
1005 Ermine Street,Anchorage,AK,99504,Mobile Food Pantry - Muldoon Community Assembly,(907) 272-3663
1005 Ermine Street,Anchorage,AK,99504,Mobile Food Pantry - Muldoon Community Assembly,(907) 272-3663
1005 Ermine Street,Anchorage,AK,99504,Mobile Food Pantry - Muldoon Community Assembly,(907) 272-3663
1005 Ermine Street,Anchorage,AK,99504,Mobile Food Pantry - Muldoon Community Assembly,(907) 272-3663
2300 W 36th Ave.,Anchorage,AK,99508,Mobile Food Pantry - Mountain View Boys and Girls Club,(907) 297-5437
2300 W 36th Ave.,Anchorage,AK,99508,Mobile Food Pantry - Mountain View Boys and Girls Club,(907) 297-5437
2300 W 36th Ave.,Anchorage,AK,99508,Mobile Food Pantry - Mountain View Boys and Girls Club,(907) 297-5437
2300 W 36th Ave.,Anchorage,AK,99508,Mobile Food Pantry - Mountain View Boys and Girls Club,(907) 297-5437
2300 W 36th Ave.,Anchorage,AK,99508,Mobile Food Pantry - Mountain View Boys and Girls Club,(907) 297-5437
2300 W 36th Ave.,Anchorage,AK,99508,Mobile Food Pantry - Mountain View Boys and Girls Club,(907) 297-5437
2300 W 36th Ave.,Anchorage,AK,99508,Mobile Food Pantry - Mountain View Boys and Girls Club,(907) 297-5437
2300 W 36th Ave.,Anchorage,AK,99508,Mobile Food Pantry - Mountain View Boys and Girls Club,(907) 297-5437
2300 W 36th Ave.,Anchorage,AK,99508,Mobile Food Pantry - Mountain View Boys and Girls Club,(907) 297-5437
2300 W 36th Ave.,Anchorage,AK,99508,Mobile Food Pantry - Mountain View Boys and Girls Club,(907) 297-5437
1847 W Northern Lights Boulevard,Anchorage,AK,99517,Mobile Food Pantry - Lutheran Church Of Hope,(907) 277-0818
1847 W Northern Lights Boulevard,Anchorage,AK,99517,Mobile Food Pantry - Lutheran Church Of Hope,(907) 277-0818
1847 W Northern Lights Boulevard,Anchorage,AK,99517,Mobile Food Pantry - Lutheran Church Of Hope,(907) 277-0818
1847 W Northern Lights Boulevard,Anchorage,AK,99517,Mobile Food Pantry - Lutheran Church Of Hope,(907) 277-0818
1847 W Northern Lights Boulevard,Anchorage,AK,99517,Mobile Food Pantry - Lutheran Church Of Hope,(907) 277-0818
1847 W Northern Lights Boulevard,Anchorage,AK,99517,Mobile Food Pantry - Lutheran Church Of Hope,(907) 277-0818
1847 W Northern Lights Boulevard,Anchorage,AK,99517,Mobile Food Pantry - Lutheran Church Of Hope,(907) 277-0818
1847 W Northern Lights Boulevard,Anchorage,AK,99517,Mobile Food Pantry - Lutheran Church Of Hope,(907) 277-0818
1847 W Northern Lights Boulevard,Anchorage,AK,99517,Mobile Food Pantry - Lutheran Church Of Hope,(907) 277-0818
1847 W Northern Lights Boulevard,Anchorage,AK,99517,Mobile Food Pantry - Lutheran Church Of Hope,(907) 277-0818
4025 W 88th Avenue,Anchorage,AK,99502,Mobile Food Pantry - Jewel Lake Church Of The Nazarene,(907) 272-3663
4025 W 88th Avenue,Anchorage,AK,99502,Mobile Food Pantry - Jewel Lake Church Of The Nazarene,(907) 272-3663
4025 W 88th Avenue,Anchorage,AK,99502,Mobile Food Pantry - Jewel Lake Church Of The Nazarene,(907) 272-3663
4025 W 88th Avenue,Anchorage,AK,99502,Mobile Food Pantry - Jewel Lake Church Of The Nazarene,(907) 272-3663
4025 W 88th Avenue,Anchorage,AK,99502,Mobile Food Pantry - Jewel Lake Church Of The Nazarene,(907) 272-3663
4025 W 88th Avenue,Anchorage,AK,99502,Mobile Food Pantry - Jewel Lake Church Of The Nazarene,(907) 272-3663
4025 W 88th Avenue,Anchorage,AK,99502,Mobile Food Pantry - Jewel Lake Church Of The Nazarene,(907) 272-3663
4025 W 88th Avenue,Anchorage,AK,99502,Mobile Food Pantry - Jewel Lake Church Of The Nazarene,(907) 272-3663
4025 W 88th Avenue,Anchorage,AK,99502,Mobile Food Pantry - Jewel Lake Church Of The Nazarene,(907) 272-3663
4025 W 88th Avenue,Anchorage,AK,99502,Mobile Food Pantry - Jewel Lake Church Of The Nazarene,(907) 272-3663
3600 Macinnes Street,Anchorage,AK,99508,Mobile Food Pantry - First Christian Methodist Episcopal Chu,(907) 272-3663
3600 Macinnes Street,Anchorage,AK,99508,Mobile Food Pantry - First Christian Methodist Episcopal Chu,(907) 272-3663
3600 Macinnes Street,Anchorage,AK,99508,Mobile Food Pantry - First Christian Methodist Episcopal Chu,(907) 272-3663
3600 Macinnes Street,Anchorage,AK,99508,Mobile Food Pantry - First Christian Methodist Episcopal Chu,(907) 272-3663
3600 Macinnes Street,Anchorage,AK,99508,Mobile Food Pantry - First Christian Methodist Episcopal Chu,(907) 272-3663
3600 Macinnes Street,Anchorage,AK,99508,Mobile Food Pantry - First Christian Methodist Episcopal Chu,(907) 272-3663
3600 Macinnes Street,Anchorage,AK,99508,Mobile Food Pantry - First Christian Methodist Episcopal Chu,(907) 272-3663
3600 Macinnes Street,Anchorage,AK,99508,Mobile Food Pantry - First Christian Methodist Episcopal Chu,(907) 272-3663
3600 Macinnes Street,Anchorage,AK,99508,Mobile Food Pantry - First Christian Methodist Episcopal Chu,(907) 272-3663
3600 Macinnes Street,Anchorage,AK,99508,Mobile Food Pantry - First Christian Methodist Episcopal Chu,(907) 272-3663
8901 Peck Avenue,Anchorage,AK,99504,Food Bank Of Alaska,(907) 272-3663
8901 Peck Avenue,Anchorage,AK,99504,Food Bank Of Alaska,(907) 272-3663
8901 Peck Avenue,Anchorage,AK,99504,Food Bank Of Alaska,(907) 272-3663
8901 Peck Avenue,Anchorage,AK,99504,Food Bank Of Alaska,(907) 272-3663
8901 Peck Avenue,Anchorage,AK,99504,Food Bank Of Alaska,(907) 272-3663
8901 Peck Avenue,Anchorage,AK,99504,Food Bank Of Alaska,(907) 272-3663
8901 Peck Avenue,Anchorage,AK,99504,Food Bank Of Alaska,(907) 272-3663
8901 Peck Avenue,Anchorage,AK,99504,Food Bank Of Alaska,(907) 272-3663
8901 Peck Avenue,Anchorage,AK,99504,Food Bank Of Alaska,(907) 272-3663
8901 Peck Avenue,Anchorage,AK,99504,Food Bank Of Alaska,(907) 272-3663
8110 Jewel Lake Road,Anchorage,AK,99502,Emergency Food Bank: St Benedict's Outreach,(907) 273-1596
8110 Jewel Lake Road,Anchorage,AK,99502,Emergency Food Bank: St Benedict's Outreach,(907) 273-1596
8110 Jewel Lake Road,Anchorage,AK,99502,Emergency Food Bank: St Benedict's Outreach,(907) 273-1596
8110 Jewel Lake Road,Anchorage,AK,99502,Emergency Food Bank: St Benedict's Outreach,(907) 273-1596
8110 Jewel Lake Road,Anchorage,AK,99502,Emergency Food Bank: St Benedict's Outreach,(907) 273-1596
8110 Jewel Lake Road,Anchorage,AK,99502,Emergency Food Bank: St Benedict's Outreach,(907) 273-1596
8110 Jewel Lake Road,Anchorage,AK,99502,Emergency Food Bank: St Benedict's Outreach,(907) 273-1596
8110 Jewel Lake Road,Anchorage,AK,99502,Emergency Food Bank: St Benedict's Outreach,(907) 273-1596
8110 Jewel Lake Road,Anchorage,AK,99502,Emergency Food Bank: St Benedict's Outreach,(907) 273-1596
8110 Jewel Lake Road,Anchorage,AK,99502,Emergency Food Bank: St Benedict's Outreach,(907) 273-1596
7208 Duben Avenue,Anchorage,AK,99504,St Christopher's Episcopal Church,(907) 333-5010
7208 Duben Avenue,Anchorage,AK,99504,St Christopher's Episcopal Church,(907) 333-5010
7208 Duben Avenue,Anchorage,AK,99504,St Christopher's Episcopal Church,(907) 333-5010
7208 Duben Avenue,Anchorage,AK,99504,St Christopher's Episcopal Church,(907) 333-5010
7208 Duben Avenue,Anchorage,AK,99504,St Christopher's Episcopal Church,(907) 333-5010
7208 Duben Avenue,Anchorage,AK,99504,St Christopher's Episcopal Church,(907) 333-5010
7208 Duben Avenue,Anchorage,AK,99504,St Christopher's Episcopal Church,(907) 333-5010
7208 Duben Avenue,Anchorage,AK,99504,St Christopher's Episcopal Church,(907) 333-5010
7208 Duben Avenue,Anchorage,AK,99504,St Christopher's Episcopal Church,(907) 333-5010
7208 Duben Avenue,Anchorage,AK,99504,St Christopher's Episcopal Church,(907) 333-5010
1220 E Street,Anchorage,AK,99501,New Hope On The Last Frontier,(907) 274-4673
1220 E Street,Anchorage,AK,99501,New Hope On The Last Frontier,(907) 274-4673
1220 E Street,Anchorage,AK,99501,New Hope On The Last Frontier,(907) 274-4673
1220 E Street,Anchorage,AK,99501,New Hope On The Last Frontier,(907) 274-4673
1220 E Street,Anchorage,AK,99501,New Hope On The Last Frontier,(907) 274-4673
1220 E Street,Anchorage,AK,99501,New Hope On The Last Frontier,(907) 274-4673
1220 E Street,Anchorage,AK,99501,New Hope On The Last Frontier,(907) 274-4673
1220 E Street,Anchorage,AK,99501,New Hope On The Last Frontier,(907) 274-4673
1220 E Street,Anchorage,AK,99501,New Hope On The Last Frontier,(907) 274-4673
1220 E Street,Anchorage,AK,99501,New Hope On The Last Frontier,(907) 274-4673
300 N Bragaw,Anchorage,AK,99508,Mountain View Baptist Church,(907) 279-4316
300 N Bragaw,Anchorage,AK,99508,Mountain View Baptist Church,(907) 279-4316
300 N Bragaw,Anchorage,AK,99508,Mountain View Baptist Church,(907) 279-4316
300 N Bragaw,Anchorage,AK,99508,Mountain View Baptist Church,(907) 279-4316
300 N Bragaw,Anchorage,AK,99508,Mountain View Baptist Church,(907) 279-4316
300 N Bragaw,Anchorage,AK,99508,Mountain View Baptist Church,(907) 279-4316
300 N Bragaw,Anchorage,AK,99508,Mountain View Baptist Church,(907) 279-4316
300 N Bragaw,Anchorage,AK,99508,Mountain View Baptist Church,(907) 279-4316
300 N Bragaw,Anchorage,AK,99508,Mountain View Baptist Church,(907) 279-4316
300 N Bragaw,Anchorage,AK,99508,Mountain View Baptist Church,(907) 279-4316
1121 E 10th Avenue,Anchorage,AK,99501,Mobile Food Pantry - Fairview Recreation Center,(907) 272-3663
1121 E 10th Avenue,Anchorage,AK,99501,Mobile Food Pantry - Fairview Recreation Center,(907) 272-3663
1121 E 10th Avenue,Anchorage,AK,99501,Mobile Food Pantry - Fairview Recreation Center,(907) 272-3663
1121 E 10th Avenue,Anchorage,AK,99501,Mobile Food Pantry - Fairview Recreation Center,(907) 272-3663
1121 E 10th Avenue,Anchorage,AK,99501,Mobile Food Pantry - Fairview Recreation Center,(907) 272-3663
1121 E 10th Avenue,Anchorage,AK,99501,Mobile Food Pantry - Fairview Recreation Center,(907) 272-3663
1121 E 10th Avenue,Anchorage,AK,99501,Mobile Food Pantry - Fairview Recreation Center,(907) 272-3663
1121 E 10th Avenue,Anchorage,AK,99501,Mobile Food Pantry - Fairview Recreation Center,(907) 272-3663
1121 E 10th Avenue,Anchorage,AK,99501,Mobile Food Pantry - Fairview Recreation Center,(907) 272-3663
1121 E 10th Avenue,Anchorage,AK,99501,Mobile Food Pantry - Fairview Recreation Center,(907) 272-3663
1303 W 33rd Avenue,Anchorage,AK,99503,Lutheran Social Services Of Alaska,(907) 272-0643
1303 W 33rd Avenue,Anchorage,AK,99503,Lutheran Social Services Of Alaska,(907) 272-0643
1303 W 33rd Avenue,Anchorage,AK,99503,Lutheran Social Services Of Alaska,(907) 272-0643
1303 W 33rd Avenue,Anchorage,AK,99503,Lutheran Social Services Of Alaska,(907) 272-0643
1303 W 33rd Avenue,Anchorage,AK,99503,Lutheran Social Services Of Alaska,(907) 272-0643
1303 W 33rd Avenue,Anchorage,AK,99503,Lutheran Social Services Of Alaska,(907) 272-0643
1303 W 33rd Avenue,Anchorage,AK,99503,Lutheran Social Services Of Alaska,(907) 272-0643
1303 W 33rd Avenue,Anchorage,AK,99503,Lutheran Social Services Of Alaska,(907) 272-0643
1303 W 33rd Avenue,Anchorage,AK,99503,Lutheran Social Services Of Alaska,(907) 272-0643
1303 W 33rd Avenue,Anchorage,AK,99503,Lutheran Social Services Of Alaska,(907) 272-0643
3710 East 20th Ave,Anchorage,AK,99508,Catholic Social Services - Saint Francis House,907-222-7300
3710 East 20th Ave,Anchorage,AK,99508,Catholic Social Services - Saint Francis House,907-222-7300
3710 East 20th Ave,Anchorage,AK,99508,Catholic Social Services - Saint Francis House,907-222-7300
3710 East 20th Ave,Anchorage,AK,99508,Catholic Social Services - Saint Francis House,907-222-7300
3710 East 20th Ave,Anchorage,AK,99508,Catholic Social Services - Saint Francis House,907-222-7300
3710 East 20th Ave,Anchorage,AK,99508,Catholic Social Services - Saint Francis House,907-222-7300
3710 East 20th Ave,Anchorage,AK,99508,Catholic Social Services - Saint Francis House,907-222-7300
3710 East 20th Ave,Anchorage,AK,99508,Catholic Social Services - Saint Francis House,907-222-7300
3710 East 20th Ave,Anchorage,AK,99508,Catholic Social Services - Saint Francis House,907-222-7300
3710 East 20th Ave,Anchorage,AK,99508,Catholic Social Services - Saint Francis House,907-222-7300
240 E 3rd Ave,Anchorage,AK,99501,Downtown Soup Kitchen,(907) 277-4302
240 E 3rd Ave,Anchorage,AK,99501,Downtown Soup Kitchen,(907) 277-4302
240 E 3rd Ave,Anchorage,AK,99501,Downtown Soup Kitchen,(907) 277-4302
240 E 3rd Ave,Anchorage,AK,99501,Downtown Soup Kitchen,(907) 277-4302
240 E 3rd Ave,Anchorage,AK,99501,Downtown Soup Kitchen,(907) 277-4302
240 E 3rd Ave,Anchorage,AK,99501,Downtown Soup Kitchen,(907) 277-4302
240 E 3rd Ave,Anchorage,AK,99501,Downtown Soup Kitchen,(907) 277-4302
240 E 3rd Ave,Anchorage,AK,99501,Downtown Soup Kitchen,(907) 277-4302
240 E 3rd Ave,Anchorage,AK,99501,Downtown Soup Kitchen,(907) 277-4302
240 E 3rd Ave,Anchorage,AK,99501,Downtown Soup Kitchen,(907) 277-4302
2610 E Northern Lights Boulevard,Anchorage,AK,99508,First Congregational Church Food Pantry,(907) 272-8363
2610 E Northern Lights Boulevard,Anchorage,AK,99508,First Congregational Church Food Pantry,(907) 272-8363
2610 E Northern Lights Boulevard,Anchorage,AK,99508,First Congregational Church Food Pantry,(907) 272-8363
2610 E Northern Lights Boulevard,Anchorage,AK,99508,First Congregational Church Food Pantry,(907) 272-8363
2610 E Northern Lights Boulevard,Anchorage,AK,99508,First Congregational Church Food Pantry,(907) 272-8363
2610 E Northern Lights Boulevard,Anchorage,AK,99508,First Congregational Church Food Pantry,(907) 272-8363
2610 E Northern Lights Boulevard,Anchorage,AK,99508,First Congregational Church Food Pantry,(907) 272-8363
2610 E Northern Lights Boulevard,Anchorage,AK,99508,First Congregational Church Food Pantry,(907) 272-8363
2610 E Northern Lights Boulevard,Anchorage,AK,99508,First Congregational Church Food Pantry,(907) 272-8363
2610 E Northern Lights Boulevard,Anchorage,AK,99508,First Congregational Church Food Pantry,(907) 272-8363
1 Community Hall Road,Aniak,AK,99557,Aniak Traditional Council,907-675-4349
1 Community Hall Road,Aniak,AK,99557,Aniak Traditional Council,907-675-4349
1 Community Hall Road,Aniak,AK,99557,Aniak Traditional Council,907-675-4349
1 Community Hall Road,Aniak,AK,99557,Aniak Traditional Council,907-675-4349
1 Community Hall Road,Aniak,AK,99557,Aniak Traditional Council,907-675-4349
1 Community Hall Road,Aniak,AK,99557,Aniak Traditional Council,907-675-4349
1 Community Hall Road,Aniak,AK,99557,Aniak Traditional Council,907-675-4349
1 Community Hall Road,Aniak,AK,99557,Aniak Traditional Council,907-675-4349
1 Community Hall Road,Aniak,AK,99557,Aniak Traditional Council,907-675-4349
1 Community Hall Road,Aniak,AK,99557,Aniak Traditional Council,907-675-4349
1 Community Hall Road,Aniak,AK,99557,Aniak Traditional Council,(907) 675-4349
1 Community Hall Road,Aniak,AK,99557,Aniak Traditional Council,(907) 675-4349
1 Community Hall Road,Aniak,AK,99557,Aniak Traditional Council,(907) 675-4349
1 Community Hall Road,Aniak,AK,99557,Aniak Traditional Council,(907) 675-4349
1 Community Hall Road,Aniak,AK,99557,Aniak Traditional Council,(907) 675-4349
1 Community Hall Road,Aniak,AK,99557,Aniak Traditional Council,(907) 675-4349
1 Community Hall Road,Aniak,AK,99557,Aniak Traditional Council,(907) 675-4349
1 Community Hall Road,Aniak,AK,99557,Aniak Traditional Council,(907) 675-4349
1 Community Hall Road,Aniak,AK,99557,Aniak Traditional Council,(907) 675-4349
1 Community Hall Road,Aniak,AK,99557,Aniak Traditional Council,(907) 675-4349
Po Box 927,Bethel,AK,99559,Orutsaramuit Native Council Social Services,(907) 543-2608
Po Box 927,Bethel,AK,99559,Orutsaramuit Native Council Social Services,(907) 543-2608
Po Box 927,Bethel,AK,99559,Orutsaramuit Native Council Social Services,(907) 543-2608
Po Box 927,Bethel,AK,99559,Orutsaramuit Native Council Social Services,(907) 543-2608
Po Box 927,Bethel,AK,99559,Orutsaramuit Native Council Social Services,(907) 543-2608
Po Box 927,Bethel,AK,99559,Orutsaramuit Native Council Social Services,(907) 543-2608
Po Box 927,Bethel,AK,99559,Orutsaramuit Native Council Social Services,(907) 543-2608
Po Box 927,Bethel,AK,99559,Orutsaramuit Native Council Social Services,(907) 543-2608
Po Box 927,Bethel,AK,99559,Orutsaramuit Native Council Social Services,(907) 543-2608
Po Box 927,Bethel,AK,99559,Orutsaramuit Native Council Social Services,(907) 543-2608
Mile 5.5 S Big Lake Rd,Big Lake,AK,99652,Our Lady Of The Lake Catholic Church,907-892-6492
Mile 5.5 S Big Lake Rd,Big Lake,AK,99652,Our Lady Of The Lake Catholic Church,907-892-6492
Mile 5.5 S Big Lake Rd,Big Lake,AK,99652,Our Lady Of The Lake Catholic Church,907-892-6492
Mile 5.5 S Big Lake Rd,Big Lake,AK,99652,Our Lady Of The Lake Catholic Church,907-892-6492
Mile 5.5 S Big Lake Rd,Big Lake,AK,99652,Our Lady Of The Lake Catholic Church,907-892-6492
Mile 5.5 S Big Lake Rd,Big Lake,AK,99652,Our Lady Of The Lake Catholic Church,907-892-6492
Mile 5.5 S Big Lake Rd,Big Lake,AK,99652,Our Lady Of The Lake Catholic Church,907-892-6492
Mile 5.5 S Big Lake Rd,Big Lake,AK,99652,Our Lady Of The Lake Catholic Church,907-892-6492
Mile 5.5 S Big Lake Rd,Big Lake,AK,99652,Our Lady Of The Lake Catholic Church,907-892-6492
Mile 5.5 S Big Lake Rd,Big Lake,AK,99652,Our Lady Of The Lake Catholic Church,907-892-6492
Mile 5.5 S Big Lake Road,Big Lake,AK,99652,Our Lady Of The Lake Catholic Church,(907) 892-6492
Mile 5.5 S Big Lake Road,Big Lake,AK,99652,Our Lady Of The Lake Catholic Church,(907) 892-6492
Mile 5.5 S Big Lake Road,Big Lake,AK,99652,Our Lady Of The Lake Catholic Church,(907) 892-6492
Mile 5.5 S Big Lake Road,Big Lake,AK,99652,Our Lady Of The Lake Catholic Church,(907) 892-6492
Mile 5.5 S Big Lake Road,Big Lake,AK,99652,Our Lady Of The Lake Catholic Church,(907) 892-6492
Mile 5.5 S Big Lake Road,Big Lake,AK,99652,Our Lady Of The Lake Catholic Church,(907) 892-6492
Mile 5.5 S Big Lake Road,Big Lake,AK,99652,Our Lady Of The Lake Catholic Church,(907) 892-6492
Mile 5.5 S Big Lake Road,Big Lake,AK,99652,Our Lady Of The Lake Catholic Church,(907) 892-6492
Mile 5.5 S Big Lake Road,Big Lake,AK,99652,Our Lady Of The Lake Catholic Church,(907) 892-6492
Mile 5.5 S Big Lake Road,Big Lake,AK,99652,Our Lady Of The Lake Catholic Church,(907) 892-6492
Ferry Terminal ,Coffman Cove,AK,99918,Coffman Cove Food Pantry,(907) 329-2233
Ferry Terminal ,Coffman Cove,AK,99918,Coffman Cove Food Pantry,(907) 329-2233
Ferry Terminal ,Coffman Cove,AK,99918,Coffman Cove Food Pantry,(907) 329-2233
Ferry Terminal ,Coffman Cove,AK,99918,Coffman Cove Food Pantry,(907) 329-2233
Ferry Terminal ,Coffman Cove,AK,99918,Coffman Cove Food Pantry,(907) 329-2233
Ferry Terminal ,Coffman Cove,AK,99918,Coffman Cove Food Pantry,(907) 329-2233
Ferry Terminal ,Coffman Cove,AK,99918,Coffman Cove Food Pantry,(907) 329-2233
Ferry Terminal ,Coffman Cove,AK,99918,Coffman Cove Food Pantry,(907) 329-2233
Ferry Terminal ,Coffman Cove,AK,99918,Coffman Cove Food Pantry,(907) 329-2233
Ferry Terminal ,Coffman Cove,AK,99918,Coffman Cove Food Pantry,(907) 329-2233
1500 Kanakanak Road,Dillingham,AK,99576,Bristol Bay Native Association,907-842-3663
1500 Kanakanak Road,Dillingham,AK,99576,Bristol Bay Native Association,907-842-3663
1500 Kanakanak Road,Dillingham,AK,99576,Bristol Bay Native Association,907-842-3663
1500 Kanakanak Road,Dillingham,AK,99576,Bristol Bay Native Association,907-842-3663
1500 Kanakanak Road,Dillingham,AK,99576,Bristol Bay Native Association,907-842-3663
1500 Kanakanak Road,Dillingham,AK,99576,Bristol Bay Native Association,907-842-3663
1500 Kanakanak Road,Dillingham,AK,99576,Bristol Bay Native Association,907-842-3663
1500 Kanakanak Road,Dillingham,AK,99576,Bristol Bay Native Association,907-842-3663
1500 Kanakanak Road,Dillingham,AK,99576,Bristol Bay Native Association,907-842-3663
1500 Kanakanak Road,Dillingham,AK,99576,Bristol Bay Native Association,907-842-3663
1500 Kanakanak Road,Dillingham,AK,99576,Bristol Bay Native Association,(907) 842-3663
1500 Kanakanak Road,Dillingham,AK,99576,Bristol Bay Native Association,(907) 842-3663
1500 Kanakanak Road,Dillingham,AK,99576,Bristol Bay Native Association,(907) 842-3663
1500 Kanakanak Road,Dillingham,AK,99576,Bristol Bay Native Association,(907) 842-3663
1500 Kanakanak Road,Dillingham,AK,99576,Bristol Bay Native Association,(907) 842-3663
1500 Kanakanak Road,Dillingham,AK,99576,Bristol Bay Native Association,(907) 842-3663
1500 Kanakanak Road,Dillingham,AK,99576,Bristol Bay Native Association,(907) 842-3663
1500 Kanakanak Road,Dillingham,AK,99576,Bristol Bay Native Association,(907) 842-3663
1500 Kanakanak Road,Dillingham,AK,99576,Bristol Bay Native Association,(907) 842-3663
1500 Kanakanak Road,Dillingham,AK,99576,Bristol Bay Native Association,(907) 842-3663
1106 3rd St,Douglas,AK,99824,Douglas Community United Methodist Church,907-364-2408
1106 3rd St,Douglas,AK,99824,Douglas Community United Methodist Church,907-364-2408
1106 3rd St,Douglas,AK,99824,Douglas Community United Methodist Church,907-364-2408
1106 3rd St,Douglas,AK,99824,Douglas Community United Methodist Church,907-364-2408
1106 3rd St,Douglas,AK,99824,Douglas Community United Methodist Church,907-364-2408
1106 3rd St,Douglas,AK,99824,Douglas Community United Methodist Church,907-364-2408
1106 3rd St,Douglas,AK,99824,Douglas Community United Methodist Church,907-364-2408
1106 3rd St,Douglas,AK,99824,Douglas Community United Methodist Church,907-364-2408
1106 3rd St,Douglas,AK,99824,Douglas Community United Methodist Church,907-364-2408
1106 3rd St,Douglas,AK,99824,Douglas Community United Methodist Church,907-364-2408
1106 3rd Street,Douglas,AK,99824,Douglas Community United Methodist Church,(907) 364-2408
1106 3rd Street,Douglas,AK,99824,Douglas Community United Methodist Church,(907) 364-2408
1106 3rd Street,Douglas,AK,99824,Douglas Community United Methodist Church,(907) 364-2408
1106 3rd Street,Douglas,AK,99824,Douglas Community United Methodist Church,(907) 364-2408
1106 3rd Street,Douglas,AK,99824,Douglas Community United Methodist Church,(907) 364-2408
1106 3rd Street,Douglas,AK,99824,Douglas Community United Methodist Church,(907) 364-2408
1106 3rd Street,Douglas,AK,99824,Douglas Community United Methodist Church,(907) 364-2408
1106 3rd Street,Douglas,AK,99824,Douglas Community United Methodist Church,(907) 364-2408
1106 3rd Street,Douglas,AK,99824,Douglas Community United Methodist Church,(907) 364-2408
1106 3rd Street,Douglas,AK,99824,Douglas Community United Methodist Church,(907) 364-2408
17108 Hanson Drive,Eagle River,AK,99577,Eagle River Church Of God,(907) 694-9395
17108 Hanson Drive,Eagle River,AK,99577,Eagle River Church Of God,(907) 694-9395
17108 Hanson Drive,Eagle River,AK,99577,Eagle River Church Of God,(907) 694-9395
17108 Hanson Drive,Eagle River,AK,99577,Eagle River Church Of God,(907) 694-9395
17108 Hanson Drive,Eagle River,AK,99577,Eagle River Church Of God,(907) 694-9395
17108 Hanson Drive,Eagle River,AK,99577,Eagle River Church Of God,(907) 694-9395
17108 Hanson Drive,Eagle River,AK,99577,Eagle River Church Of God,(907) 694-9395
17108 Hanson Drive,Eagle River,AK,99577,Eagle River Church Of God,(907) 694-9395
17108 Hanson Drive,Eagle River,AK,99577,Eagle River Church Of God,(907) 694-9395
17108 Hanson Drive,Eagle River,AK,99577,Eagle River Church Of God,(907) 694-9395
12836 Old Glenn Highway,Eagle River,AK,99577,Chugiak Eagle River Food Pantry - Eagle River Presbyterian,(907) 694-5753
12836 Old Glenn Highway,Eagle River,AK,99577,Chugiak Eagle River Food Pantry - Eagle River Presbyterian,(907) 694-5753
12836 Old Glenn Highway,Eagle River,AK,99577,Chugiak Eagle River Food Pantry - Eagle River Presbyterian,(907) 694-5753
12836 Old Glenn Highway,Eagle River,AK,99577,Chugiak Eagle River Food Pantry - Eagle River Presbyterian,(907) 694-5753
12836 Old Glenn Highway,Eagle River,AK,99577,Chugiak Eagle River Food Pantry - Eagle River Presbyterian,(907) 694-5753
12836 Old Glenn Highway,Eagle River,AK,99577,Chugiak Eagle River Food Pantry - Eagle River Presbyterian,(907) 694-5753
12836 Old Glenn Highway,Eagle River,AK,99577,Chugiak Eagle River Food Pantry - Eagle River Presbyterian,(907) 694-5753
12836 Old Glenn Highway,Eagle River,AK,99577,Chugiak Eagle River Food Pantry - Eagle River Presbyterian,(907) 694-5753
12836 Old Glenn Highway,Eagle River,AK,99577,Chugiak Eagle River Food Pantry - Eagle River Presbyterian,(907) 694-5753
12836 Old Glenn Highway,Eagle River,AK,99577,Chugiak Eagle River Food Pantry - Eagle River Presbyterian,(907) 694-5753
725 26th Avenue,Fairbanks,AK,99701,Fairbanks Community Food Bank,(907) 457-4273
725 26th Avenue,Fairbanks,AK,99701,Fairbanks Community Food Bank,(907) 457-4273
725 26th Avenue,Fairbanks,AK,99701,Fairbanks Community Food Bank,(907) 457-4273
725 26th Avenue,Fairbanks,AK,99701,Fairbanks Community Food Bank,(907) 457-4273
725 26th Avenue,Fairbanks,AK,99701,Fairbanks Community Food Bank,(907) 457-4273
725 26th Avenue,Fairbanks,AK,99701,Fairbanks Community Food Bank,(907) 457-4273
725 26th Avenue,Fairbanks,AK,99701,Fairbanks Community Food Bank,(907) 457-4273
725 26th Avenue,Fairbanks,AK,99701,Fairbanks Community Food Bank,(907) 457-4273
725 26th Avenue,Fairbanks,AK,99701,Fairbanks Community Food Bank,(907) 457-4273
725 26th Avenue,Fairbanks,AK,99701,Fairbanks Community Food Bank,(907) 457-4273
1602 10th Ave,Fairbanks,AK,99701,Salvation Army - Fairbanks Corps,(907) 452-3103
1602 10th Ave,Fairbanks,AK,99701,Salvation Army - Fairbanks Corps,(907) 452-3103
1602 10th Ave,Fairbanks,AK,99701,Salvation Army - Fairbanks Corps,(907) 452-3103
1602 10th Ave,Fairbanks,AK,99701,Salvation Army - Fairbanks Corps,(907) 452-3103
1602 10th Ave,Fairbanks,AK,99701,Salvation Army - Fairbanks Corps,(907) 452-3103
1602 10th Ave,Fairbanks,AK,99701,Salvation Army - Fairbanks Corps,(907) 452-3103
1602 10th Ave,Fairbanks,AK,99701,Salvation Army - Fairbanks Corps,(907) 452-3103
1602 10th Ave,Fairbanks,AK,99701,Salvation Army - Fairbanks Corps,(907) 452-3103
1602 10th Ave,Fairbanks,AK,99701,Salvation Army - Fairbanks Corps,(907) 452-3103
1602 10th Ave,Fairbanks,AK,99701,Salvation Army - Fairbanks Corps,(907) 452-3103
402 16th Ave,Fairbanks,AK,99701,Christ Is The Answer,(907) 452-6810
402 16th Ave,Fairbanks,AK,99701,Christ Is The Answer,(907) 452-6810
402 16th Ave,Fairbanks,AK,99701,Christ Is The Answer,(907) 452-6810
402 16th Ave,Fairbanks,AK,99701,Christ Is The Answer,(907) 452-6810
402 16th Ave,Fairbanks,AK,99701,Christ Is The Answer,(907) 452-6810
402 16th Ave,Fairbanks,AK,99701,Christ Is The Answer,(907) 452-6810
402 16th Ave,Fairbanks,AK,99701,Christ Is The Answer,(907) 452-6810
402 16th Ave,Fairbanks,AK,99701,Christ Is The Answer,(907) 452-6810
402 16th Ave,Fairbanks,AK,99701,Christ Is The Answer,(907) 452-6810
402 16th Ave,Fairbanks,AK,99701,Christ Is The Answer,(907) 452-6810
2136 Mccullam Ave,Fairbanks,AK,99701,Community Covenant Church Fairbanks,(907) 456-6553
2136 Mccullam Ave,Fairbanks,AK,99701,Community Covenant Church Fairbanks,(907) 456-6553
2136 Mccullam Ave,Fairbanks,AK,99701,Community Covenant Church Fairbanks,(907) 456-6553
2136 Mccullam Ave,Fairbanks,AK,99701,Community Covenant Church Fairbanks,(907) 456-6553
2136 Mccullam Ave,Fairbanks,AK,99701,Community Covenant Church Fairbanks,(907) 456-6553
2136 Mccullam Ave,Fairbanks,AK,99701,Community Covenant Church Fairbanks,(907) 456-6553
2136 Mccullam Ave,Fairbanks,AK,99701,Community Covenant Church Fairbanks,(907) 456-6553
2136 Mccullam Ave,Fairbanks,AK,99701,Community Covenant Church Fairbanks,(907) 456-6553
2136 Mccullam Ave,Fairbanks,AK,99701,Community Covenant Church Fairbanks,(907) 456-6553
2136 Mccullam Ave,Fairbanks,AK,99701,Community Covenant Church Fairbanks,(907) 456-6553
315 Wendell St,Fairbanks,AK,99701,Fairbanks Native Association,907-452-5225
315 Wendell St,Fairbanks,AK,99701,Fairbanks Native Association,907-452-5225
315 Wendell St,Fairbanks,AK,99701,Fairbanks Native Association,907-452-5225
315 Wendell St,Fairbanks,AK,99701,Fairbanks Native Association,907-452-5225
315 Wendell St,Fairbanks,AK,99701,Fairbanks Native Association,907-452-5225
315 Wendell St,Fairbanks,AK,99701,Fairbanks Native Association,907-452-5225
315 Wendell St,Fairbanks,AK,99701,Fairbanks Native Association,907-452-5225
315 Wendell St,Fairbanks,AK,99701,Fairbanks Native Association,907-452-5225
315 Wendell St,Fairbanks,AK,99701,Fairbanks Native Association,907-452-5225
315 Wendell St,Fairbanks,AK,99701,Fairbanks Native Association,907-452-5225
1524 Westwood Way Ste B,Fairbanks,AK,99709,Fairbanks First Church Of The Nazarene,907-479-6734
1524 Westwood Way Ste B,Fairbanks,AK,99709,Fairbanks First Church Of The Nazarene,907-479-6734
1524 Westwood Way Ste B,Fairbanks,AK,99709,Fairbanks First Church Of The Nazarene,907-479-6734
1524 Westwood Way Ste B,Fairbanks,AK,99709,Fairbanks First Church Of The Nazarene,907-479-6734
1524 Westwood Way Ste B,Fairbanks,AK,99709,Fairbanks First Church Of The Nazarene,907-479-6734
1524 Westwood Way Ste B,Fairbanks,AK,99709,Fairbanks First Church Of The Nazarene,907-479-6734
1524 Westwood Way Ste B,Fairbanks,AK,99709,Fairbanks First Church Of The Nazarene,907-479-6734
1524 Westwood Way Ste B,Fairbanks,AK,99709,Fairbanks First Church Of The Nazarene,907-479-6734
1524 Westwood Way Ste B,Fairbanks,AK,99709,Fairbanks First Church Of The Nazarene,907-479-6734
1524 Westwood Way Ste B,Fairbanks,AK,99709,Fairbanks First Church Of The Nazarene,907-479-6734
547 7th Ave,Fairbanks,AK,99701,First Presbyterian Church Fairbanks,907-452-2406
547 7th Ave,Fairbanks,AK,99701,First Presbyterian Church Fairbanks,907-452-2406
547 7th Ave,Fairbanks,AK,99701,First Presbyterian Church Fairbanks,907-452-2406
547 7th Ave,Fairbanks,AK,99701,First Presbyterian Church Fairbanks,907-452-2406
547 7th Ave,Fairbanks,AK,99701,First Presbyterian Church Fairbanks,907-452-2406
547 7th Ave,Fairbanks,AK,99701,First Presbyterian Church Fairbanks,907-452-2406
547 7th Ave,Fairbanks,AK,99701,First Presbyterian Church Fairbanks,907-452-2406
547 7th Ave,Fairbanks,AK,99701,First Presbyterian Church Fairbanks,907-452-2406
547 7th Ave,Fairbanks,AK,99701,First Presbyterian Church Fairbanks,907-452-2406
547 7th Ave,Fairbanks,AK,99701,First Presbyterian Church Fairbanks,907-452-2406
115 N Cushman St,Fairbanks,AK,99701,Immaculate Conception Church And Community Services,907-456-4918
115 N Cushman St,Fairbanks,AK,99701,Immaculate Conception Church And Community Services,907-456-4918
115 N Cushman St,Fairbanks,AK,99701,Immaculate Conception Church And Community Services,907-456-4918
115 N Cushman St,Fairbanks,AK,99701,Immaculate Conception Church And Community Services,907-456-4918
115 N Cushman St,Fairbanks,AK,99701,Immaculate Conception Church And Community Services,907-456-4918
115 N Cushman St,Fairbanks,AK,99701,Immaculate Conception Church And Community Services,907-456-4918
115 N Cushman St,Fairbanks,AK,99701,Immaculate Conception Church And Community Services,907-456-4918
115 N Cushman St,Fairbanks,AK,99701,Immaculate Conception Church And Community Services,907-456-4918
115 N Cushman St,Fairbanks,AK,99701,Immaculate Conception Church And Community Services,907-456-4918
115 N Cushman St,Fairbanks,AK,99701,Immaculate Conception Church And Community Services,907-456-4918
1602 10th Avenue,Fairbanks,AK,99701,Salvation Army - Fairbanks Corps,(907) 452-3103
1602 10th Avenue,Fairbanks,AK,99701,Salvation Army - Fairbanks Corps,(907) 452-3103
1602 10th Avenue,Fairbanks,AK,99701,Salvation Army - Fairbanks Corps,(907) 452-3103
1602 10th Avenue,Fairbanks,AK,99701,Salvation Army - Fairbanks Corps,(907) 452-3103
1602 10th Avenue,Fairbanks,AK,99701,Salvation Army - Fairbanks Corps,(907) 452-3103
1602 10th Avenue,Fairbanks,AK,99701,Salvation Army - Fairbanks Corps,(907) 452-3103
1602 10th Avenue,Fairbanks,AK,99701,Salvation Army - Fairbanks Corps,(907) 452-3103
1602 10th Avenue,Fairbanks,AK,99701,Salvation Army - Fairbanks Corps,(907) 452-3103
1602 10th Avenue,Fairbanks,AK,99701,Salvation Army - Fairbanks Corps,(907) 452-3103
1602 10th Avenue,Fairbanks,AK,99701,Salvation Army - Fairbanks Corps,(907) 452-3103
115 N Cushman Street,Fairbanks,AK,99701,Immaculate Conception Church And Community Services,(907) 456-4918
115 N Cushman Street,Fairbanks,AK,99701,Immaculate Conception Church And Community Services,(907) 456-4918
115 N Cushman Street,Fairbanks,AK,99701,Immaculate Conception Church And Community Services,(907) 456-4918
115 N Cushman Street,Fairbanks,AK,99701,Immaculate Conception Church And Community Services,(907) 456-4918
115 N Cushman Street,Fairbanks,AK,99701,Immaculate Conception Church And Community Services,(907) 456-4918
115 N Cushman Street,Fairbanks,AK,99701,Immaculate Conception Church And Community Services,(907) 456-4918
115 N Cushman Street,Fairbanks,AK,99701,Immaculate Conception Church And Community Services,(907) 456-4918
115 N Cushman Street,Fairbanks,AK,99701,Immaculate Conception Church And Community Services,(907) 456-4918
115 N Cushman Street,Fairbanks,AK,99701,Immaculate Conception Church And Community Services,(907) 456-4918
115 N Cushman Street,Fairbanks,AK,99701,Immaculate Conception Church And Community Services,(907) 456-4918
547 7th Avenue,Fairbanks,AK,99701,First Presbyterian Church Food Pantry,(907) 452-2406
547 7th Avenue,Fairbanks,AK,99701,First Presbyterian Church Food Pantry,(907) 452-2406
547 7th Avenue,Fairbanks,AK,99701,First Presbyterian Church Food Pantry,(907) 452-2406
547 7th Avenue,Fairbanks,AK,99701,First Presbyterian Church Food Pantry,(907) 452-2406
547 7th Avenue,Fairbanks,AK,99701,First Presbyterian Church Food Pantry,(907) 452-2406
547 7th Avenue,Fairbanks,AK,99701,First Presbyterian Church Food Pantry,(907) 452-2406
547 7th Avenue,Fairbanks,AK,99701,First Presbyterian Church Food Pantry,(907) 452-2406
547 7th Avenue,Fairbanks,AK,99701,First Presbyterian Church Food Pantry,(907) 452-2406
547 7th Avenue,Fairbanks,AK,99701,First Presbyterian Church Food Pantry,(907) 452-2406
547 7th Avenue,Fairbanks,AK,99701,First Presbyterian Church Food Pantry,(907) 452-2406
1524 Westwood Way Suite B,Fairbanks,AK,99709,First Church Of The Nazarene,(907) 479-6734
1524 Westwood Way Suite B,Fairbanks,AK,99709,First Church Of The Nazarene,(907) 479-6734
1524 Westwood Way Suite B,Fairbanks,AK,99709,First Church Of The Nazarene,(907) 479-6734
1524 Westwood Way Suite B,Fairbanks,AK,99709,First Church Of The Nazarene,(907) 479-6734
1524 Westwood Way Suite B,Fairbanks,AK,99709,First Church Of The Nazarene,(907) 479-6734
1524 Westwood Way Suite B,Fairbanks,AK,99709,First Church Of The Nazarene,(907) 479-6734
1524 Westwood Way Suite B,Fairbanks,AK,99709,First Church Of The Nazarene,(907) 479-6734
1524 Westwood Way Suite B,Fairbanks,AK,99709,First Church Of The Nazarene,(907) 479-6734
1524 Westwood Way Suite B,Fairbanks,AK,99709,First Church Of The Nazarene,(907) 479-6734
1524 Westwood Way Suite B,Fairbanks,AK,99709,First Church Of The Nazarene,(907) 479-6734
101 City Lights Boulevard,Fairbanks,AK,99712,Fairhill Community Church,(907) 457-5522
101 City Lights Boulevard,Fairbanks,AK,99712,Fairhill Community Church,(907) 457-5522
101 City Lights Boulevard,Fairbanks,AK,99712,Fairhill Community Church,(907) 457-5522
101 City Lights Boulevard,Fairbanks,AK,99712,Fairhill Community Church,(907) 457-5522
101 City Lights Boulevard,Fairbanks,AK,99712,Fairhill Community Church,(907) 457-5522
101 City Lights Boulevard,Fairbanks,AK,99712,Fairhill Community Church,(907) 457-5522
101 City Lights Boulevard,Fairbanks,AK,99712,Fairhill Community Church,(907) 457-5522
101 City Lights Boulevard,Fairbanks,AK,99712,Fairhill Community Church,(907) 457-5522
101 City Lights Boulevard,Fairbanks,AK,99712,Fairhill Community Church,(907) 457-5522
101 City Lights Boulevard,Fairbanks,AK,99712,Fairhill Community Church,(907) 457-5522
315 Wendell Street,Fairbanks,AK,99701,Community Services - Fairbanks Native Association,(907) 452-5225
315 Wendell Street,Fairbanks,AK,99701,Community Services - Fairbanks Native Association,(907) 452-5225
315 Wendell Street,Fairbanks,AK,99701,Community Services - Fairbanks Native Association,(907) 452-5225
315 Wendell Street,Fairbanks,AK,99701,Community Services - Fairbanks Native Association,(907) 452-5225
315 Wendell Street,Fairbanks,AK,99701,Community Services - Fairbanks Native Association,(907) 452-5225
315 Wendell Street,Fairbanks,AK,99701,Community Services - Fairbanks Native Association,(907) 452-5225
315 Wendell Street,Fairbanks,AK,99701,Community Services - Fairbanks Native Association,(907) 452-5225
315 Wendell Street,Fairbanks,AK,99701,Community Services - Fairbanks Native Association,(907) 452-5225
315 Wendell Street,Fairbanks,AK,99701,Community Services - Fairbanks Native Association,(907) 452-5225
315 Wendell Street,Fairbanks,AK,99701,Community Services - Fairbanks Native Association,(907) 452-5225
2136 McCullam Avenue,Fairbanks,AK,99701,Community Covenant Church,(907) 456-6553
2136 McCullam Avenue,Fairbanks,AK,99701,Community Covenant Church,(907) 456-6553
2136 McCullam Avenue,Fairbanks,AK,99701,Community Covenant Church,(907) 456-6553
2136 McCullam Avenue,Fairbanks,AK,99701,Community Covenant Church,(907) 456-6553
2136 McCullam Avenue,Fairbanks,AK,99701,Community Covenant Church,(907) 456-6553
2136 McCullam Avenue,Fairbanks,AK,99701,Community Covenant Church,(907) 456-6553
2136 McCullam Avenue,Fairbanks,AK,99701,Community Covenant Church,(907) 456-6553
2136 McCullam Avenue,Fairbanks,AK,99701,Community Covenant Church,(907) 456-6553
2136 McCullam Avenue,Fairbanks,AK,99701,Community Covenant Church,(907) 456-6553
2136 McCullam Avenue,Fairbanks,AK,99701,Community Covenant Church,(907) 456-6553
402 16th Avenue,Fairbanks,AK,99701,Christ Is The Answer,(907) 452-6810
402 16th Avenue,Fairbanks,AK,99701,Christ Is The Answer,(907) 452-6810
402 16th Avenue,Fairbanks,AK,99701,Christ Is The Answer,(907) 452-6810
402 16th Avenue,Fairbanks,AK,99701,Christ Is The Answer,(907) 452-6810
402 16th Avenue,Fairbanks,AK,99701,Christ Is The Answer,(907) 452-6810
402 16th Avenue,Fairbanks,AK,99701,Christ Is The Answer,(907) 452-6810
402 16th Avenue,Fairbanks,AK,99701,Christ Is The Answer,(907) 452-6810
402 16th Avenue,Fairbanks,AK,99701,Christ Is The Answer,(907) 452-6810
402 16th Avenue,Fairbanks,AK,99701,Christ Is The Answer,(907) 452-6810
402 16th Avenue,Fairbanks,AK,99701,Christ Is The Answer,(907) 452-6810
2501 Airport Way,Fairbanks,AK,99701,Sacred Heart Cathedral Fairbanks,(907) 474-9032
2501 Airport Way,Fairbanks,AK,99701,Sacred Heart Cathedral Fairbanks,(907) 474-9032
2501 Airport Way,Fairbanks,AK,99701,Sacred Heart Cathedral Fairbanks,(907) 474-9032
2501 Airport Way,Fairbanks,AK,99701,Sacred Heart Cathedral Fairbanks,(907) 474-9032
2501 Airport Way,Fairbanks,AK,99701,Sacred Heart Cathedral Fairbanks,(907) 474-9032
2501 Airport Way,Fairbanks,AK,99701,Sacred Heart Cathedral Fairbanks,(907) 474-9032
2501 Airport Way,Fairbanks,AK,99701,Sacred Heart Cathedral Fairbanks,(907) 474-9032
2501 Airport Way,Fairbanks,AK,99701,Sacred Heart Cathedral Fairbanks,(907) 474-9032
2501 Airport Way,Fairbanks,AK,99701,Sacred Heart Cathedral Fairbanks,(907) 474-9032
2501 Airport Way,Fairbanks,AK,99701,Sacred Heart Cathedral Fairbanks,(907) 474-9032
3rd And Alder St,Fort Yukon,AK,99740,Gwichyaa Zhee Gwich''in Tribal Government,907-662-2581
3rd And Alder St,Fort Yukon,AK,99740,Gwichyaa Zhee Gwich''in Tribal Government,907-662-2581
3rd And Alder St,Fort Yukon,AK,99740,Gwichyaa Zhee Gwich''in Tribal Government,907-662-2581
3rd And Alder St,Fort Yukon,AK,99740,Gwichyaa Zhee Gwich''in Tribal Government,907-662-2581
3rd And Alder St,Fort Yukon,AK,99740,Gwichyaa Zhee Gwich''in Tribal Government,907-662-2581
3rd And Alder St,Fort Yukon,AK,99740,Gwichyaa Zhee Gwich''in Tribal Government,907-662-2581
3rd And Alder St,Fort Yukon,AK,99740,Gwichyaa Zhee Gwich''in Tribal Government,907-662-2581
3rd And Alder St,Fort Yukon,AK,99740,Gwichyaa Zhee Gwich''in Tribal Government,907-662-2581
3rd And Alder St,Fort Yukon,AK,99740,Gwichyaa Zhee Gwich''in Tribal Government,907-662-2581
3rd And Alder St,Fort Yukon,AK,99740,Gwichyaa Zhee Gwich''in Tribal Government,907-662-2581
3rd and Alder Street,Fort Yukon,AK,99740,Gwichyaa Zhee Gwich'in Tribal Government,(907) 662-2581
3rd and Alder Street,Fort Yukon,AK,99740,Gwichyaa Zhee Gwich'in Tribal Government,(907) 662-2581
3rd and Alder Street,Fort Yukon,AK,99740,Gwichyaa Zhee Gwich'in Tribal Government,(907) 662-2581
3rd and Alder Street,Fort Yukon,AK,99740,Gwichyaa Zhee Gwich'in Tribal Government,(907) 662-2581
3rd and Alder Street,Fort Yukon,AK,99740,Gwichyaa Zhee Gwich'in Tribal Government,(907) 662-2581
3rd and Alder Street,Fort Yukon,AK,99740,Gwichyaa Zhee Gwich'in Tribal Government,(907) 662-2581
3rd and Alder Street,Fort Yukon,AK,99740,Gwichyaa Zhee Gwich'in Tribal Government,(907) 662-2581
3rd and Alder Street,Fort Yukon,AK,99740,Gwichyaa Zhee Gwich'in Tribal Government,(907) 662-2581
3rd and Alder Street,Fort Yukon,AK,99740,Gwichyaa Zhee Gwich'in Tribal Government,(907) 662-2581
3rd and Alder Street,Fort Yukon,AK,99740,Gwichyaa Zhee Gwich'in Tribal Government,(907) 662-2581
430 Union St,Haines,AK,99827,Salvation Army - Haines Corps,907-766-2470
430 Union St,Haines,AK,99827,Salvation Army - Haines Corps,907-766-2470
430 Union St,Haines,AK,99827,Salvation Army - Haines Corps,907-766-2470
430 Union St,Haines,AK,99827,Salvation Army - Haines Corps,907-766-2470
430 Union St,Haines,AK,99827,Salvation Army - Haines Corps,907-766-2470
430 Union St,Haines,AK,99827,Salvation Army - Haines Corps,907-766-2470
430 Union St,Haines,AK,99827,Salvation Army - Haines Corps,907-766-2470
430 Union St,Haines,AK,99827,Salvation Army - Haines Corps,907-766-2470
430 Union St,Haines,AK,99827,Salvation Army - Haines Corps,907-766-2470
430 Union St,Haines,AK,99827,Salvation Army - Haines Corps,907-766-2470
430 Union Street,Haines,AK,99827,Salvation Army - Haines Corps,(907) 766-2470
430 Union Street,Haines,AK,99827,Salvation Army - Haines Corps,(907) 766-2470
430 Union Street,Haines,AK,99827,Salvation Army - Haines Corps,(907) 766-2470
430 Union Street,Haines,AK,99827,Salvation Army - Haines Corps,(907) 766-2470
430 Union Street,Haines,AK,99827,Salvation Army - Haines Corps,(907) 766-2470
430 Union Street,Haines,AK,99827,Salvation Army - Haines Corps,(907) 766-2470
430 Union Street,Haines,AK,99827,Salvation Army - Haines Corps,(907) 766-2470
430 Union Street,Haines,AK,99827,Salvation Army - Haines Corps,(907) 766-2470
430 Union Street,Haines,AK,99827,Salvation Army - Haines Corps,(907) 766-2470
430 Union Street,Haines,AK,99827,Salvation Army - Haines Corps,(907) 766-2470
1468 Sterling Hwy,Homer,AK,99603,Salvation Army - Homer Corps,(907) 235-2609
1468 Sterling Hwy,Homer,AK,99603,Salvation Army - Homer Corps,(907) 235-2609
1468 Sterling Hwy,Homer,AK,99603,Salvation Army - Homer Corps,(907) 235-2609
1468 Sterling Hwy,Homer,AK,99603,Salvation Army - Homer Corps,(907) 235-2609
1468 Sterling Hwy,Homer,AK,99603,Salvation Army - Homer Corps,(907) 235-2609
1468 Sterling Hwy,Homer,AK,99603,Salvation Army - Homer Corps,(907) 235-2609
1468 Sterling Hwy,Homer,AK,99603,Salvation Army - Homer Corps,(907) 235-2609
1468 Sterling Hwy,Homer,AK,99603,Salvation Army - Homer Corps,(907) 235-2609
1468 Sterling Hwy,Homer,AK,99603,Salvation Army - Homer Corps,(907) 235-2609
1468 Sterling Hwy,Homer,AK,99603,Salvation Army - Homer Corps,(907) 235-2609
770 East End Rd,Homer,AK,99603,Homer Community Food Pantry,(907) 235-1968
770 East End Rd,Homer,AK,99603,Homer Community Food Pantry,(907) 235-1968
770 East End Rd,Homer,AK,99603,Homer Community Food Pantry,(907) 235-1968
770 East End Rd,Homer,AK,99603,Homer Community Food Pantry,(907) 235-1968
770 East End Rd,Homer,AK,99603,Homer Community Food Pantry,(907) 235-1968
770 East End Rd,Homer,AK,99603,Homer Community Food Pantry,(907) 235-1968
770 East End Rd,Homer,AK,99603,Homer Community Food Pantry,(907) 235-1968
770 East End Rd,Homer,AK,99603,Homer Community Food Pantry,(907) 235-1968
770 East End Rd,Homer,AK,99603,Homer Community Food Pantry,(907) 235-1968
770 East End Rd,Homer,AK,99603,Homer Community Food Pantry,(907) 235-1968
73358 School Street,Anchor Point,AK,99556,Anchor Point Food Pantry (APFP),(907) 756-3719
73358 School Street,Anchor Point,AK,99556,Anchor Point Food Pantry (APFP),(907) 756-3719
73358 School Street,Anchor Point,AK,99556,Anchor Point Food Pantry (APFP),(907) 756-3719
73358 School Street,Anchor Point,AK,99556,Anchor Point Food Pantry (APFP),(907) 756-3719
73358 School Street,Anchor Point,AK,99556,Anchor Point Food Pantry (APFP),(907) 756-3719
73358 School Street,Anchor Point,AK,99556,Anchor Point Food Pantry (APFP),(907) 756-3719
73358 School Street,Anchor Point,AK,99556,Anchor Point Food Pantry (APFP),(907) 756-3719
73358 School Street,Anchor Point,AK,99556,Anchor Point Food Pantry (APFP),(907) 756-3719
73358 School Street,Anchor Point,AK,99556,Anchor Point Food Pantry (APFP),(907) 756-3719
73358 School Street,Anchor Point,AK,99556,Anchor Point Food Pantry (APFP),(907) 756-3719
Bear Creek #1 Street Mile 15 3/4 Hope Road,Hope,AK,99605,Hope Christian Church,907-782-3557
Bear Creek #1 Street Mile 15 3/4 Hope Road,Hope,AK,99605,Hope Christian Church,907-782-3557
Bear Creek #1 Street Mile 15 3/4 Hope Road,Hope,AK,99605,Hope Christian Church,907-782-3557
Bear Creek #1 Street Mile 15 3/4 Hope Road,Hope,AK,99605,Hope Christian Church,907-782-3557
Bear Creek #1 Street Mile 15 3/4 Hope Road,Hope,AK,99605,Hope Christian Church,907-782-3557
Bear Creek #1 Street Mile 15 3/4 Hope Road,Hope,AK,99605,Hope Christian Church,907-782-3557
Bear Creek #1 Street Mile 15 3/4 Hope Road,Hope,AK,99605,Hope Christian Church,907-782-3557
Bear Creek #1 Street Mile 15 3/4 Hope Road,Hope,AK,99605,Hope Christian Church,907-782-3557
Bear Creek #1 Street Mile 15 3/4 Hope Road,Hope,AK,99605,Hope Christian Church,907-782-3557
Bear Creek #1 Street Mile 15 3/4 Hope Road,Hope,AK,99605,Hope Christian Church,907-782-3557
10864 W Parks Highway Mile 51.5 Parks Highway,Houston,AK,99694,Big Lake Baptist Church,907-892-6646
10864 W Parks Highway Mile 51.5 Parks Highway,Houston,AK,99694,Big Lake Baptist Church,907-892-6646
10864 W Parks Highway Mile 51.5 Parks Highway,Houston,AK,99694,Big Lake Baptist Church,907-892-6646
10864 W Parks Highway Mile 51.5 Parks Highway,Houston,AK,99694,Big Lake Baptist Church,907-892-6646
10864 W Parks Highway Mile 51.5 Parks Highway,Houston,AK,99694,Big Lake Baptist Church,907-892-6646
10864 W Parks Highway Mile 51.5 Parks Highway,Houston,AK,99694,Big Lake Baptist Church,907-892-6646
10864 W Parks Highway Mile 51.5 Parks Highway,Houston,AK,99694,Big Lake Baptist Church,907-892-6646
10864 W Parks Highway Mile 51.5 Parks Highway,Houston,AK,99694,Big Lake Baptist Church,907-892-6646
10864 W Parks Highway Mile 51.5 Parks Highway,Houston,AK,99694,Big Lake Baptist Church,907-892-6646
10864 W Parks Highway Mile 51.5 Parks Highway,Houston,AK,99694,Big Lake Baptist Church,907-892-6646
10864 W Parks Highway,Houston,AK,99694,Big Lake Baptist Church,(907) 892-6646
10864 W Parks Highway,Houston,AK,99694,Big Lake Baptist Church,(907) 892-6646
10864 W Parks Highway,Houston,AK,99694,Big Lake Baptist Church,(907) 892-6646
10864 W Parks Highway,Houston,AK,99694,Big Lake Baptist Church,(907) 892-6646
10864 W Parks Highway,Houston,AK,99694,Big Lake Baptist Church,(907) 892-6646
10864 W Parks Highway,Houston,AK,99694,Big Lake Baptist Church,(907) 892-6646
10864 W Parks Highway,Houston,AK,99694,Big Lake Baptist Church,(907) 892-6646
10864 W Parks Highway,Houston,AK,99694,Big Lake Baptist Church,(907) 892-6646
10864 W Parks Highway,Houston,AK,99694,Big Lake Baptist Church,(907) 892-6646
10864 W Parks Highway,Houston,AK,99694,Big Lake Baptist Church,(907) 892-6646
