name,street,city,state,zipcode
Christ Episcopal Church,56 Cliff Street,Ansonia,CT,06401
Area Congregations Together - Spooner House,30 Todd Road,Shelton,CT,06484
New Haven Diaper Bank,1440 Whalley Ave New,Haven,CT,06515
Bethel Ame Church Food Pantry,255 Goffe Street New,Haven,CT,06511
Believe In Me Empowerment Corporation,423 Dixwell Avenue New,Haven,CT,06511
"Connecticut Food Bank, Inc.",P.O. Box 8686 New,Haven,CT,06531
Centro San Jose Family Center,290 Grand Avenue New,Haven,CT,06513
Walk of Faith Church Pantry,104 Fairmont Avenue New,Haven,CT,06513
Ecumenical Food Bank Inc,P.O. Box 796,Naugatuck,CT,06770
Naugatuck Valley Soup Kitchen,758 Rubber Avenue,Naugatuck,CT,06770
Ashford Food Bank Inc,25 Pompey Hollow Rd,Ashford,CT,06278
Chaplin Congregational Church,43 Chaplin Street,Chaplin,CT,06235
Southbridge Food Share,79 Elm Street,Southbridge,MA,01550
South Central WIC Program,29 Pine St.,Southbridge,MA,01550
Webster-Dudley Food Share ,4 Church Street,Webster,MA,01570
Community Survival Center,240 Main Street Indian,Orchard,MA,01151
Catholic Charities - Diocese of Norwich,331 Main Street,Norwich,CT,06360
St Joseph's Food Pantry,296 N. Main Street North,Brookfield,MA,01535
Auburn Youth & Family Services,21 Pheasant Ct,Auburn,MA,01501
Helping Hands Cupboard Food Pantry,18 Park Street,Belchertown,MA,01007
Foodshare,450 Woodland Avenue,Bloomfield,CT,06002
Foodshare Inc,200 Addison,Rd.,PO,x 809
Catholic Charities - Asylum Hill Family Center,896 Asylum Avenue,Hartford,CT,06105
Cathedral of Saint Joseph Food Pantry,140 Farmington Avenue,Hartford,CT,06105
The Hartford Food System,86 Park Terrace,Hartford,CT,06106
Catholic Charities - Institute for the Hispanic Family,45 Wadsworth Street,Hartford,CT,06106
Trinity Episcopal Church,55 River Road,Collinsville,CT,06022
Canton Food Bank Inc,P.O. Box 374,Collinsville,CT,06022
Calvary Christian Center - Kaleo Food Pantry,265 West Main Street New,Britain,CT,06052
Our Community Pantry,220 College Highway,Southwick,MA,01077
Bridgeport Rescue Mission,1088 Fairfield Avenue,Bridgeport,CT,06605
Bethel Memorial Deliverance Church ,1242 State Street,Bridgeport,CT,06605
Bridgeport Tabernacle,717 Clinton Avenue,Bridgeport,CT,06604
Calvary Saint George's Food Pantry,755 Clinton Avenue,Bridgeport,CT,06604
"Food Bank Of Fairfield County, Inc.",71 Timko St.,Fairfield,CT,06430
Connecticut Food Bank Inc,74 Linwood Ave,Fairfield,CT,06824
Connecticut Food Bank Inc,74 Linwood Ave,Fairfield,CT,06824
Area Congregations Together - Spooner House,30 Todd Road,Shelton,CT,06484
Christ Episcopal Church,56 Cliff Street,Ansonia,CT,06401
Christian Community Action Norwalk Inc,98 South Main St,Norwalk,CT,06854
The Blessed Pantry,739 Terryville Avenue,Bristol,CT,06010
Calvary Christian Center - Kaleo Food Pantry,265 West Main Street New,Britain,CT,06052
Canton Food Bank Inc,P.O. Box 374,Collinsville,CT,06022
Trinity Episcopal Church,55 River Road,Collinsville,CT,06022
Cheshire Food Pantry,175 Sandbank Road,Cheshire,CT,06410
Friendly Hands Food Bank Inc,50 King St,Torrington,CT,06790
Apostolic Community Church ,146 Center Street,Meriden,CT,06450
Ecumenical Food Bank Inc,P.O. Box 796,Naugatuck,CT,06770
The Hartford Food System,86 Park Terrace,Hartford,CT,06106
Catholic Charities - Asylum Hill Family Center,896 Asylum Avenue,Hartford,CT,06105
Brookfield Social Services,559B Federal Road,Brookfield,CT,06804
Southbury Fuel Bank Inc,501 Main St S,Southbury,CT,06488
Naugatuck Valley Soup Kitchen,758 Rubber Avenue,Naugatuck,CT,06770
Ecumenical Food Bank Inc,P.O. Box 796,Naugatuck,CT,06770
Christ Episcopal Church,56 Cliff Street,Ansonia,CT,06401
Area Congregations Together - Spooner House,30 Todd Road,Shelton,CT,06484
Calvary Saint George's Food Pantry,755 Clinton Avenue,Bridgeport,CT,06604
Bridgeport Tabernacle,717 Clinton Avenue,Bridgeport,CT,06604
Bridgeport Rescue Mission,1088 Fairfield Avenue,Bridgeport,CT,06605
Bethel Memorial Deliverance Church ,1242 State Street,Bridgeport,CT,06605
Chaplin Congregational Church,43 Chaplin Street,Chaplin,CT,06235
Ashford Food Bank Inc,25 Pompey Hollow Rd,Ashford,CT,06278
Southbridge Food Share,79 Elm Street,Southbridge,MA,01550
South Central WIC Program,29 Pine St.,Southbridge,MA,01550
St Paul the Apostle Church,116 Danielson Pike #A,Foster,RI,02825
Catholic Charities - Diocese of Norwich,331 Main Street,Norwich,CT,06360
Webster-Dudley Food Share ,4 Church Street,Webster,MA,01570
Community Survival Center,240 Main Street Indian,Orchard,MA,01151
Auburn Youth & Family Services,21 Pheasant Ct,Auburn,MA,01501
Cheshire Food Pantry,175 Sandbank Road,Cheshire,CT,06410
Apostolic Community Church ,146 Center Street,Meriden,CT,06450
Ecumenical Food Bank Inc,P.O. Box 796,Naugatuck,CT,06770
Naugatuck Valley Soup Kitchen,758 Rubber Avenue,Naugatuck,CT,06770
The Blessed Pantry,739 Terryville Avenue,Bristol,CT,06010
Calvary Christian Center - Kaleo Food Pantry,265 West Main Street New,Britain,CT,06052
New Haven Diaper Bank,1440 Whalley Ave New,Haven,CT,06515
Believe In Me Empowerment Corporation,423 Dixwell Avenue New,Haven,CT,06511
Bethel Ame Church Food Pantry,255 Goffe Street New,Haven,CT,06511
Centro San Jose Family Center,290 Grand Avenue New,Haven,CT,06513
Trinity Episcopal Church,55 River Road,Collinsville,CT,06022
Canton Food Bank Inc,P.O. Box 374,Collinsville,CT,06022
Foodshare,450 Woodland Avenue,Bloomfield,CT,06002
Friendly Hands Food Bank Inc,50 King St,Torrington,CT,06790
The Blessed Pantry,739 Terryville Avenue,Bristol,CT,06010
Foodshare Inc,200 Addison,Rd.,PO,x 809
Our Community Pantry,220 College Highway,Southwick,MA,01077
Catholic Charities - Asylum Hill Family Center,896 Asylum Avenue,Hartford,CT,06105
Cathedral of Saint Joseph Food Pantry,140 Farmington Avenue,Hartford,CT,06105
The Hartford Food System,86 Park Terrace,Hartford,CT,06106
East Hampton Volunteer Food Bank Inc,240 Middletown Avenue East,Hampton,CT,06424
Apostolic Community Church ,146 Center Street,Meriden,CT,06450
Calvary Christian Center - Kaleo Food Pantry,265 West Main Street New,Britain,CT,06052
Catholic Charities - Institute for the Hispanic Family,45 Wadsworth Street,Hartford,CT,06106
The Hartford Food System,86 Park Terrace,Hartford,CT,06106
Cathedral of Saint Joseph Food Pantry,140 Farmington Avenue,Hartford,CT,06105
Catholic Charities - Asylum Hill Family Center,896 Asylum Avenue,Hartford,CT,06105
Cheshire Food Pantry,175 Sandbank Road,Cheshire,CT,06410
Foodshare Inc,200 Addison,Rd.,PO,x 809
Adventist Community Services of Connecticut,152 Bloomingdale Road,Waterford,CT,06375
Connecticut Food Bank,150 Bradley Street East,Haven,CT,06512
Walk of Faith Church Pantry,104 Fairmont Avenue New,Haven,CT,06513
Centro San Jose Family Center,290 Grand Avenue New,Haven,CT,06513
"Connecticut Food Bank, Inc.",P.O. Box 8686 New,Haven,CT,06531
Bethel Ame Church Food Pantry,255 Goffe Street New,Haven,CT,06511
Believe In Me Empowerment Corporation,423 Dixwell Avenue New,Haven,CT,06511
New Haven Diaper Bank,1440 Whalley Ave New,Haven,CT,06515
Christ Episcopal Church,56 Cliff Street,Ansonia,CT,06401
Area Congregations Together - Spooner House,30 Todd Road,Shelton,CT,06484
Ecumenical Food Bank Inc,P.O. Box 796,Naugatuck,CT,06770
Calvary Saint George's Food Pantry,755 Clinton Avenue,Bridgeport,CT,06604
"Food Bank Of Fairfield County, Inc.",71 Timko St.,Fairfield,CT,06430
Bridgeport Tabernacle,717 Clinton Avenue,Bridgeport,CT,06604
Bridgeport Rescue Mission,1088 Fairfield Avenue,Bridgeport,CT,06605
Bethel Memorial Deliverance Church ,1242 State Street,Bridgeport,CT,06605
Connecticut Food Bank Inc,74 Linwood Ave,Fairfield,CT,06824
Connecticut Food Bank Inc,74 Linwood Ave,Fairfield,CT,06824
Area Congregations Together - Spooner House,30 Todd Road,Shelton,CT,06484
Christian Community Action Norwalk Inc,98 South Main St,Norwalk,CT,06854
Christ Episcopal Church,56 Cliff Street,Ansonia,CT,06401
Cathedral of Saint Joseph Food Pantry,140 Farmington Avenue,Hartford,CT,06105
Catholic Charities - Asylum Hill Family Center,896 Asylum Avenue,Hartford,CT,06105
The Hartford Food System,86 Park Terrace,Hartford,CT,06106
Catholic Charities - Institute for the Hispanic Family,45 Wadsworth Street,Hartford,CT,06106
Foodshare Inc,200 Addison,Rd.,PO,x 809
Foodshare,450 Woodland Avenue,Bloomfield,CT,06002
Calvary Christian Center - Kaleo Food Pantry,265 West Main Street New,Britain,CT,06052
Canton Food Bank Inc,P.O. Box 374,Collinsville,CT,06022
Trinity Episcopal Church,55 River Road,Collinsville,CT,06022
East Hampton Volunteer Food Bank Inc,240 Middletown Avenue East,Hampton,CT,06424
Apostolic Community Church ,146 Center Street,Meriden,CT,06450
Cheshire Food Pantry,175 Sandbank Road,Cheshire,CT,06410
Calvary Christian Center - Kaleo Food Pantry,265 West Main Street New,Britain,CT,06052
East Hampton Volunteer Food Bank Inc,240 Middletown Avenue East,Hampton,CT,06424
Ecumenical Food Bank Inc,P.O. Box 796,Naugatuck,CT,06770
The Blessed Pantry,739 Terryville Avenue,Bristol,CT,06010
Naugatuck Valley Soup Kitchen,758 Rubber Avenue,Naugatuck,CT,06770
Believe In Me Empowerment Corporation,423 Dixwell Avenue New,Haven,CT,06511
The Hartford Food System,86 Park Terrace,Hartford,CT,06106
Catholic Charities - Institute for the Hispanic Family,45 Wadsworth Street,Hartford,CT,06106
Ecumenical Food Bank Inc,P.O. Box 796,Naugatuck,CT,06770
Naugatuck Valley Soup Kitchen,758 Rubber Avenue,Naugatuck,CT,06770
Cheshire Food Pantry,175 Sandbank Road,Cheshire,CT,06410
Southbury Fuel Bank Inc,501 Main St S,Southbury,CT,06488
Christ Episcopal Church,56 Cliff Street,Ansonia,CT,06401
New Haven Diaper Bank,1440 Whalley Ave New,Haven,CT,06515
Believe In Me Empowerment Corporation,423 Dixwell Avenue New,Haven,CT,06511
Bethel Ame Church Food Pantry,255 Goffe Street New,Haven,CT,06511
Apostolic Community Church ,146 Center Street,Meriden,CT,06450
Area Congregations Together - Spooner House,30 Todd Road,Shelton,CT,06484
Calvary Christian Center - Kaleo Food Pantry,265 West Main Street New,Britain,CT,06052
The Hartford Food System,86 Park Terrace,Hartford,CT,06106
Catholic Charities - Institute for the Hispanic Family,45 Wadsworth Street,Hartford,CT,06106
Cathedral of Saint Joseph Food Pantry,140 Farmington Avenue,Hartford,CT,06105
Catholic Charities - Asylum Hill Family Center,896 Asylum Avenue,Hartford,CT,06105
Apostolic Community Church ,146 Center Street,Meriden,CT,06450
The Blessed Pantry,739 Terryville Avenue,Bristol,CT,06010
Cheshire Food Pantry,175 Sandbank Road,Cheshire,CT,06410
Canton Food Bank Inc,P.O. Box 374,Collinsville,CT,06022
Trinity Episcopal Church,55 River Road,Collinsville,CT,06022
New Haven Diaper Bank,1440 Whalley Ave New,Haven,CT,06515
"Connecticut Food Bank, Inc.",P.O. Box 8686 New,Haven,CT,06531
Believe In Me Empowerment Corporation,423 Dixwell Avenue New,Haven,CT,06511
Bethel Ame Church Food Pantry,255 Goffe Street New,Haven,CT,06511
Walk of Faith Church Pantry,104 Fairmont Avenue New,Haven,CT,06513
Centro San Jose Family Center,290 Grand Avenue New,Haven,CT,06513
Centro De La Comunidad,109 Blinman Street New,London,CT,06320
Catholic Charities - Diocese of Norwich,28 Huntington Street New,London,CT,06320
Adventist Community Services of Connecticut,152 Bloomingdale Road,Waterford,CT,06375
Catholic Charities - Diocese of Norwich,331 Main Street,Norwich,CT,06360
Jonnycake Center of Westerly,23 Industrial Drive,Westerly,RI,02891
SVDP Immaculate Conception,111 High Street,Westerly,RI,02891
Warm Center,56 Spruce Street,Westerly,RI,02891
Community Action of Southold Town,316 Front Street,Greenport,NY,11944
Christian Community Action Norwalk Inc,98 South Main St,Norwalk,CT,06854
Revival House,980 Hope Street,Stamford,CT,06902
Food Bank Of Lower Fairfield County Inc,461 Glenbrook Rd,Stamford,CT,06906
The Food Bank Of Lower Fairfield County,461 Glenbrook Rd,Stamford,CT,06906
The Food Bank Of Lower Fairfield County,461 Glenbrook Rd,Stamford,CT,06906
Catholic Charities of Fairfield County,30 Myano,Lane,Su, 10 S
Connecticut Food Bank Inc,74 Linwood Ave,Fairfield,CT,06824
Connecticut Food Bank Inc,74 Linwood Ave,Fairfield,CT,06824
"Food Bank Of Fairfield County, Inc.",71 Timko St.,Fairfield,CT,06430
Calvary Saint George's Food Pantry,755 Clinton Avenue,Bridgeport,CT,06604
Catholic Charities - Diocese of Norwich,331 Main Street,Norwich,CT,06360
Adventist Community Services of Connecticut,152 Bloomingdale Road,Waterford,CT,06375
Catholic Charities - Diocese of Norwich,28 Huntington Street New,London,CT,06320
Centro De La Comunidad,109 Blinman Street New,London,CT,06320
Chaplin Congregational Church,43 Chaplin Street,Chaplin,CT,06235
Jonnycake Center of Westerly,23 Industrial Drive,Westerly,RI,02891
SVDP Immaculate Conception,111 High Street,Westerly,RI,02891
Warm Center,56 Spruce Street,Westerly,RI,02891
Ashford Food Bank Inc,25 Pompey Hollow Rd,Ashford,CT,06278
St Paul the Apostle Church,116 Danielson Pike #A,Foster,RI,02825
Area Congregations Together - Spooner House,30 Todd Road,Shelton,CT,06484
Christ Episcopal Church,56 Cliff Street,Ansonia,CT,06401
New Haven Diaper Bank,1440 Whalley Ave New,Haven,CT,06515
Calvary Saint George's Food Pantry,755 Clinton Avenue,Bridgeport,CT,06604
Bridgeport Rescue Mission,1088 Fairfield Avenue,Bridgeport,CT,06605
Bridgeport Tabernacle,717 Clinton Avenue,Bridgeport,CT,06604
Bethel Memorial Deliverance Church ,1242 State Street,Bridgeport,CT,06605
Bethel Ame Church Food Pantry,255 Goffe Street New,Haven,CT,06511
Believe In Me Empowerment Corporation,423 Dixwell Avenue New,Haven,CT,06511
"Food Bank Of Fairfield County, Inc.",71 Timko St.,Fairfield,CT,06430
Southbury Fuel Bank Inc,501 Main St S,Southbury,CT,06488
Naugatuck Valley Soup Kitchen,758 Rubber Avenue,Naugatuck,CT,06770
Ecumenical Food Bank Inc,P.O. Box 796,Naugatuck,CT,06770
Brookfield Social Services,559B Federal Road,Brookfield,CT,06804
Christ Episcopal Church,56 Cliff Street,Ansonia,CT,06401
Area Congregations Together - Spooner House,30 Todd Road,Shelton,CT,06484
New Haven Diaper Bank,1440 Whalley Ave New,Haven,CT,06515
Cheshire Food Pantry,175 Sandbank Road,Cheshire,CT,06410
Believe In Me Empowerment Corporation,423 Dixwell Avenue New,Haven,CT,06511
Bethel Ame Church Food Pantry,255 Goffe Street New,Haven,CT,06511
Food Bank Of Lower Fairfield County Inc,461 Glenbrook Rd,Stamford,CT,06906
The Food Bank Of Lower Fairfield County,461 Glenbrook Rd,Stamford,CT,06906
The Food Bank Of Lower Fairfield County,461 Glenbrook Rd,Stamford,CT,06906
Catholic Charities of Fairfield County,30 Myano,Lane,Su, 10 S
Revival House,980 Hope Street,Stamford,CT,06902
Christian Community Action Norwalk Inc,98 South Main St,Norwalk,CT,06854
Caritas of Port Chester,19 Smith Street Port,Chester,NY,10573
Bread of Life Pantry,65 Orchard Ave,Rye,NY,10580
North Shore Assembly of Good - Food Pantry,84 Orchard Street Oyster,Bay,NY,11771
Hillside Food Outreach,2 Westchester Plaza,Elmsford,NY,10570
Friendly Hands Food Bank Inc,50 King St,Torrington,CT,06790
Canton Food Bank Inc,P.O. Box 374,Collinsville,CT,06022
Trinity Episcopal Church,55 River Road,Collinsville,CT,06022
The Blessed Pantry,739 Terryville Avenue,Bristol,CT,06010
Calvary Christian Center - Kaleo Food Pantry,265 West Main Street New,Britain,CT,06052
Foodshare,450 Woodland Avenue,Bloomfield,CT,06002
Catholic Charities - Asylum Hill Family Center,896 Asylum Avenue,Hartford,CT,06105
Cheshire Food Pantry,175 Sandbank Road,Cheshire,CT,06410
Naugatuck Valley Soup Kitchen,758 Rubber Avenue,Naugatuck,CT,06770
Ecumenical Food Bank Inc,P.O. Box 796,Naugatuck,CT,06770
Centro De La Comunidad,109 Blinman Street New,London,CT,06320
Catholic Charities - Diocese of Norwich,28 Huntington Street New,London,CT,06320
Adventist Community Services of Connecticut,152 Bloomingdale Road,Waterford,CT,06375
Catholic Charities - Diocese of Norwich,331 Main Street,Norwich,CT,06360
Jonnycake Center of Westerly,23 Industrial Drive,Westerly,RI,02891
SVDP Immaculate Conception,111 High Street,Westerly,RI,02891
Warm Center,56 Spruce Street,Westerly,RI,02891
Community Action of Southold Town,316 Front Street,Greenport,NY,11944
Foodshare Inc,200 Addison,Rd.,PO,x 809
Foodshare,450 Woodland Avenue,Bloomfield,CT,06002
Catholic Charities - Asylum Hill Family Center,896 Asylum Avenue,Hartford,CT,06105
Cathedral of Saint Joseph Food Pantry,140 Farmington Avenue,Hartford,CT,06105
Catholic Charities - Institute for the Hispanic Family,45 Wadsworth Street,Hartford,CT,06106
The Hartford Food System,86 Park Terrace,Hartford,CT,06106
Our Community Pantry,220 College Highway,Southwick,MA,01077
Trinity Episcopal Church,55 River Road,Collinsville,CT,06022
Canton Food Bank Inc,P.O. Box 374,Collinsville,CT,06022
Calvary Christian Center - Kaleo Food Pantry,265 West Main Street New,Britain,CT,06052
Tap-In Barrington Food Pantry,281 County Road,Barrington,RI,02806
St Mary of the Bay Food Pantry - Warren,645 Main Street,Warren,RI,02885
Good Neighbors Pantry,55 Turner Avenue East,Providence,RI,02915
East Bay Community Action Program Pantry,100 Bullocks Point Avenue,Riverside,RI,02915
Edgewood Pawtuxet Food Closet: Transfiguration Church,1665 Broad Street,Cranston,RI,02905
East Bay Food Pantry,532 Wood Street,Bristol,RI,02809
East Bay Food Pantry,532 Wood St,Bristol,RI,02809
St Rita's Church Pantry,722 Oakland Beach Avenue,Warwick,RI,02889
Project Outreach,1520 Broad Street,Providence,RI,02905
East Bay Food Pantry,532 Wood St,Bristol,RI,02809
East Bay Food Pantry,532 Wood Street,Bristol,RI,02809
St Mary of the Bay Food Pantry - Warren,645 Main Street,Warren,RI,02885
Tap-In Barrington Food Pantry,281 County Road,Barrington,RI,02806
"Feed My Sheep Food Pantry - Fall River, MA",65 Middle St Fall,River,MA,02720
Bethany Gospel Chapel,62 Lindsay Lane,Swansea,MA,02777
St Anne's Parish Food Pantry,818 Middle Street Fall,River,MA,02721
Veteran's Assoc. of Bristol County,755 Pine Street Fall,River,MA,02720
St Rita's Church Pantry,722 Oakland Beach Avenue,Warwick,RI,02889
Gates Of Hope,112 Flint Street Fall,River,MA,02723
St Vincent De Paul Our Lady of Good Help,1063 Victory Highway,Burrillville,RI,02839
Burrillville Seventh Day Adventist,854 Victory Highway,Burrillville,RI,02839
New Hope Chapel Pantry,80 Richmond Townhouse Rd,Carolina,RI,02812
Rhode Island Center Assisting those in Need,805 Alton Carolina Road,Charlestown,RI,02813
RI Center Assisting those in Need - RI CAN,805 Alton Carolina Rd,Charlestown,RI,02812
RI Center Assisting those in Need,805 Alton Carolina Road,Charlestown,RI,02813
New Life Assembly,251 Post Road South,Kingstown,RI,02879
Exeter Community Food Bank,227 Liberty Rd,Exeter,RI,02822
Jonnycake Center of Peace Dale,1183 Kingstown Road Peace,Dale,RI,02883
Warm Center,56 Spruce Street,Westerly,RI,02891
SVDP Immaculate Conception,111 High Street,Westerly,RI,02891
St Peter's by the Sea,72 Central Street,Narragansett,RI,02882
St Alban's Church Food Pantry,1964 Smith Street,Centerdale,RI,02911
St. George Episcopal Pantry,12 Clinton Street Central,Falls,RI,02863
Blackstone Valley Emergency Food Center,402 Dexter St Central,Falls,RI,02863
Lighthouse Community Outreach,30 Meeting Street,Cumberland,RI,02864
Blackstone Valley Community Action Program,32 Goff Avenue,Pawtucket,RI,02860
Salvation Army of Pawtucket Pantry,102 High Street,Pawtucket,RI,02860
Woodlawn Baptist Church,337 Lonsdale Avenue,Pawtucket,RI,02860
Church of the Good Shepherd,490 Broadway,Pawtucket,RI,02860
Living Hope Assembly of God,100 Broadway,Pawtucket,RI,02860
First Baptist Church of Pawtucket,91 Cottage Street,Pawtucket,RI,02860
St John the Baptist Food Pantry,69 Quincy Avenue,Pawtucket,RI,02860
RI Center Assisting those in Need,805 Alton Carolina Road,Charlestown,RI,02813
Rhode Island Center Assisting those in Need,805 Alton Carolina Road,Charlestown,RI,02813
RI Center Assisting those in Need - RI CAN,805 Alton Carolina Rd,Charlestown,RI,02812
New Hope Chapel Pantry,80 Richmond Townhouse Rd,Carolina,RI,02812
Warm Center,56 Spruce Street,Westerly,RI,02891
SVDP Immaculate Conception,111 High Street,Westerly,RI,02891
Jonnycake Center of Westerly,23 Industrial Drive,Westerly,RI,02891
New Life Assembly,251 Post Road South,Kingstown,RI,02879
Jonnycake Center of Peace Dale,1183 Kingstown Road Peace,Dale,RI,02883
St Peter's by the Sea,72 Central Street,Narragansett,RI,02882
St Patricks Food Closet,45 Harrisville Main St,Harrisville,RI,02830
St Paul the Apostle Church,116 Danielson Pike #A,Foster,RI,02825
Scituate Food Pantry,1315 Chopmist Hill Road North,Scituate,RI,02857
St Theresas Church Food Pantry,35 Dion Drive,Harrisville,RI,02830
Trinity Episcopal Church,249 Danielson Pike North,Scituate,RI,02857
St Vincent De Paul St Philip Food Pantry,622 Putnam Pike,Greenville,RI,02828
SVDP St Philip Food Pantry,620 Putnam Pike,Greenville,RI,02828
Johnston SDA,2693 Hartford Avenue,Johnston,RI,02919
New Life Worship Center,915 Douglas Pike,Smithfield,RI,02917
Our Lady Queen of Martyrs,1409 Park Avenue,Woonsocket,RI,02895
Comprehensive Community Action,311 Doric Ave.,Coventry,RI,02816
Coventry Community Food Services,191 Macarthur Boulevard,Coventry,RI,02816
West Warwick Senior Center Pantry,145 Washington Street West,Warwick,RI,02893
Scituate Food Pantry,1315 Chopmist Hill Road North,Scituate,RI,02857
West Warwick Assistance Agency,1293 Main Street West,Warwick,RI,02893
St Paul the Apostle Church,116 Danielson Pike #A,Foster,RI,02825
Trinity Episcopal Church,249 Danielson Pike North,Scituate,RI,02857
St Lukes Episcopal Church Food Cupboard,99 Pierde St East,Greenwich,RI,02818
Johnston SDA,2693 Hartford Avenue,Johnston,RI,02919
Westbay CAP Market Place,487 Jefferson Blvd.,Warwick,RI,02886
Comprehensive Community Action Program,311 Doric Avenue,Cranston,RI,02910
SVDP Emergency Food Center - Saint Mary Church,181 Princess Avenue,Cranston,RI,02920
Interfaith Food Ministry,95 Hathaway Center,Providence,RI,02907
Rhode Island Community Food Bank,200 Niantic Ave.,Providence,RI,02907
Church of God Casa de Benedicion,65 Narragansett Avenue,Providence,RI,02907
The Louis and Goldie Chester Full Plate Kosher Pantry,100 Niantic Avenue,Providence,RI,02907
Haitian Baptist Church of Rhode Island,12 Lincoln Avenue,Cranston,RI,02920
Providence Assembly of God Pantry,353 Elmwood Avenue,Providence,RI,02907
West End Food Pantry,109 Bucklin Street,Providence,RI,02907
West End Community Center Pantry,109 Bucklin Street,Providence,RI,02907
Northern RI Food Pantry,1 Angell Rd,Cumberland,RI,02864
Lime Rock Baptist Church,1075 Great Road,Lincoln,RI,02865
St Joseph's Cupboard,1200 Mendon Road,Woonsocket,RI,02895
St Agatha's Church,34 Joffre Avenue,Woonsocket,RI,02895
Lighthouse Community Outreach,30 Meeting Street,Cumberland,RI,02864
Our Lady Queen of Martyrs,1409 Park Avenue,Woonsocket,RI,02895
St James Episcopal Church,24 Hamlet Avenue,Woonsocket,RI,02895
All Saints Church Pantry,323 Rathbun St,Woonsocket,RI,02895
St Vincient de Paul/St Theresa,18 Baltic Street South,Attleboro,MA,02703
South Attleboro Assembly of God,1052 Newport Avenue South,Attleboro,MA,02703
St Lukes Episcopal Church Food Cupboard,99 Pierde St East,Greenwich,RI,02818
West Warwick Senior Center Pantry,145 Washington Street West,Warwick,RI,02893
Coventry Community Food Services,191 Macarthur Boulevard,Coventry,RI,02816
West Warwick Assistance Agency,1293 Main Street West,Warwick,RI,02893
Family Service of Rhode Island Pantry,415 Tower Hill Road North,Kingstown,RI,02852
St Rita's Church Pantry,722 Oakland Beach Avenue,Warwick,RI,02889
Comprehensive Community Action,311 Doric Ave.,Coventry,RI,02816
Westbay CAP Market Place,487 Jefferson Blvd.,Warwick,RI,02886
Westbay CAP Market Place,487 Jefferson Boulevard,Warwick,RI,02886
Exeter Community Food Bank,227 Liberty Rd,Exeter,RI,02822
East Bay Baptist Church Provision Pantry,10 James Street East,Providence,RI,02914
East Bay Community Action Program Pantry,100 Bullocks Point Avenue,Riverside,RI,02915
Good Neighbors Pantry,55 Turner Avenue East,Providence,RI,02915
Rhode Island Diaper Bank,24 East St,Providence,RI,02906
Our Lady of the Rosary Pantry,17 Traverse Street,Providence,RI,02903
Project Outreach,1520 Broad Street,Providence,RI,02905
Ephese SDA Church,857 Eddy Street,Providence,RI,02905
Edgewood Pawtuxet Food Closet: Transfiguration Church,1665 Broad Street,Cranston,RI,02905
Pentecostal Church of God in Christ,25 Mystic Street,Providence,RI,02905
New Hope Chapel Pantry,80 Richmond Townhouse Rd,Carolina,RI,02812
Exeter Community Food Bank,227 Liberty Rd,Exeter,RI,02822
Rhode Island Center Assisting those in Need,805 Alton Carolina Road,Charlestown,RI,02813
RI Center Assisting those in Need - RI CAN,805 Alton Carolina Rd,Charlestown,RI,02812
RI Center Assisting those in Need,805 Alton Carolina Road,Charlestown,RI,02813
New Life Assembly,251 Post Road South,Kingstown,RI,02879
Comprehensive Community Action,311 Doric Ave.,Coventry,RI,02816
Family Service of Rhode Island Pantry,415 Tower Hill Road North,Kingstown,RI,02852
St Lukes Episcopal Church Food Cupboard,99 Pierde St East,Greenwich,RI,02818
Coventry Community Food Services,191 Macarthur Boulevard,Coventry,RI,02816
St Paul the Apostle Church,116 Danielson Pike #A,Foster,RI,02825
Scituate Food Pantry,1315 Chopmist Hill Road North,Scituate,RI,02857
Trinity Episcopal Church,249 Danielson Pike North,Scituate,RI,02857
Comprehensive Community Action,311 Doric Ave.,Coventry,RI,02816
Johnston SDA,2693 Hartford Avenue,Johnston,RI,02919
SVDP St Philip Food Pantry,620 Putnam Pike,Greenville,RI,02828
St Vincent De Paul St Philip Food Pantry,622 Putnam Pike,Greenville,RI,02828
Coventry Community Food Services,191 Macarthur Boulevard,Coventry,RI,02816
West Warwick Senior Center Pantry,145 Washington Street West,Warwick,RI,02893
West Warwick Assistance Agency,1293 Main Street West,Warwick,RI,02893
St Vincent De Paul St Philip Food Pantry,622 Putnam Pike,Greenville,RI,02828
SVDP St Philip Food Pantry,620 Putnam Pike,Greenville,RI,02828
Johnston SDA,2693 Hartford Avenue,Johnston,RI,02919
New Life Worship Center,915 Douglas Pike,Smithfield,RI,02917
Trinity Episcopal Church,249 Danielson Pike North,Scituate,RI,02857
St Robert's Food Closet,1804 Atwood Avenue,Johnston,RI,02919
St Alban's Church Food Pantry,1964 Smith Street,Centerdale,RI,02911
Tri-Town Community Action Agency,33 Maple Ave North,Providence,RI,02911
St Thomas Church Food Pantry,65 Fruit Hill Avenue,Providence,RI,02909
St Francis Poverello Center,668 Hartford Avenue,Providence,RI,02909
St Patricks Food Closet,45 Harrisville Main St,Harrisville,RI,02830
St Theresas Church Food Pantry,35 Dion Drive,Harrisville,RI,02830
Blackstone-Millville Food Pantry,48 St. Paul Street,Blackstone,MA,01504
Connecting for Children and Families,37 Center Street,Woonsocket,RI,02895
Our Lady Queen of Martyrs,1409 Park Avenue,Woonsocket,RI,02895
SVDP Bryan's Pantry,190 North Main Street,Woonsocket,RI,02895
St James Episcopal Church,24 Hamlet Avenue,Woonsocket,RI,02895
St Denis Church,23 Manchaug Street,Douglas,MA,01516
St Agatha's Church,34 Joffre Avenue,Woonsocket,RI,02895
All Saints Church Pantry,323 Rathbun St,Woonsocket,RI,02895
St Robert's Food Closet,1804 Atwood Avenue,Johnston,RI,02919
Johnston SDA,2693 Hartford Avenue,Johnston,RI,02919
Tri-Town Community Action Agency,33 Maple Ave North,Providence,RI,02911
St Francis Poverello Center,668 Hartford Avenue,Providence,RI,02909
St Thomas Church Food Pantry,65 Fruit Hill Avenue,Providence,RI,02909
St Alban's Church Food Pantry,1964 Smith Street,Centerdale,RI,02911
Iglesia El Refugio,540 Manton Avenue,Providence,RI,02909
SVDP St Anthony's Church,549 Plainfield Street,Providence,RI,02909
Silver Lake Community Center,529 Plainfield Street,Providence,RI,02909
Maranatha Community Outreach Pantry,381 Manton Ave.,Providence,RI,02909
Lime Rock Baptist Church,1075 Great Road,Lincoln,RI,02865
Northern RI Food Pantry,1 Angell Rd,Cumberland,RI,02864
Pro-Cap Elmwood Pantry,85 Atlantic Avenue,Providence,RI,02907
Lighthouse Community Outreach,30 Meeting Street,Cumberland,RI,02864
New Life Worship Center,915 Douglas Pike,Smithfield,RI,02917
Blackstone Valley Emergency Food Center,402 Dexter St Central,Falls,RI,02863
St. George Episcopal Pantry,12 Clinton Street Central,Falls,RI,02863
Woodlawn Baptist Church,337 Lonsdale Avenue,Pawtucket,RI,02860
St John the Baptist Food Pantry,69 Quincy Avenue,Pawtucket,RI,02860
Blackstone Valley Community Action Program,32 Goff Avenue,Pawtucket,RI,02860
St Peter's by the Sea,72 Central Street,Narragansett,RI,02882
Jonnycake Center of Peace Dale,1183 Kingstown Road Peace,Dale,RI,02883
New Life Assembly,251 Post Road South,Kingstown,RI,02879
Exeter Community Food Bank,227 Liberty Rd,Exeter,RI,02822
RI Center Assisting those in Need,805 Alton Carolina Road,Charlestown,RI,02813
Rhode Island Center Assisting those in Need,805 Alton Carolina Road,Charlestown,RI,02813
RI Center Assisting those in Need - RI CAN,805 Alton Carolina Rd,Charlestown,RI,02812
East Bay Community Action Newport Pantry,19 Broadway,Newport,RI,02840
Martin Luther King Center Food Pantry,20 Dr Marcus Wheatland Blvd,Newport,RI,02840
Salvation Army Newport Corps Food Pantry,51 Memorial Blvd,Newport,RI,02840
Martin Luther King Center Food Pantry,20 Dr Marcus Wheatland Blvd,Newport,RI,02840
Salvation Army Newport Corps Food Pantry,51 Memorial Blvd,Newport,RI,02840
St Josephs Church Food Pantry,5 Mann St,Newport,RI,02840
Newport Residents Council,1 York Street,Newport,RI,02840
East Bay Community Action Newport Pantry,19 Broadway,Newport,RI,02840
Community Baptist Church - Community Grocer,40 Dr. Marcus Wheatland Boulevard,Newport,RI,02840
Family Service of Rhode Island Pantry,415 Tower Hill Road North,Kingstown,RI,02852
Exeter Community Food Bank,227 Liberty Rd,Exeter,RI,02822
New Life Assembly,251 Post Road South,Kingstown,RI,02879
St Lukes Episcopal Church Food Cupboard,99 Pierde St East,Greenwich,RI,02818
Jonnycake Center of Peace Dale,1183 Kingstown Road Peace,Dale,RI,02883
Newport Residents Council,1 York Street,Newport,RI,02840
St Peter's by the Sea,72 Central Street,Narragansett,RI,02882
Martin Luther King Center Food Pantry,20 Dr Marcus Wheatland Blvd,Newport,RI,02840
Community Baptist Church - Community Grocer,40 Dr. Marcus Wheatland Boulevard,Newport,RI,02840
East Bay Community Action Newport Pantry,19 Broadway,Newport,RI,02840
St Alban's Church Food Pantry,1964 Smith Street,Centerdale,RI,02911
Tri-Town Community Action Agency,33 Maple Ave North,Providence,RI,02911
St Thomas Church Food Pantry,65 Fruit Hill Avenue,Providence,RI,02909
St Edward Food and Wellness Center,1001 Branch Avenue,Providence,RI,02904
St Robert's Food Closet,1804 Atwood Avenue,Johnston,RI,02919
Iglesia El Refugio,540 Manton Avenue,Providence,RI,02909
St Peter and St Andrew Food Pantry,70 Pemberton Street,Providence,RI,02908
Maranatha Community Outreach Pantry,1040 Atwells Avenue,Providence,RI,02909
Maranatha Community Outreach Pantry,381 Manton Ave.,Providence,RI,02909
St Francis Poverello Center,668 Hartford Avenue,Providence,RI,02909
Trinity Episcopal Church,249 Danielson Pike North,Scituate,RI,02857
Scituate Food Pantry,1315 Chopmist Hill Road North,Scituate,RI,02857
Johnston SDA,2693 Hartford Avenue,Johnston,RI,02919
SVDP St Philip Food Pantry,620 Putnam Pike,Greenville,RI,02828
St Vincent De Paul St Philip Food Pantry,622 Putnam Pike,Greenville,RI,02828
St Paul the Apostle Church,116 Danielson Pike #A,Foster,RI,02825
St Robert's Food Closet,1804 Atwood Avenue,Johnston,RI,02919
St Alban's Church Food Pantry,1964 Smith Street,Centerdale,RI,02911
Tri-Town Community Action Agency,33 Maple Ave North,Providence,RI,02911
New Life Worship Center,915 Douglas Pike,Smithfield,RI,02917
Bethany Baptist Church,178 Sayles Ave,Pawtucket,RI,02860
St Leo the Great  Pantry,697 Central Avenue,Pawtucket,RI,02861
Living Hope Assembly of God,100 Broadway,Pawtucket,RI,02860
First Baptist Church of Pawtucket,91 Cottage Street,Pawtucket,RI,02860
Covenant Congregational Church,143 Glenwood Avenue,Pawtucket,RI,02860
Church of the Good Shepherd,490 Broadway,Pawtucket,RI,02860
Blackstone Valley Emergency Food Center,75 Benefit Street,Pawtucket,RI,02861
Blackstone Valley Community Action Program,32 Goff Avenue,Pawtucket,RI,02860
St John the Baptist Food Pantry,69 Quincy Avenue,Pawtucket,RI,02860
Salvation Army of Pawtucket Pantry,102 High Street,Pawtucket,RI,02860
Holy Family Parish,195 Walcott Street,Pawtucket,RI,02860
Darlington Congregational Church,685 Central Avenue,Pawtucket,RI,02861
St Matthew Trinity Lutheran Food Pantry,690 Newport Avenue,Pawtucket,RI,02861
Woodlawn Baptist Church,337 Lonsdale Avenue,Pawtucket,RI,02860
Jonnycake Center of Peace Dale,1183 Kingstown Road Peace,Dale,RI,02883
New Life Assembly,251 Post Road South,Kingstown,RI,02879
St Peter's by the Sea,72 Central Street,Narragansett,RI,02882
Exeter Community Food Bank,227 Liberty Rd,Exeter,RI,02822
Family Service of Rhode Island Pantry,415 Tower Hill Road North,Kingstown,RI,02852
RI Center Assisting those in Need,805 Alton Carolina Road,Charlestown,RI,02813
Rhode Island Center Assisting those in Need,805 Alton Carolina Road,Charlestown,RI,02813
RI Center Assisting those in Need - RI CAN,805 Alton Carolina Rd,Charlestown,RI,02812
New Hope Chapel Pantry,80 Richmond Townhouse Rd,Carolina,RI,02812
East Bay Community Action Newport Pantry,19 Broadway,Newport,RI,02840
Rhode Island Community Food Bank,200 Niantic Ave.,Providence,RI,02907
Blessed Sacrament Food Pantry,275 Manton Ave,Providence,RI,02909
West End Community Center Pantry,109 Bucklin Street,Providence,RI,02907
SVDP Holy Ghost Conference,472 Atwells Avenue,Providence,RI,02909
St Thomas Church Food Pantry,65 Fruit Hill Avenue,Providence,RI,02909
St Edward Food and Wellness Center,1001 Branch Avenue,Providence,RI,02904
Silver Lake Community Center,529 Plainfield Street,Providence,RI,02909
Salvation Army of Providence Pantry,386 Broad Street,Providence,RI,02907
Providence Assembly of God Pantry,353 Elmwood Avenue,Providence,RI,02907
PICA Food Cupboard,15 Hayes St.,Providence,RI,02903
Nickerson Community Center Pantry,133 Delaine Street,Providence,RI,02909
Mt. Hope Neighborhood Association,199 Camp Street,Providence,RI,02906
Maranatha Community Outreach Pantry,381 Manton Ave.,Providence,RI,02909
John Hope Settlement House Pantry,7 Thomas Whitten Way,Providence,RI,02903
Interfaith Food Ministry,95 Hathaway Center,Providence,RI,02907
Iglesia El Refugio,540 Manton Avenue,Providence,RI,02909
Gospel Tabernacle Outreach Pantry,145 Oakland Avenue,Providence,RI,02908
Federal Hill House Pantry,35 Swiss Street,Providence,RI,02909
Ephese SDA Church,857 Eddy Street,Providence,RI,02905
Community Food Share First Unitarian Church,1 Benevolent Street,Providence,RI,02906
Church of God Shalom,145 Chad Brown Street,Providence,RI,02908
Church of God Casa de Benedicion,65 Narragansett Avenue,Providence,RI,02907
Camp Street Ministries,190 Camp Street,Providence,RI,02906
The Louis and Goldie Chester Full Plate Kosher Pantry,100 Niantic Avenue,Providence,RI,02907
SVDP St Raymond's Church,1240 North Main Street,Providence,RI,02904
SVDP St Charles Pantry,178 Dexter St,Providence,RI,02907
SVDP St Anthony's Church,549 Plainfield Street,Providence,RI,02909
St Peter and St Andrew Food Pantry,70 Pemberton Street,Providence,RI,02908
St Francis Poverello Center,668 Hartford Avenue,Providence,RI,02909
Project Outreach,1520 Broad Street,Providence,RI,02905
Pro-Cap Elmwood Pantry,85 Atlantic Avenue,Providence,RI,02907
Our Lady of the Rosary Pantry,17 Traverse Street,Providence,RI,02903
Operation Compassion Church of God,297 Elmwood Avenue,Providence,RI,02907
Joslin Community Center,231 Amherst Street,Providence,RI,02909
Gateway Healthcare Capital City Community Center Food Pantry,110 Ruggles Street,Providence,RI,02908
Christian Power House,87 Althea Street,Providence,RI,02907
Assumption of the BVM Church,791 Potters Avenue,Providence,RI,02907
The Elisha Project,65 Newport Ave,Providence,RI,02903
CAPP Food Pantry,85 Atlantic Avenue,Providence,RI,02907
Lighthouse Community Development Corporation,11 Hawthorne Street,Providence,RI,02907
Federal Hill House Pantry,9 Courtland Street,Providence,RI,02909
Maranatha Community Outreach Pantry,1040 Atwells Avenue,Providence,RI,02909
Pentecostal Church of God in Christ,25 Mystic Street,Providence,RI,02905
West End Food Pantry,109 Bucklin Street,Providence,RI,02907
Youth Pride Pantry,743 Westminster St.,Providence,RI,02903
Good Neighbors Pantry,55 Turner Avenue East,Providence,RI,02915
East Bay Community Action Program Pantry,100 Bullocks Point Avenue,Riverside,RI,02915
Edgewood Pawtuxet Food Closet: Transfiguration Church,1665 Broad Street,Cranston,RI,02905
Project Outreach,1520 Broad Street,Providence,RI,02905
East Bay Baptist Church Provision Pantry,10 James Street East,Providence,RI,02914
Tap-In Barrington Food Pantry,281 County Road,Barrington,RI,02806
Ephese SDA Church,857 Eddy Street,Providence,RI,02905
Pentecostal Church of God in Christ,25 Mystic Street,Providence,RI,02905
Interfaith Food Ministry,95 Hathaway Center,Providence,RI,02907
Bread of Life Food Pantry,100 Newman Avenue,Rumford,RI,02916
Seekonk Portuguese SDA Church,781 Newman Avenue,Seekonk,MA,02771
East Bay Baptist Church Provision Pantry,10 James Street East,Providence,RI,02914
Covenant Congregational Church,143 Glenwood Avenue,Pawtucket,RI,02860
Mt. Hope Neighborhood Association,199 Camp Street,Providence,RI,02906
Bethany Baptist Church,178 Sayles Ave,Pawtucket,RI,02860
Camp Street Ministries,190 Camp Street,Providence,RI,02906
Holy Family Parish,195 Walcott Street,Pawtucket,RI,02860
SVDP St Raymond's Church,1240 North Main Street,Providence,RI,02904
Rhode Island Diaper Bank,24 East St,Providence,RI,02906
New Life Worship Center,915 Douglas Pike,Smithfield,RI,02917
St Vincent De Paul St Philip Food Pantry,622 Putnam Pike,Greenville,RI,02828
SVDP St Philip Food Pantry,620 Putnam Pike,Greenville,RI,02828
Our Lady Queen of Martyrs,1409 Park Avenue,Woonsocket,RI,02895
Lime Rock Baptist Church,1075 Great Road,Lincoln,RI,02865
St Theresas Church Food Pantry,35 Dion Drive,Harrisville,RI,02830
St Agatha's Church,34 Joffre Avenue,Woonsocket,RI,02895
Connecting for Children and Families,37 Center Street,Woonsocket,RI,02895
St Alban's Church Food Pantry,1964 Smith Street,Centerdale,RI,02911
St James Episcopal Church,24 Hamlet Avenue,Woonsocket,RI,02895
New Life Assembly,251 Post Road South,Kingstown,RI,02879
East Bay Community Action Program Tiverton Pantry,1048 Stafford Road,Tiverton,RI,02878
St Josephs Church Food Pantry,5 Mann St,Newport,RI,02840
Westport Food Pantry,400 Old County Road,Westport,MA,02790
St Anne's Parish Food Pantry,818 Middle Street Fall,River,MA,02721
"Feed My Sheep Food Pantry - Fall River, MA",65 Middle St Fall,River,MA,02720
Gates Of Hope,112 Flint Street Fall,River,MA,02723
Veteran's Assoc. of Bristol County,755 Pine Street Fall,River,MA,02720
East Bay Food Pantry,532 Wood St,Bristol,RI,02809
East Bay Food Pantry,532 Wood Street,Bristol,RI,02809
Bethany Gospel Chapel,62 Lindsay Lane,Swansea,MA,02777
St Mary of the Bay Food Pantry - Warren,645 Main Street,Warren,RI,02885
Tap-In Barrington Food Pantry,281 County Road,Barrington,RI,02806
Bethany Gospel Chapel,62 Lindsay Lane,Swansea,MA,02777
East Bay Food Pantry,532 Wood St,Bristol,RI,02809
East Bay Food Pantry,532 Wood Street,Bristol,RI,02809
"Feed My Sheep Food Pantry - Fall River, MA",65 Middle St Fall,River,MA,02720
St Anne's Parish Food Pantry,818 Middle Street Fall,River,MA,02721
Good Neighbors Pantry,55 Turner Avenue East,Providence,RI,02915
East Bay Community Action Program Pantry,100 Bullocks Point Avenue,Riverside,RI,02915
Westbay CAP Market Place,487 Jefferson Boulevard,Warwick,RI,02886
Westbay CAP Market Place,487 Jefferson Blvd.,Warwick,RI,02886
St Rita's Church Pantry,722 Oakland Beach Avenue,Warwick,RI,02889
Comprehensive Community Action Program,311 Doric Avenue,Cranston,RI,02910
Interfaith Food Ministry,95 Hathaway Center,Providence,RI,02907
Edgewood Pawtuxet Food Closet: Transfiguration Church,1665 Broad Street,Cranston,RI,02905
Good Neighbors Pantry,55 Turner Avenue East,Providence,RI,02915
Project Outreach,1520 Broad Street,Providence,RI,02905
East Bay Community Action Program Pantry,100 Bullocks Point Avenue,Riverside,RI,02915
West Warwick Assistance Agency,1293 Main Street West,Warwick,RI,02893
West Warwick Senior Center Pantry,145 Washington Street West,Warwick,RI,02893
Coventry Community Food Services,191 Macarthur Boulevard,Coventry,RI,02816
Comprehensive Community Action,311 Doric Ave.,Coventry,RI,02816
Westbay CAP Market Place,487 Jefferson Blvd.,Warwick,RI,02886
Westbay CAP Market Place,487 Jefferson Boulevard,Warwick,RI,02886
St Lukes Episcopal Church Food Cupboard,99 Pierde St East,Greenwich,RI,02818
St Rita's Church Pantry,722 Oakland Beach Avenue,Warwick,RI,02889
Comprehensive Community Action Program,311 Doric Avenue,Cranston,RI,02910
SVDP Emergency Food Center - Saint Mary Church,181 Princess Avenue,Cranston,RI,02920
Warm Center,56 Spruce Street,Westerly,RI,02891
SVDP Immaculate Conception,111 High Street,Westerly,RI,02891
Jonnycake Center of Westerly,23 Industrial Drive,Westerly,RI,02891
Rhode Island Center Assisting those in Need,805 Alton Carolina Road,Charlestown,RI,02813
RI Center Assisting those in Need - RI CAN,805 Alton Carolina Rd,Charlestown,RI,02812
RI Center Assisting those in Need,805 Alton Carolina Road,Charlestown,RI,02813
New Hope Chapel Pantry,80 Richmond Townhouse Rd,Carolina,RI,02812
Catholic Charities - Diocese of Norwich,28 Huntington Street New,London,CT,06320
Centro De La Comunidad,109 Blinman Street New,London,CT,06320
New Life Assembly,251 Post Road South,Kingstown,RI,02879
St Joseph's Cupboard,1200 Mendon Road,Woonsocket,RI,02895
St James Episcopal Church,24 Hamlet Avenue,Woonsocket,RI,02895
St Agatha's Church,34 Joffre Avenue,Woonsocket,RI,02895
Our Lady Queen of Martyrs,1409 Park Avenue,Woonsocket,RI,02895
Connecting for Children and Families,37 Center Street,Woonsocket,RI,02895
SVDP Bryan's Pantry,190 North Main Street,Woonsocket,RI,02895
All Saints Church Pantry,323 Rathbun Street,Woonsocket,RI,02895
All Saints Church Pantry,323 Rathbun St,Woonsocket,RI,02895
The Shepherd's Pantry,1215 N Main Street,Acushnet,MA,02743
St Anthony of Padua Food Pantry,1359 Acushnet Avenue New,Bedford,MA,02746
St Martin's Food and Pet Pantry,136 Rivet Street New,Bedford,MA,02744
St Vincient de Paul/Food Pantry of Wareham,82 High Street,Wareham,MA,02571
Westport Food Pantry,400 Old County Road,Westport,MA,02790
Gates Of Hope,112 Flint Street Fall,River,MA,02723
Veteran's Assoc. of Bristol County,755 Pine Street Fall,River,MA,02720
Annelle Delorme Hagerman Food Pantry,2112 County Street,Somerset,MA,02726
St Anne's Parish Food Pantry,818 Middle Street Fall,River,MA,02721
East Bay Community Action Program Tiverton Pantry,1048 Stafford Road,Tiverton,RI,02878
Bethany Food Pantry,580 Main Street,Agawam,MA,01001
Parish Cupboard,1023 Main Street West,Springfield,MA,01089
Open Pantry Emergency ,287 State Street,Springfield,MA,01101
Westfield Emergency Food Pantry,101 Meadow Street Suite 1,Westfield,MA,01085
"Martin Luther King, Jr. Family Services (MLK) Food Pantry",106 Wilbrahm Road,Springfield,MA,01109
"Salvation Army - Westfield, MA",12 Arnold Street,Westfield,MA,01085
Valley Opportunity Council WIC - Westfield,77 Mill Street,Westfield,MA,01085
Our Community Pantry,220 College Highway,Southwick,MA,01077
Community Survival Center,240 Main Street Indian,Orchard,MA,01151
Margaret's Pantry and Kate's Kitchen at Providence Ministries,56 Cabot Street,Holyoke,MA,01040
Amherst Survival Center Food Pantry,138 Sunderland Road,Amherst,MA,01059
The Food Bank of Western Massachusetts,97 N. Hatfield,Road,PO,x 160
Northeast Food System Partnership,288 Hadley Road,Sunderland,MA,01375
Helping Hands Cupboard Food Pantry,18 Park Street,Belchertown,MA,01007
Margaret's Pantry and Kate's Kitchen at Providence Ministries,56 Cabot Street,Holyoke,MA,01040
"Martin Luther King, Jr. Family Services (MLK) Food Pantry",106 Wilbrahm Road,Springfield,MA,01109
Community Survival Center,240 Main Street Indian,Orchard,MA,01151
Tri-Parish Community Church Food Pantry,179 Main Street,Gilbertville,MA,01031
Orange Food Pantry,118 E Main Street,Orange,MA,01364
Open Pantry Emergency ,287 State Street,Springfield,MA,01101
Arlington Food Pantry,74 Pleasant Street,Arlington,MA,02476
Unitarian Universalist Church Pantry,147 High Street,Medford,MA,02155
Belmont Church of God Food Pantry,25 Marlboro Street,Belmont,MA,02478
St James Episcopal - Helping Hand Pantry,1991 Massachusetts Ave,Cambridge,MA,02140
 Waltham Fields Community Farm,240 Beaver Street,Waltham,MA,02452
Mystic Community Market,291 Mystic Avenue,Medford,MA,02155
St Vincient de Paul/St Patrick's Food Pantry-Watertown,25 Chestnut St,Watertown,MA,02472
Anchor Baptist Church Pantry,29A Montvale Avenue,Woburn,MA,01801
Food 4 All-sha4cd,59 cross st Somerville,,MA,02145
ABCD Allston/Brighton Pantry,640 Washington Street Suite #203,Brighton,MA,02135
Ashland Food Pantry,162 W Union Street,Ashland,MA,01721
St Bridget's Food Pantry,830 Worcester,Rd,Ro, 9 Fr
Southborough Food Pantry,15 Common Street,Southborough,MA,01772
A Place to Turn,99 Hartford Street,Natick,MA,01760
A Place To Turn,99 Hartford Street,Natick,MA,01760
Natick Service Council,11 Pond St.,Natick,MA,01760
Westborough Food Pantry - Forbes Community House,9 East Main Street,Westborough,MA,01581
Sudbury Community Food Pantry,160 Concord Rd,Sudbury,MA,01776
"Community Harvest Project, Inc.",37 Wheeler Rd North,Grafton,MA,01536
Westwood Council on Aging,60 Nahatan St.,Westwood,MA,02090
Orange Food Pantry,118 E Main Street,Orange,MA,01364
Winchendon Community Action Council,273 Central Street,Winchendon,MA,01475
Compassion Food Pantry,48 Stratton Road,Jaffrey,NH,03452
United Neighbors of Fitchburg,18 Fairmount Street,Fitchburg,MA,01420
Highland Baptist Church Food Pantry,19 Cedar St,Fitchburg,MA,01420
Monadnock Area Food Bank,49 Concord St All Saints Parish,Peterborough,NH,03458
Tri-Parish Community Church Food Pantry,179 Main Street,Gilbertville,MA,01031
Amherst Survival Center Food Pantry,138 Sunderland Road,Amherst,MA,01059
Northeast Food System Partnership,288 Hadley Road,Sunderland,MA,01375
St Joseph's Food Pantry,296 N. Main Street North,Brookfield,MA,01535
St Vicent De Paul,71 Linden Street,Attleboro,MA,02703
Self Help Attleboro,95 Pine Street Suite #6,Attleboro,MA,02703
South Attleboro Assembly of God,1052 Newport Avenue South,Attleboro,MA,02703
St Vincient de Paul/St Theresa,18 Baltic Street South,Attleboro,MA,02703
St Leo the Great  Pantry,697 Central Avenue,Pawtucket,RI,02861
Darlington Congregational Church,685 Central Avenue,Pawtucket,RI,02861
Blackstone Valley Emergency Food Center,75 Benefit Street,Pawtucket,RI,02861
Church of the Good Shepherd,490 Broadway,Pawtucket,RI,02860
Seekonk Portuguese SDA Church,781 Newman Avenue,Seekonk,MA,02771
Lighthouse Community Outreach,30 Meeting Street,Cumberland,RI,02864
Auburn Youth & Family Services,21 Pheasant Ct,Auburn,MA,01501
St Vincient de Paul - Sacred Heart Church,596 Cambridge Street,Worcester,MA,01610
South Worcester Neighborhood Center. - Lakeside Center,28 Lakeside Ave.,Worcester,MA,01603
St Vincient de Paul - St Peter's Church,929 Main Street,Worcester,MA,01610
South Worcester Neighborhood Center.- Green Island Neighborhood Center,50 Canton Street,Worcester,MA,01610
The Mustard Seed,93 Piedmont Street,Worcester,MA,01609
St Paul's Outreach,19 Chatham Street,Worcester,MA,01609
Worcester Community Action Council Inc,484 Main St,Worchester,MA,01608
"Community Harvest Project, Inc.",37 Wheeler Rd North,Grafton,MA,01536
Rachel's Table,633 Salisbury Street,Worcester,MA,01609
Avon Baptist Church,119 N Main Street,Avon,MA,02322
Brookville's Basket,871 South Franklin Street,Holbrook,MA,02343
Holbrook Ecumenical Food Pantry,322 South Franklin Street,Holbrook,MA,02343
"Friendly Food Pantry of Randolph, Inc.",1 Donald S McNeil Way,Randolph,MA,02368
Destiny Molders Church,247 North Main Street at One Credit Union Way / 2nd floor,Randolph,MA,02368
Brockton Assembly of God,199 Warren Avenue,Brockton,MA,02301
St Vincient de Paul - St Colman's Food Pantry,54 Lyman Street,Brockton,MA,02302
"The Charity Guild, Inc.",501 Main Street,Brockton,MA,02301
Easton Food Pantry,136 Elm Street North,Easton,MA,02356
Braintree Community Food Pantry,14 Storrs Avenue,Braintree,MA,02184
Helping Hands Cupboard Food Pantry,18 Park Street,Belchertown,MA,01007
Community Survival Center,240 Main Street Indian,Orchard,MA,01151
Tri-Parish Community Church Food Pantry,179 Main Street,Gilbertville,MA,01031
Amherst Survival Center Food Pantry,138 Sunderland Road,Amherst,MA,01059
Margaret's Pantry and Kate's Kitchen at Providence Ministries,56 Cabot Street,Holyoke,MA,01040
"Martin Luther King, Jr. Family Services (MLK) Food Pantry",106 Wilbrahm Road,Springfield,MA,01109
The Food Bank of Western Massachusetts,97 N. Hatfield,Road,PO,x 160
Northeast Food System Partnership,288 Hadley Road,Sunderland,MA,01375
Open Pantry Emergency ,287 State Street,Springfield,MA,01101
Parish Cupboard,1023 Main Street West,Springfield,MA,01089
Arlington Food Pantry,74 Pleasant Street,Arlington,MA,02476
Belmont Church of God Food Pantry,25 Marlboro Street,Belmont,MA,02478
 Waltham Fields Community Farm,240 Beaver Street,Waltham,MA,02452
St Vincient de Paul/St Patrick's Food Pantry-Watertown,25 Chestnut St,Watertown,MA,02472
St James Episcopal - Helping Hand Pantry,1991 Massachusetts Ave,Cambridge,MA,02140
ABCD Allston/Brighton Pantry,640 Washington Street Suite #203,Brighton,MA,02135
Allston-Brighton Food Pantry,404 Washington Street,Brighton,MA,02135
Unitarian Universalist Church Pantry,147 High Street,Medford,MA,02155
Mystic Community Market,291 Mystic Avenue,Medford,MA,02155
Cambridge Seniors Center Food Pantry,806 Massachusetts Ave.,Cambridge,MA,02139
Beverly Outreach Worker,371 Cabot St,Beverly,MA,01915
St Joseph's Food Pantry/Salem,15 Hawthorne Blvd,Salem,MA,01970
Salvation Army/Salem Pantry,93 North Street,Salem,MA,01970
St Vincient de Paul/St John the Baptist,17 Chestnut Street,Peabody,MA,01960
The Open Door,28 Emerson Ave,Gloucester,MA,01930
Wakefield Interfaith Food Pantry,467 Main Street,Wakefield,MA,01880
Bread of Life - Everett Food Pantry,117 Edith St. Suite 209,Everett,MA,02149
Malden YMCA Food Market,99 Dartmouth Street,Malden,MA,02148
Bread of Life Food Distribution,54 Eastern Avenue,Malden,MA,02148
Winthrop Community Food Pantry,222 Bowdoin Street,Winthrop,MA,02152
Blackstone-Millville Food Pantry,48 St. Paul Street,Blackstone,MA,01504
SVDP Bryan's Pantry,190 North Main Street,Woonsocket,RI,02895
All Saints Church Pantry,323 Rathbun St,Woonsocket,RI,02895
Connecting for Children and Families,37 Center Street,Woonsocket,RI,02895
St James Episcopal Church,24 Hamlet Avenue,Woonsocket,RI,02895
St Agatha's Church,34 Joffre Avenue,Woonsocket,RI,02895
St Joseph's Cupboard,1200 Mendon Road,Woonsocket,RI,02895
Our Lady Queen of Martyrs,1409 Park Avenue,Woonsocket,RI,02895
St Theresas Church Food Pantry,35 Dion Drive,Harrisville,RI,02830
St Patricks Food Closet,45 Harrisville Main St,Harrisville,RI,02830
Friends Of The Boston Public Market Inc,40 Court St,Boston,MA,02108
St. Francis House - Boston,39 Boylston Street,Boston,MA,02116
Combined Jewish Philanthropies,126 High Street,Boston,MA,02110
Project Bread - The Walk For Hunger of Massachusetts,145 Border St,Boston,MA,02128
The Paulist Center,5 Park Street,Boston,MA,02108
St Anthony Shrine/Franciscan Food Center,100 Arch Street,Boston,MA,02110
Sojourner House,85 Rockland St.,Boston,MA,02119
Salvation Army/South End Food Pantry,1500 Washington Street,Boston,MA,02118
Rosie's Place Pantry,889 Harrison Ave,Boston,MA,02118
ABCD North End Pantry,1 Michelangelo Street,Boston,MA,02113
ABCD South End Pantry,554 Columbus Avenue,Boston,MA,02118
Boston Rescue Mission,39 Kingston St,Boston,MA,02111
"Sandwich Food Pantry, Inc",331 Cotuit Rd.,Sandwich,MA,02563
St Vincient de Paul/Food Pantry of Wareham,82 High Street,Wareham,MA,02571
St Vincient de Paul/Sandwich,324 Quaker Meeting House Road East,Sandwich,MA,02537
St Vincient de Paul/Christ the King,Rt 151 and Jobs FIshing Rd,Mashpee,MA,02649
Salvation Army Plymouth - FoodPantry,52 Long Pond Rd,Plymouth,MA,02360
SSCAC/ Emergency Assistance Food Program,71 Obery Street,Plymouth,MA,02360
The Shepherd's Pantry,1215 N Main Street,Acushnet,MA,02743
CORD,106 Bassett Lane,Hyannis,MA,02601
St Vincent de Paul - St Francis Xavier,21 Cross Street,Hyannis,MA,02601
St Anthony of Padua Food Pantry,1359 Acushnet Avenue New,Bedford,MA,02746
Braintree Community Food Pantry,14 Storrs Avenue,Braintree,MA,02184
Marge Crispin Center,46 Lincoln Street,Braintree,MA,02184
Salvation Army/Quincy Food Pantry,6 Baxter Street,Quincy,MA,02169
YMCA/Germantown Neighborhood Food Pantry,33 Palmer Street,Quincy,MA,02169
Destiny Molders Church,247 North Main Street at One Credit Union Way / 2nd floor,Randolph,MA,02368
Weymouth Council for the Hungry,1189 Commercial Street,Weymouth,MA,02189
"Friendly Food Pantry of Randolph, Inc.",1 Donald S McNeil Way,Randolph,MA,02368
Holbrook Ecumenical Food Pantry,322 South Franklin Street,Holbrook,MA,02343
Avon Baptist Church,119 N Main Street,Avon,MA,02322
Brookville's Basket,871 South Franklin Street,Holbrook,MA,02343
St Vincient de Paul/Our Lady of Cape Church,468 Stony Brook Road,Brewster,MA,02631
St Vincent de Paul - St Francis Xavier,21 Cross Street,Hyannis,MA,02601
CORD,106 Bassett Lane,Hyannis,MA,02601
St Vincient de Paul/Sandwich,324 Quaker Meeting House Road East,Sandwich,MA,02537
Allston-Brighton Food Pantry,404 Washington Street,Brighton,MA,02135
ABCD Allston/Brighton Pantry,640 Washington Street Suite #203,Brighton,MA,02135
Brookline Emergency Food Pantry,210 Harvard Street,Brookline,MA,02446
Belmont Church of God Food Pantry,25 Marlboro Street,Belmont,MA,02478
St Vincient de Paul/St Patrick's Food Pantry-Watertown,25 Chestnut St,Watertown,MA,02472
Cambridge Seniors Center Food Pantry,806 Massachusetts Ave.,Cambridge,MA,02139
St Paul's AME Church Pantry,85 Bishop Allen Drive,Cambridge,MA,02139
ABCD Parker Hill/Fenway Pantry,714 Parker Street,Roxbury,MA,02120
St James Episcopal - Helping Hand Pantry,1991 Massachusetts Ave,Cambridge,MA,02140
St. Katharine Drexel Parish,175 Ruggles St.,Roxbury,MA,02120
Brockton Assembly of God,199 Warren Avenue,Brockton,MA,02301
"The Charity Guild, Inc.",501 Main Street,Brockton,MA,02301
St Vincient de Paul - St Colman's Food Pantry,54 Lyman Street,Brockton,MA,02302
Brookville's Basket,871 South Franklin Street,Holbrook,MA,02343
Avon Baptist Church,119 N Main Street,Avon,MA,02322
Easton Food Pantry,136 Elm Street North,Easton,MA,02356
Holbrook Ecumenical Food Pantry,322 South Franklin Street,Holbrook,MA,02343
"Friendly Food Pantry of Randolph, Inc.",1 Donald S McNeil Way,Randolph,MA,02368
Destiny Molders Church,247 North Main Street at One Credit Union Way / 2nd floor,Randolph,MA,02368
Braintree Community Food Pantry,14 Storrs Avenue,Braintree,MA,02184
Brookline Emergency Food Pantry,210 Harvard Street,Brookline,MA,02446
Allston-Brighton Food Pantry,404 Washington Street,Brighton,MA,02135
ABCD Parker Hill/Fenway Pantry,714 Parker Street,Roxbury,MA,02120
ABCD Allston/Brighton Pantry,640 Washington Street Suite #203,Brighton,MA,02135
St. Katharine Drexel Parish,175 Ruggles St.,Roxbury,MA,02120
Sojourner House,85 Rockland St.,Boston,MA,02119
Salvation Army/Roxbury Food Pantry,23 Vernon Street,Roxbury,MA,02119
Berea Church Pantry,108 Seaver Street,Dorchester,MA,02121
United Emmanuel Holiness Church,65 Windsor St.,Roxbury,MA,02119
Twelfth Baptist Church Food Pantry,160 Warren St.,Roxbury,MA,02119
Burlington Food Pantry,10 St. Marks Road,Burlington,MA,01803
Woburn Council of Social Concern,2 Merrimac Street,Woburn,MA,01801
Anchor Baptist Church Pantry,29A Montvale Avenue,Woburn,MA,01801
Wakefield Interfaith Food Pantry,467 Main Street,Wakefield,MA,01880
Arlington Food Pantry,74 Pleasant Street,Arlington,MA,02476
Unitarian Universalist Church Pantry,147 High Street,Medford,MA,02155
 Waltham Fields Community Farm,240 Beaver Street,Waltham,MA,02452
Malden YMCA Food Market,99 Dartmouth Street,Malden,MA,02148
Mystic Community Market,291 Mystic Avenue,Medford,MA,02155
Bread of Life Food Pantry,109 Madison St,Malden,MA,02148
Cambridge Seniors Center Food Pantry,806 Massachusetts Ave.,Cambridge,MA,02139
St Paul's AME Church Pantry,85 Bishop Allen Drive,Cambridge,MA,02139
St James Episcopal - Helping Hand Pantry,1991 Massachusetts Ave,Cambridge,MA,02140
Food 4 All-sha4cd,59 cross st Somerville,,MA,02145
Somerville Homeless Coalition Main Food Pantry - Saint Benedict's Church (rear basement),15 Franklin Street East,Somerville,MA,02145
Mystic Community Market,291 Mystic Avenue,Medford,MA,02155
Belmont Church of God Food Pantry,25 Marlboro Street,Belmont,MA,02478
Brookline Emergency Food Pantry,210 Harvard Street,Brookline,MA,02446
The Paulist Center,5 Park Street,Boston,MA,02108
ABCD South End Pantry,554 Columbus Avenue,Boston,MA,02118
The Harvest on Vine,49 Vine Street,Charlestown,MA,02129
ABCD North End Pantry,1 Michelangelo Street,Boston,MA,02113
Somerville Homeless Coalition Main Food Pantry - Saint Benedict's Church (rear basement),15 Franklin Street East,Somerville,MA,02145
Project Bread - The Walk For Hunger of Massachusetts,145 Border St,Boston,MA,02128
Crossroads Family Shelter,56 Havre Street East,Boston,MA,02128
Food 4 All-sha4cd,59 cross st Somerville,,MA,02145
Friends Of The Boston Public Market Inc,40 Court St,Boston,MA,02108
The Paulist Center,5 Park Street,Boston,MA,02108
Combined Jewish Philanthropies,126 High Street,Boston,MA,02110
St Anthony Shrine/Franciscan Food Center,100 Arch Street,Boston,MA,02110
Project Bread - The Walk For Hunger of Massachusetts,145 Border St,Boston,MA,02128
The Harvest on Vine,49 Vine Street,Charlestown,MA,02129
Crossroads Family Shelter,56 Havre Street East,Boston,MA,02128
Bread of Life - Everett Food Pantry,117 Edith St. Suite 209,Everett,MA,02149
ABCD North End Pantry,1 Michelangelo Street,Boston,MA,02113
Bread of Life Food Distribution,54 Eastern Avenue,Malden,MA,02148
Bread of Life Food Pantry,109 Madison St,Malden,MA,02148
Somerville Homeless Coalition Main Food Pantry - Saint Benedict's Church (rear basement),15 Franklin Street East,Somerville,MA,02145
Food 4 All-sha4cd,59 cross st Somerville,,MA,02145
Friends Of The Boston Public Market Inc,40 Court St,Boston,MA,02108
WHEAT Community Services,500 Main Street,Clinton,MA,01510
Wachusett Food Pantry,50 Worcester Road,Sterling,MA,01564
West Boylston Food Pantry - First Congregational Church,26 Central Street West,Boylston,MA,01583
Catholic Charities North County,196 Mechanic St,Leominster,MA,01453
St Vincient de Paul - St Leo's Church,108 Main Street,Leominster,MA,01453
Worcester County Food Bank Inc,474 Boston Turnpike Road,Shrewsbury,MA,01545
St Anne's Human Services,130 Boston Turnpike,Shrewsbury,MA,01545
Westborough Food Pantry - Forbes Community House,9 East Main Street,Westborough,MA,01581
Southborough Food Pantry,15 Common Street,Southborough,MA,01772
Rachel's Table,633 Salisbury Street,Worcester,MA,01609
Zion Temple Church Food Pantry,79 Stanton Street,Dorchester,MA,02124
Temple Salem SDA Church,222 Woodrow Ave,Dorchester,MA,02124
St Mary's Food Pantry,14 Cushing Ave,Dorchester,MA,02125
St Matthew's Church Food Pantry,33 Stanton Street,Dorchester,MA,02124
Saint Katherine Drexel Parish,517 Blue Hill Ave,Dorchester,MA,02121
Refuge and Relief Mission,292 Talbot Ave,Dorchester,MA,02124
Project Care and Concern,540 Columbia Rd.,Dorchester,MA,02125
Berea Church Pantry,108 Seaver Street,Dorchester,MA,02121
St Denis Church,23 Manchaug Street,Douglas,MA,01516
Webster-Dudley Food Share ,4 Church Street,Webster,MA,01570
St Patricks Food Closet,45 Harrisville Main St,Harrisville,RI,02830
St Theresas Church Food Pantry,35 Dion Drive,Harrisville,RI,02830
Blackstone-Millville Food Pantry,48 St. Paul Street,Blackstone,MA,01504
"Community Harvest Project, Inc.",37 Wheeler Rd North,Grafton,MA,01536
Auburn Youth & Family Services,21 Pheasant Ct,Auburn,MA,01501
Connecting for Children and Families,37 Center Street,Woonsocket,RI,02895
SVDP Bryan's Pantry,190 North Main Street,Woonsocket,RI,02895
St James Episcopal Church,24 Hamlet Avenue,Woonsocket,RI,02895
Friends Of The Boston Public Market Inc,40 Court St,Boston,MA,02108
The Paulist Center,5 Park Street,Boston,MA,02108
St Anthony Shrine/Franciscan Food Center,100 Arch Street,Boston,MA,02110
Boston Rescue Mission,39 Kingston St,Boston,MA,02111
Combined Jewish Philanthropies,126 High Street,Boston,MA,02110
St. Francis House - Boston,39 Boylston Street,Boston,MA,02116
ABCD North End Pantry,1 Michelangelo Street,Boston,MA,02113
The Harvest on Vine,49 Vine Street,Charlestown,MA,02129
Crossroads Family Shelter,56 Havre Street East,Boston,MA,02128
Salvation Army/South End Food Pantry,1500 Washington Street,Boston,MA,02118
St Vincient de Paul/Sandwich,324 Quaker Meeting House Road East,Sandwich,MA,02537
"Sandwich Food Pantry, Inc",331 Cotuit Rd.,Sandwich,MA,02563
St Vincient de Paul/Christ the King,Rt 151 and Jobs FIshing Rd,Mashpee,MA,02649
CORD,106 Bassett Lane,Hyannis,MA,02601
St Vincent de Paul - St Francis Xavier,21 Cross Street,Hyannis,MA,02601
St Vincient de Paul/Food Pantry of Wareham,82 High Street,Wareham,MA,02571
St Vincient de Paul/Our Lady of Cape Church,468 Stony Brook Road,Brewster,MA,02631
Salvation Army Plymouth - FoodPantry,52 Long Pond Rd,Plymouth,MA,02360
SSCAC/ Emergency Assistance Food Program,71 Obery Street,Plymouth,MA,02360
Pembroke Food Pantry,Center St Pembroke,Center,MA,02359
Somerville Homeless Coalition Main Food Pantry - Saint Benedict's Church (rear basement),15 Franklin Street East,Somerville,MA,02145
Bread of Life - Everett Food Pantry,117 Edith St. Suite 209,Everett,MA,02149
Bread of Life Food Pantry,109 Madison St,Malden,MA,02148
Bread of Life Food Distribution,54 Eastern Avenue,Malden,MA,02148
Malden YMCA Food Market,99 Dartmouth Street,Malden,MA,02148
The Harvest on Vine,49 Vine Street,Charlestown,MA,02129
Somerville Homeless Coalition Main Food Pantry - Saint Benedict's Church (rear basement),15 Franklin Street East,Somerville,MA,02145
Food 4 All-sha4cd,59 cross st Somerville,,MA,02145
Project Bread - The Walk For Hunger of Massachusetts,145 Border St,Boston,MA,02128
Mystic Community Market,291 Mystic Avenue,Medford,MA,02155
Crossroads Family Shelter,56 Havre Street East,Boston,MA,02128
"Feed My Sheep Food Pantry - Fall River, MA",65 Middle St Fall,River,MA,02720
Gates Of Hope,112 Flint Street Fall,River,MA,02723
Veteran's Assoc. of Bristol County,755 Pine Street Fall,River,MA,02720
St Anne's Parish Food Pantry,818 Middle Street Fall,River,MA,02721
Salvation Army Fall River Food Assistance,290 Bedford Street Fall,River,MA,02722
Sacred Heart Pantry,160 Seabury Street Fall,River,MA,02720
United Neighbors of Fitchburg,18 Fairmount Street,Fitchburg,MA,01420
Highland Baptist Church Food Pantry,19 Cedar St,Fitchburg,MA,01420
St Vincient de Paul - St Leo's Church,108 Main Street,Leominster,MA,01453
Catholic Charities North County,196 Mechanic St,Leominster,MA,01453
Townsend Ecumenical Outreach,82 Bayberry Hill Road,Townsend,MA,01474
Townsend Ecumenical Outreach,82 Bayberry Hill Rd.,Townsend,MA,01469
Winchendon Community Action Council,273 Central Street,Winchendon,MA,01475
Wachusett Food Pantry,50 Worcester Road,Sterling,MA,01564
WHEAT Community Services,500 Main Street,Clinton,MA,01510
West Boylston Food Pantry - First Congregational Church,26 Central Street West,Boylston,MA,01583
St Bridget's Food Pantry,830 Worcester,Rd,Ro, 9 Fr
A Place to Turn,99 Hartford Street,Natick,MA,01760
A Place To Turn,99 Hartford Street,Natick,MA,01760
Natick Service Council,11 Pond St.,Natick,MA,01760
Ashland Food Pantry,162 W Union Street,Ashland,MA,01721
Sudbury Community Food Pantry,160 Concord Rd,Sudbury,MA,01776
Southborough Food Pantry,15 Common Street,Southborough,MA,01772
Westborough Food Pantry - Forbes Community House,9 East Main Street,Westborough,MA,01581
Westwood Council on Aging,60 Nahatan St.,Westwood,MA,02090
 Waltham Fields Community Farm,240 Beaver Street,Waltham,MA,02452
Tri-Parish Community Church Food Pantry,179 Main Street,Gilbertville,MA,01031
St Joseph's Food Pantry,296 N. Main Street North,Brookfield,MA,01535
Helping Hands Cupboard Food Pantry,18 Park Street,Belchertown,MA,01007
Amherst Survival Center Food Pantry,138 Sunderland Road,Amherst,MA,01059
Orange Food Pantry,118 E Main Street,Orange,MA,01364
Winchendon Community Action Council,273 Central Street,Winchendon,MA,01475
Rachel's Table,633 Salisbury Street,Worcester,MA,01609
Northeast Food System Partnership,288 Hadley Road,Sunderland,MA,01375
Community Survival Center,240 Main Street Indian,Orchard,MA,01151
South Worcester Neighborhood Center. - Lakeside Center,28 Lakeside Ave.,Worcester,MA,01603
The Open Door,28 Emerson Ave,Gloucester,MA,01930
Beverly Outreach Worker,371 Cabot St,Beverly,MA,01915
St Joseph's Food Pantry/Salem,15 Hawthorne Blvd,Salem,MA,01970
Salvation Army/Salem Pantry,93 North Street,Salem,MA,01970
St Vincient de Paul/St John the Baptist,17 Chestnut Street,Peabody,MA,01960
Wakefield Interfaith Food Pantry,467 Main Street,Wakefield,MA,01880
Winthrop Community Food Pantry,222 Bowdoin Street,Winthrop,MA,02152
Bread of Life - Everett Food Pantry,117 Edith St. Suite 209,Everett,MA,02149
Malden YMCA Food Market,99 Dartmouth Street,Malden,MA,02148
Bread of Life Food Distribution,54 Eastern Avenue,Malden,MA,02148
St Vincient de Paul/Our Lady of the Lake,580 Monponsett Street,Halifax,MA,02338
Pembroke Food Pantry,Center St Pembroke,Center,MA,02359
St Vincient de Paul - St Colman's Food Pantry,54 Lyman Street,Brockton,MA,02302
"The Charity Guild, Inc.",501 Main Street,Brockton,MA,02301
Brockton Assembly of God,199 Warren Avenue,Brockton,MA,02301
SSCAC/ Emergency Assistance Food Program,71 Obery Street,Plymouth,MA,02360
Salvation Army Plymouth - FoodPantry,52 Long Pond Rd,Plymouth,MA,02360
Brookville's Basket,871 South Franklin Street,Holbrook,MA,02343
St Vincent de Paul/Taunton,141 Washington Street,Taunton,MA,02780
Holbrook Ecumenical Food Pantry,322 South Franklin Street,Holbrook,MA,02343
The Food Bank of Western Massachusetts,97 N. Hatfield,Road,PO,x 160
Amherst Survival Center Food Pantry,138 Sunderland Road,Amherst,MA,01059
Northeast Food System Partnership,288 Hadley Road,Sunderland,MA,01375
Margaret's Pantry and Kate's Kitchen at Providence Ministries,56 Cabot Street,Holyoke,MA,01040
Helping Hands Cupboard Food Pantry,18 Park Street,Belchertown,MA,01007
"Martin Luther King, Jr. Family Services (MLK) Food Pantry",106 Wilbrahm Road,Springfield,MA,01109
Community Survival Center,240 Main Street Indian,Orchard,MA,01151
Huntington Food Pantry - Pioneer Valley Assembly of God,63 Old Chester Road,Huntington,MA,01050
Open Pantry Emergency ,287 State Street,Springfield,MA,01101
Westfield Emergency Food Pantry,101 Meadow Street Suite 1,Westfield,MA,01085
Holbrook Ecumenical Food Pantry,322 South Franklin Street,Holbrook,MA,02343
Brookville's Basket,871 South Franklin Street,Holbrook,MA,02343
Avon Baptist Church,119 N Main Street,Avon,MA,02322
"Friendly Food Pantry of Randolph, Inc.",1 Donald S McNeil Way,Randolph,MA,02368
Destiny Molders Church,247 North Main Street at One Credit Union Way / 2nd floor,Randolph,MA,02368
St Vincient de Paul - St Colman's Food Pantry,54 Lyman Street,Brockton,MA,02302
Brockton Assembly of God,199 Warren Avenue,Brockton,MA,02301
"The Charity Guild, Inc.",501 Main Street,Brockton,MA,02301
Marge Crispin Center,46 Lincoln Street,Braintree,MA,02184
Braintree Community Food Pantry,14 Storrs Avenue,Braintree,MA,02184
Margaret's Pantry and Kate's Kitchen at Providence Ministries,56 Cabot Street,Holyoke,MA,01040
"Martin Luther King, Jr. Family Services (MLK) Food Pantry",106 Wilbrahm Road,Springfield,MA,01109
Community Survival Center,240 Main Street Indian,Orchard,MA,01151
Open Pantry Emergency ,287 State Street,Springfield,MA,01101
Parish Cupboard,1023 Main Street West,Springfield,MA,01089
Westfield Emergency Food Pantry,101 Meadow Street Suite 1,Westfield,MA,01085
"Salvation Army - Westfield, MA",12 Arnold Street,Westfield,MA,01085
Bethany Food Pantry,580 Main Street,Agawam,MA,01001
Valley Opportunity Council WIC - Westfield,77 Mill Street,Westfield,MA,01085
Helping Hands Cupboard Food Pantry,18 Park Street,Belchertown,MA,01007
Wellspring Multi-Service Pantry,814 Nantasket Avenue,Hull,MA,02045
Weymouth Council for the Hungry,1189 Commercial Street,Weymouth,MA,02189
YMCA/Germantown Neighborhood Food Pantry,33 Palmer Street,Quincy,MA,02169
Salvation Army/Quincy Food Pantry,6 Baxter Street,Quincy,MA,02169
Marge Crispin Center,46 Lincoln Street,Braintree,MA,02184
Braintree Community Food Pantry,14 Storrs Avenue,Braintree,MA,02184
Winthrop Community Food Pantry,222 Bowdoin Street,Winthrop,MA,02152
Scituate Food Pantry,344 Country Way North,Scituate,RI,02857
St Augustine's - St Monica Catholic Church Food Pantry,331 Old Colony Ave. South,Boston,MA,02127
St Mary's Food Pantry,14 Cushing Ave,Dorchester,MA,02125
Huntington Food Pantry - Pioneer Valley Assembly of God,63 Old Chester Road,Huntington,MA,01050
"Salvation Army - Westfield, MA",12 Arnold Street,Westfield,MA,01085
Westfield Emergency Food Pantry,101 Meadow Street Suite 1,Westfield,MA,01085
Valley Opportunity Council WIC - Westfield,77 Mill Street,Westfield,MA,01085
The Food Bank of Western Massachusetts,97 N. Hatfield,Road,PO,x 160
Margaret's Pantry and Kate's Kitchen at Providence Ministries,56 Cabot Street,Holyoke,MA,01040
"Martin Luther King, Jr. Family Services (MLK) Food Pantry",106 Wilbrahm Road,Springfield,MA,01109
Northeast Food System Partnership,288 Hadley Road,Sunderland,MA,01375
Amherst Survival Center Food Pantry,138 Sunderland Road,Amherst,MA,01059
Our Community Pantry,220 College Highway,Southwick,MA,01077
CORD,106 Bassett Lane,Hyannis,MA,02601
St Vincent de Paul - St Francis Xavier,21 Cross Street,Hyannis,MA,02601
St Vincient de Paul/Sandwich,324 Quaker Meeting House Road East,Sandwich,MA,02537
St Vincient de Paul/Christ the King,Rt 151 and Jobs FIshing Rd,Mashpee,MA,02649
St Vincient de Paul/Our Lady of Cape Church,468 Stony Brook Road,Brewster,MA,02631
"Sandwich Food Pantry, Inc",331 Cotuit Rd.,Sandwich,MA,02563
Salvation Army Plymouth - FoodPantry,52 Long Pond Rd,Plymouth,MA,02360
SSCAC/ Emergency Assistance Food Program,71 Obery Street,Plymouth,MA,02360
Community Survival Center,240 Main Street Indian,Orchard,MA,01151
Open Pantry Emergency ,287 State Street,Springfield,MA,01101
"Martin Luther King, Jr. Family Services (MLK) Food Pantry",106 Wilbrahm Road,Springfield,MA,01109
Margaret's Pantry and Kate's Kitchen at Providence Ministries,56 Cabot Street,Holyoke,MA,01040
Parish Cupboard,1023 Main Street West,Springfield,MA,01089
Bethany Food Pantry,580 Main Street,Agawam,MA,01001
Helping Hands Cupboard Food Pantry,18 Park Street,Belchertown,MA,01007
Westfield Emergency Food Pantry,101 Meadow Street Suite 1,Westfield,MA,01085
"Salvation Army - Westfield, MA",12 Arnold Street,Westfield,MA,01085
Valley Opportunity Council WIC - Westfield,77 Mill Street,Westfield,MA,01085
Catholic Charities North County,196 Mechanic St,Leominster,MA,01453
St Vincient de Paul - St Leo's Church,108 Main Street,Leominster,MA,01453
Highland Baptist Church Food Pantry,19 Cedar St,Fitchburg,MA,01420
United Neighbors of Fitchburg,18 Fairmount Street,Fitchburg,MA,01420
WHEAT Community Services,500 Main Street,Clinton,MA,01510
Wachusett Food Pantry,50 Worcester Road,Sterling,MA,01564
Townsend Ecumenical Outreach,82 Bayberry Hill Road,Townsend,MA,01474
Townsend Ecumenical Outreach,82 Bayberry Hill Rd.,Townsend,MA,01469
West Boylston Food Pantry - First Congregational Church,26 Central Street West,Boylston,MA,01583
Winchendon Community Action Council,273 Central Street,Winchendon,MA,01475
"Merrimack Valley Food Bank, Inc.",735 Broadway St,Lowell,MA,01854
St Vincient de Paul - St Raphael's Food Pantry,514 High Street West,Medford,MA,02155
Burlington Food Pantry,10 St. Marks Road,Burlington,MA,01803
Woburn Council of Social Concern,2 Merrimac Street,Woburn,MA,01801
Anchor Baptist Church Pantry,29A Montvale Avenue,Woburn,MA,01801
Wakefield Interfaith Food Pantry,467 Main Street,Wakefield,MA,01880
Arlington Food Pantry,74 Pleasant Street,Arlington,MA,02476
Unitarian Universalist Church Pantry,147 High Street,Medford,MA,02155
 Waltham Fields Community Farm,240 Beaver Street,Waltham,MA,02452
Sudbury Community Food Pantry,160 Concord Rd,Sudbury,MA,01776
Bread of Life Food Distribution,54 Eastern Avenue,Malden,MA,02148
Malden YMCA Food Market,99 Dartmouth Street,Malden,MA,02148
Bread of Life - Everett Food Pantry,117 Edith St. Suite 209,Everett,MA,02149
Bread of Life Food Pantry,109 Madison St,Malden,MA,02148
Mystic Community Market,291 Mystic Avenue,Medford,MA,02155
Unitarian Universalist Church Pantry,147 High Street,Medford,MA,02155
Somerville Homeless Coalition Main Food Pantry - Saint Benedict's Church (rear basement),15 Franklin Street East,Somerville,MA,02145
Food 4 All-sha4cd,59 cross st Somerville,,MA,02145
The Harvest on Vine,49 Vine Street,Charlestown,MA,02129
Project Bread - The Walk For Hunger of Massachusetts,145 Border St,Boston,MA,02128
St Vincient de Paul/Christ the King,Rt 151 and Jobs FIshing Rd,Mashpee,MA,02649
"Sandwich Food Pantry, Inc",331 Cotuit Rd.,Sandwich,MA,02563
St Vincient de Paul/Sandwich,324 Quaker Meeting House Road East,Sandwich,MA,02537
CORD,106 Bassett Lane,Hyannis,MA,02601
St Vincent de Paul - St Francis Xavier,21 Cross Street,Hyannis,MA,02601
St Vincient de Paul/Food Pantry of Wareham,82 High Street,Wareham,MA,02571
St Vincient de Paul/Our Lady of Cape Church,468 Stony Brook Road,Brewster,MA,02631
Salvation Army Plymouth - FoodPantry,52 Long Pond Rd,Plymouth,MA,02360
SSCAC/ Emergency Assistance Food Program,71 Obery Street,Plymouth,MA,02360
St Vincient de Paul/Our Lady of the Lake,580 Monponsett Street,Halifax,MA,02338
Unitarian Universalist Church Pantry,147 High Street,Medford,MA,02155
Mystic Community Market,291 Mystic Avenue,Medford,MA,02155
Bread of Life Food Pantry,109 Madison St,Malden,MA,02148
St James Episcopal - Helping Hand Pantry,1991 Massachusetts Ave,Cambridge,MA,02140
Malden YMCA Food Market,99 Dartmouth Street,Malden,MA,02148
Bread of Life Food Distribution,54 Eastern Avenue,Malden,MA,02148
Arlington Food Pantry,74 Pleasant Street,Arlington,MA,02476
Food 4 All-sha4cd,59 cross st Somerville,,MA,02145
Somerville Homeless Coalition Main Food Pantry - Saint Benedict's Church (rear basement),15 Franklin Street East,Somerville,MA,02145
Bread of Life - Everett Food Pantry,117 Edith St. Suite 209,Everett,MA,02149
Ashland Food Pantry,162 W Union Street,Ashland,MA,01721
Blackstone-Millville Food Pantry,48 St. Paul Street,Blackstone,MA,01504
All Saints Church Pantry,323 Rathbun St,Woonsocket,RI,02895
SVDP Bryan's Pantry,190 North Main Street,Woonsocket,RI,02895
Westborough Food Pantry - Forbes Community House,9 East Main Street,Westborough,MA,01581
St James Episcopal Church,24 Hamlet Avenue,Woonsocket,RI,02895
Connecting for Children and Families,37 Center Street,Woonsocket,RI,02895
St Joseph's Cupboard,1200 Mendon Road,Woonsocket,RI,02895
St Agatha's Church,34 Joffre Avenue,Woonsocket,RI,02895
"Community Harvest Project, Inc.",37 Wheeler Rd North,Grafton,MA,01536
Natick Service Council,11 Pond St.,Natick,MA,01760
A Place To Turn,99 Hartford Street,Natick,MA,01760
A Place to Turn,99 Hartford Street,Natick,MA,01760
St Bridget's Food Pantry,830 Worcester,Rd,Ro, 9 Fr
Ashland Food Pantry,162 W Union Street,Ashland,MA,01721
Sudbury Community Food Pantry,160 Concord Rd,Sudbury,MA,01776
Westwood Council on Aging,60 Nahatan St.,Westwood,MA,02090
Southborough Food Pantry,15 Common Street,Southborough,MA,01772
 Waltham Fields Community Farm,240 Beaver Street,Waltham,MA,02452
St Vincient de Paul/St Patrick's Food Pantry-Watertown,25 Chestnut St,Watertown,MA,02472
St Martin's Food and Pet Pantry,136 Rivet Street New,Bedford,MA,02744
St Anthony of Padua Food Pantry,1359 Acushnet Avenue New,Bedford,MA,02746
South Baptist Church Pantry,745 Brock Avenue New,Bedford,MA,02744
S.D.A. Portuguese Church Pantry,413 Rockdale Ave New,Bedford,MA,02740
P.A.C.E. Inc. - Emergency Food Pantry,166 William Street New,Bedford,MA,02740
Pentecostal Assembly,215 Sawyer Street New,Bedford,MA,02746
Friendship Center Food Pantry of the Northern Berkshire Interfaith Action Initiative ,43 Eagle St North,Adams,MA,01247
BROC Community Food Shelf- Bennington,332 Orchard Road,Bennington,VT,05201
Bible Baptist Church of Bennington,1425 Harwood Hill,Bennington,VT,05201
Arlington Food Shelf,165 Old Mill Road,Arlington,VT,05250
Cambridge Food Pantry - Cambridge United Presbyterian Church,59 S Park Street,Cambridge,NY,12816
Cambridge Seniors Building Food Pantry,5 Park Pl,Cambridge,NY,12816
Cambridge Loaves and Fishes Food Pantry,81 E Main Street,Cambridge,NY,12816
St Joseph's Food Pantry,296 N. Main Street North,Brookfield,MA,01535
Tri-Parish Community Church Food Pantry,179 Main Street,Gilbertville,MA,01031
Rachel's Table,633 Salisbury Street,Worcester,MA,01609
South Worcester Neighborhood Center. - Lakeside Center,28 Lakeside Ave.,Worcester,MA,01603
Auburn Youth & Family Services,21 Pheasant Ct,Auburn,MA,01501
South Central WIC Program,29 Pine St.,Southbridge,MA,01550
St Vincient de Paul - St Peter's Church,929 Main Street,Worcester,MA,01610
The Mustard Seed,93 Piedmont Street,Worcester,MA,01609
Southbridge Food Share,79 Elm Street,Southbridge,MA,01550
St Paul's Outreach,19 Chatham Street,Worcester,MA,01609
Easton Food Pantry,136 Elm Street North,Easton,MA,02356
Brockton Assembly of God,199 Warren Avenue,Brockton,MA,02301
"The Charity Guild, Inc.",501 Main Street,Brockton,MA,02301
St Vincient de Paul - St Colman's Food Pantry,54 Lyman Street,Brockton,MA,02302
Avon Baptist Church,119 N Main Street,Avon,MA,02322
Brookville's Basket,871 South Franklin Street,Holbrook,MA,02343
Holbrook Ecumenical Food Pantry,322 South Franklin Street,Holbrook,MA,02343
"Friendly Food Pantry of Randolph, Inc.",1 Donald S McNeil Way,Randolph,MA,02368
Destiny Molders Church,247 North Main Street at One Credit Union Way / 2nd floor,Randolph,MA,02368
St Vincent de Paul/Taunton,141 Washington Street,Taunton,MA,02780
"Community Harvest Project, Inc.",37 Wheeler Rd North,Grafton,MA,01536
Worcester County Food Bank Inc,474 Boston Turnpike Road,Shrewsbury,MA,01545
St Anne's Human Services,130 Boston Turnpike,Shrewsbury,MA,01545
Westborough Food Pantry - Forbes Community House,9 East Main Street,Westborough,MA,01581
South Worcester Neighborhood Center.- Green Island Neighborhood Center,50 Canton Street,Worcester,MA,01610
St Vincient de Paul - Sacred Heart Church,596 Cambridge Street,Worcester,MA,01610
Worcester Community Action Council Inc,484 Main St,Worchester,MA,01608
St Paul's Outreach,19 Chatham Street,Worcester,MA,01609
The Mustard Seed,93 Piedmont Street,Worcester,MA,01609
St Vincient de Paul - St Peter's Church,929 Main Street,Worcester,MA,01610
Orange Food Pantry,118 E Main Street,Orange,MA,01364
Winchendon Community Action Council,273 Central Street,Winchendon,MA,01475
Amherst Survival Center Food Pantry,138 Sunderland Road,Amherst,MA,01059
Northeast Food System Partnership,288 Hadley Road,Sunderland,MA,01375
Compassion Food Pantry,48 Stratton Road,Jaffrey,NH,03452
Community Bible Chapel,107 Atwood Street,Brattleboro,VT,05301
Agape Christian Fellowship,30 Canal Street,Brattleboro,VT,05301
Tri-Parish Community Church Food Pantry,179 Main Street,Gilbertville,MA,01031
The Food Bank of Western Massachusetts,97 N. Hatfield,Road,PO,x 160
Helping Hands Cupboard Food Pantry,18 Park Street,Belchertown,MA,01007
Cape Cod Vegetarians Inc,Mailing address-PO Box 92,Oreans,MA,02653
Webster-Dudley Food Share ,4 Church Street,Webster,MA,01570
Auburn Youth & Family Services,21 Pheasant Ct,Auburn,MA,01501
St Denis Church,23 Manchaug Street,Douglas,MA,01516
St Vincient de Paul - Sacred Heart Church,596 Cambridge Street,Worcester,MA,01610
South Worcester Neighborhood Center. - Lakeside Center,28 Lakeside Ave.,Worcester,MA,01603
St Vincient de Paul - St Peter's Church,929 Main Street,Worcester,MA,01610
South Worcester Neighborhood Center.- Green Island Neighborhood Center,50 Canton Street,Worcester,MA,01610
South Central WIC Program,29 Pine St.,Southbridge,MA,01550
Southbridge Food Share,79 Elm Street,Southbridge,MA,01550
The Mustard Seed,93 Piedmont Street,Worcester,MA,01609
St Vincient de Paul/St John the Baptist,17 Chestnut Street,Peabody,MA,01960
Salvation Army/Salem Pantry,93 North Street,Salem,MA,01970
St Joseph's Food Pantry/Salem,15 Hawthorne Blvd,Salem,MA,01970
Beverly Outreach Worker,371 Cabot St,Beverly,MA,01915
Wakefield Interfaith Food Pantry,467 Main Street,Wakefield,MA,01880
Bread of Life - Everett Food Pantry,117 Edith St. Suite 209,Everett,MA,02149
Malden YMCA Food Market,99 Dartmouth Street,Malden,MA,02148
Bread of Life Food Distribution,54 Eastern Avenue,Malden,MA,02148
Bread of Life Food Pantry,109 Madison St,Malden,MA,02148
Woburn Council of Social Concern,2 Merrimac Street,Woburn,MA,01801
Pembroke Food Pantry,Center St Pembroke,Center,MA,02359
St Vincient de Paul - St Raphael's Food Pantry,514 High Street West,Medford,MA,02155
Townsend Ecumenical Outreach,82 Bayberry Hill Rd.,Townsend,MA,01469
Townsend Ecumenical Outreach,82 Bayberry Hill Road,Townsend,MA,01474
Highland Baptist Church Food Pantry,19 Cedar St,Fitchburg,MA,01420
St Vincient de Paul - St Leo's Church,108 Main Street,Leominster,MA,01453
United Neighbors of Fitchburg,18 Fairmount Street,Fitchburg,MA,01420
Catholic Charities North County,196 Mechanic St,Leominster,MA,01453
"Merrimack Valley Food Bank, Inc.",735 Broadway St,Lowell,MA,01854
St James United Methodist Church Food Pantry,646 Daniel Webster Highway,Merrimack,NH,03054
WHEAT Community Services,500 Main Street,Clinton,MA,01510
SSCAC/ Emergency Assistance Food Program,71 Obery Street,Plymouth,MA,02360
Salvation Army Plymouth - FoodPantry,52 Long Pond Rd,Plymouth,MA,02360
St Vincient de Paul/Our Lady of the Lake,580 Monponsett Street,Halifax,MA,02338
Pembroke Food Pantry,Center St Pembroke,Center,MA,02359
St Vincient de Paul/Food Pantry of Wareham,82 High Street,Wareham,MA,02571
Scituate Food Pantry,344 Country Way North,Scituate,RI,02857
The Shepherd's Pantry,1215 N Main Street,Acushnet,MA,02743
St Vincient de Paul/Sandwich,324 Quaker Meeting House Road East,Sandwich,MA,02537
"Sandwich Food Pantry, Inc",331 Cotuit Rd.,Sandwich,MA,02563
St Vincient de Paul - St Colman's Food Pantry,54 Lyman Street,Brockton,MA,02302
Salvation Army/Quincy Food Pantry,6 Baxter Street,Quincy,MA,02169
YMCA/Germantown Neighborhood Food Pantry,33 Palmer Street,Quincy,MA,02169
Braintree Community Food Pantry,14 Storrs Avenue,Braintree,MA,02184
Marge Crispin Center,46 Lincoln Street,Braintree,MA,02184
Zion Temple Church Food Pantry,79 Stanton Street,Dorchester,MA,02124
St Matthew's Church Food Pantry,33 Stanton Street,Dorchester,MA,02124
Temple Salem SDA Church,222 Woodrow Ave,Dorchester,MA,02124
St Mary's Food Pantry,14 Cushing Ave,Dorchester,MA,02125
Weymouth Council for the Hungry,1189 Commercial Street,Weymouth,MA,02189
St Augustine's - St Monica Catholic Church Food Pantry,331 Old Colony Ave. South,Boston,MA,02127
Destiny Molders Church,247 North Main Street at One Credit Union Way / 2nd floor,Randolph,MA,02368
"Friendly Food Pantry of Randolph, Inc.",1 Donald S McNeil Way,Randolph,MA,02368
Avon Baptist Church,119 N Main Street,Avon,MA,02322
Holbrook Ecumenical Food Pantry,322 South Franklin Street,Holbrook,MA,02343
Brookville's Basket,871 South Franklin Street,Holbrook,MA,02343
Braintree Community Food Pantry,14 Storrs Avenue,Braintree,MA,02184
Marge Crispin Center,46 Lincoln Street,Braintree,MA,02184
Salvation Army/Quincy Food Pantry,6 Baxter Street,Quincy,MA,02169
Brockton Assembly of God,199 Warren Avenue,Brockton,MA,02301
St Vincient de Paul - St Colman's Food Pantry,54 Lyman Street,Brockton,MA,02302
St Vincent de Paul/Taunton,141 Washington Street,Taunton,MA,02780
Easton Food Pantry,136 Elm Street North,Easton,MA,02356
"The Charity Guild, Inc.",501 Main Street,Brockton,MA,02301
Brockton Assembly of God,199 Warren Avenue,Brockton,MA,02301
St Vincient de Paul - St Colman's Food Pantry,54 Lyman Street,Brockton,MA,02302
Self Help Attleboro,95 Pine Street Suite #6,Attleboro,MA,02703
St Vicent De Paul,71 Linden Street,Attleboro,MA,02703
St Vincient de Paul/Our Lady of the Lake,580 Monponsett Street,Halifax,MA,02338
Brookville's Basket,871 South Franklin Street,Holbrook,MA,02343
Avon Baptist Church,119 N Main Street,Avon,MA,02322
St. Katharine Drexel Parish,175 Ruggles St.,Roxbury,MA,02120
Twelfth Baptist Church Food Pantry,160 Warren St.,Roxbury,MA,02119
United Emmanuel Holiness Church,65 Windsor St.,Roxbury,MA,02119
Salvation Army/Roxbury Food Pantry,23 Vernon Street,Roxbury,MA,02119
People's Baptist Church Food Pantry,134 Camden Street,Roxbury,MA,02118
ABCD Parker Hill/Fenway Pantry,714 Parker Street,Roxbury,MA,02120
ABCD Roxbury/North Dorchester Pantry,565 Warren Street,Roxbury,MA,02121
Rachel's Table,633 Salisbury Street,Worcester,MA,01609
West Boylston Food Pantry - First Congregational Church,26 Central Street West,Boylston,MA,01583
St Joseph's Food Pantry,296 N. Main Street North,Brookfield,MA,01535
Wachusett Food Pantry,50 Worcester Road,Sterling,MA,01564
South Worcester Neighborhood Center. - Lakeside Center,28 Lakeside Ave.,Worcester,MA,01603
The Mustard Seed,93 Piedmont Street,Worcester,MA,01609
St Paul's Outreach,19 Chatham Street,Worcester,MA,01609
Worcester Community Action Council Inc,484 Main St,Worchester,MA,01608
St Vincient de Paul - St Peter's Church,929 Main Street,Worcester,MA,01610
South Worcester Neighborhood Center.- Green Island Neighborhood Center,50 Canton Street,Worcester,MA,01610
St Joseph's Food Pantry/Salem,15 Hawthorne Blvd,Salem,MA,01970
Salvation Army/Salem Pantry,93 North Street,Salem,MA,01970
St Vincient de Paul/St John the Baptist,17 Chestnut Street,Peabody,MA,01960
Beverly Outreach Worker,371 Cabot St,Beverly,MA,01915
Wakefield Interfaith Food Pantry,467 Main Street,Wakefield,MA,01880
Bread of Life - Everett Food Pantry,117 Edith St. Suite 209,Everett,MA,02149
Malden YMCA Food Market,99 Dartmouth Street,Malden,MA,02148
Winthrop Community Food Pantry,222 Bowdoin Street,Winthrop,MA,02152
Bread of Life Food Distribution,54 Eastern Avenue,Malden,MA,02148
Bread of Life Food Pantry,109 Madison St,Malden,MA,02148
St Vincient de Paul/Sandwich,324 Quaker Meeting House Road East,Sandwich,MA,02537
"Sandwich Food Pantry, Inc",331 Cotuit Rd.,Sandwich,MA,02563
St Vincient de Paul/Christ the King,Rt 151 and Jobs FIshing Rd,Mashpee,MA,02649
St Vincient de Paul/Food Pantry of Wareham,82 High Street,Wareham,MA,02571
CORD,106 Bassett Lane,Hyannis,MA,02601
St Vincent de Paul - St Francis Xavier,21 Cross Street,Hyannis,MA,02601
Salvation Army Plymouth - FoodPantry,52 Long Pond Rd,Plymouth,MA,02360
SSCAC/ Emergency Assistance Food Program,71 Obery Street,Plymouth,MA,02360
St Vincient de Paul/Our Lady of Cape Church,468 Stony Brook Road,Brewster,MA,02631
St Vincient de Paul/Our Lady of the Lake,580 Monponsett Street,Halifax,MA,02338
East Bay Baptist Church Provision Pantry,10 James Street East,Providence,RI,02914
Bread of Life Food Pantry,100 Newman Avenue,Rumford,RI,02916
East Bay Community Action Program Pantry,100 Bullocks Point Avenue,Riverside,RI,02915
Good Neighbors Pantry,55 Turner Avenue East,Providence,RI,02915
Rhode Island Diaper Bank,24 East St,Providence,RI,02906
Our Lady of the Rosary Pantry,17 Traverse Street,Providence,RI,02903
Project Outreach,1520 Broad Street,Providence,RI,02905
Ephese SDA Church,857 Eddy Street,Providence,RI,02905
Community Food Share First Unitarian Church,1 Benevolent Street,Providence,RI,02906
Worcester County Food Bank Inc,474 Boston Turnpike Road,Shrewsbury,MA,01545
St Anne's Human Services,130 Boston Turnpike,Shrewsbury,MA,01545
Worcester Community Action Council Inc,484 Main St,Worchester,MA,01608
St Paul's Outreach,19 Chatham Street,Worcester,MA,01609
"Community Harvest Project, Inc.",37 Wheeler Rd North,Grafton,MA,01536
Westborough Food Pantry - Forbes Community House,9 East Main Street,Westborough,MA,01581
South Worcester Neighborhood Center.- Green Island Neighborhood Center,50 Canton Street,Worcester,MA,01610
The Mustard Seed,93 Piedmont Street,Worcester,MA,01609
West Boylston Food Pantry - First Congregational Church,26 Central Street West,Boylston,MA,01583
St Vincient de Paul - Sacred Heart Church,596 Cambridge Street,Worcester,MA,01610
Annelle Delorme Hagerman Food Pantry,2112 County Street,Somerset,MA,02726
Bethany Gospel Chapel,62 Lindsay Lane,Swansea,MA,02777
Veteran's Assoc. of Bristol County,755 Pine Street Fall,River,MA,02720
St Anne's Parish Food Pantry,818 Middle Street Fall,River,MA,02721
"Feed My Sheep Food Pantry - Fall River, MA",65 Middle St Fall,River,MA,02720
Gates Of Hope,112 Flint Street Fall,River,MA,02723
St Mary of the Bay Food Pantry - Warren,645 Main Street,Warren,RI,02885
East Bay Community Action Program Tiverton Pantry,1048 Stafford Road,Tiverton,RI,02878
Tap-In Barrington Food Pantry,281 County Road,Barrington,RI,02806
East Bay Food Pantry,532 Wood St,Bristol,RI,02809
Food 4 All-sha4cd,59 cross st Somerville,,MA,02145
St James Episcopal - Helping Hand Pantry,1991 Massachusetts Ave,Cambridge,MA,02140
Mystic Community Market,291 Mystic Avenue,Medford,MA,02155
Somerville Homeless Coalition Main Food Pantry - Saint Benedict's Church (rear basement),15 Franklin Street East,Somerville,MA,02145
Cambridge Seniors Center Food Pantry,806 Massachusetts Ave.,Cambridge,MA,02139
St Paul's AME Church Pantry,85 Bishop Allen Drive,Cambridge,MA,02139
Unitarian Universalist Church Pantry,147 High Street,Medford,MA,02155
The Harvest on Vine,49 Vine Street,Charlestown,MA,02129
Bread of Life Food Pantry,109 Madison St,Malden,MA,02148
Belmont Church of God Food Pantry,25 Marlboro Street,Belmont,MA,02478
St Vincient de Paul/St Theresa,18 Baltic Street South,Attleboro,MA,02703
South Attleboro Assembly of God,1052 Newport Avenue South,Attleboro,MA,02703
St Augustine's - St Monica Catholic Church Food Pantry,331 Old Colony Ave. South,Boston,MA,02127
"Community Harvest Project, Inc.",37 Wheeler Rd North,Grafton,MA,01536
St Denis Church,23 Manchaug Street,Douglas,MA,01516
St Anne's Human Services,130 Boston Turnpike,Shrewsbury,MA,01545
Worcester County Food Bank Inc,474 Boston Turnpike Road,Shrewsbury,MA,01545
St Vincient de Paul - Sacred Heart Church,596 Cambridge Street,Worcester,MA,01610
South Worcester Neighborhood Center.- Green Island Neighborhood Center,50 Canton Street,Worcester,MA,01610
Auburn Youth & Family Services,21 Pheasant Ct,Auburn,MA,01501
Westborough Food Pantry - Forbes Community House,9 East Main Street,Westborough,MA,01581
Worcester Community Action Council Inc,484 Main St,Worchester,MA,01608
St Paul's Outreach,19 Chatham Street,Worcester,MA,01609
Southborough Food Pantry,15 Common Street,Southborough,MA,01772
Ashland Food Pantry,162 W Union Street,Ashland,MA,01721
St Bridget's Food Pantry,830 Worcester,Rd,Ro, 9 Fr
Westborough Food Pantry - Forbes Community House,9 East Main Street,Westborough,MA,01581
A Place to Turn,99 Hartford Street,Natick,MA,01760
A Place To Turn,99 Hartford Street,Natick,MA,01760
Sudbury Community Food Pantry,160 Concord Rd,Sudbury,MA,01776
Natick Service Council,11 Pond St.,Natick,MA,01760
"Community Harvest Project, Inc.",37 Wheeler Rd North,Grafton,MA,01536
WHEAT Community Services,500 Main Street,Clinton,MA,01510
South Central WIC Program,29 Pine St.,Southbridge,MA,01550
Southbridge Food Share,79 Elm Street,Southbridge,MA,01550
Webster-Dudley Food Share ,4 Church Street,Webster,MA,01570
St Joseph's Food Pantry,296 N. Main Street North,Brookfield,MA,01535
Auburn Youth & Family Services,21 Pheasant Ct,Auburn,MA,01501
South Worcester Neighborhood Center. - Lakeside Center,28 Lakeside Ave.,Worcester,MA,01603
Ashford Food Bank Inc,25 Pompey Hollow Rd,Ashford,CT,06278
St Vincient de Paul - St Peter's Church,929 Main Street,Worcester,MA,01610
St Denis Church,23 Manchaug Street,Douglas,MA,01516
St Vincient de Paul - Sacred Heart Church,596 Cambridge Street,Worcester,MA,01610
Our Community Pantry,220 College Highway,Southwick,MA,01077
Valley Opportunity Council WIC - Westfield,77 Mill Street,Westfield,MA,01085
"Salvation Army - Westfield, MA",12 Arnold Street,Westfield,MA,01085
Westfield Emergency Food Pantry,101 Meadow Street Suite 1,Westfield,MA,01085
Bethany Food Pantry,580 Main Street,Agawam,MA,01001
Parish Cupboard,1023 Main Street West,Springfield,MA,01089
Open Pantry Emergency ,287 State Street,Springfield,MA,01101
"Martin Luther King, Jr. Family Services (MLK) Food Pantry",106 Wilbrahm Road,Springfield,MA,01109
Foodshare,450 Woodland Avenue,Bloomfield,CT,06002
Margaret's Pantry and Kate's Kitchen at Providence Ministries,56 Cabot Street,Holyoke,MA,01040
Open Pantry Emergency ,287 State Street,Springfield,MA,01101
Parish Cupboard,1023 Main Street West,Springfield,MA,01089
Community Survival Center,240 Main Street Indian,Orchard,MA,01151
Bethany Food Pantry,580 Main Street,Agawam,MA,01001
"Martin Luther King, Jr. Family Services (MLK) Food Pantry",106 Wilbrahm Road,Springfield,MA,01109
Margaret's Pantry and Kate's Kitchen at Providence Ministries,56 Cabot Street,Holyoke,MA,01040
Westfield Emergency Food Pantry,101 Meadow Street Suite 1,Westfield,MA,01085
"Salvation Army - Westfield, MA",12 Arnold Street,Westfield,MA,01085
Valley Opportunity Council WIC - Westfield,77 Mill Street,Westfield,MA,01085
Our Community Pantry,220 College Highway,Southwick,MA,01077
Wachusett Food Pantry,50 Worcester Road,Sterling,MA,01564
WHEAT Community Services,500 Main Street,Clinton,MA,01510
West Boylston Food Pantry - First Congregational Church,26 Central Street West,Boylston,MA,01583
Catholic Charities North County,196 Mechanic St,Leominster,MA,01453
St Vincient de Paul - St Leo's Church,108 Main Street,Leominster,MA,01453
United Neighbors of Fitchburg,18 Fairmount Street,Fitchburg,MA,01420
Highland Baptist Church Food Pantry,19 Cedar St,Fitchburg,MA,01420
Rachel's Table,633 Salisbury Street,Worcester,MA,01609
Worcester County Food Bank Inc,474 Boston Turnpike Road,Shrewsbury,MA,01545
St Anne's Human Services,130 Boston Turnpike,Shrewsbury,MA,01545
Sudbury Community Food Pantry,160 Concord Rd,Sudbury,MA,01776
St Bridget's Food Pantry,830 Worcester,Rd,Ro, 9 Fr
A Place To Turn,99 Hartford Street,Natick,MA,01760
A Place to Turn,99 Hartford Street,Natick,MA,01760
Natick Service Council,11 Pond St.,Natick,MA,01760
Southborough Food Pantry,15 Common Street,Southborough,MA,01772
Ashland Food Pantry,162 W Union Street,Ashland,MA,01721
 Waltham Fields Community Farm,240 Beaver Street,Waltham,MA,02452
St Vincient de Paul/St Patrick's Food Pantry-Watertown,25 Chestnut St,Watertown,MA,02472
Westborough Food Pantry - Forbes Community House,9 East Main Street,Westborough,MA,01581
Northeast Food System Partnership,288 Hadley Road,Sunderland,MA,01375
Amherst Survival Center Food Pantry,138 Sunderland Road,Amherst,MA,01059
The Food Bank of Western Massachusetts,97 N. Hatfield,Road,PO,x 160
Helping Hands Cupboard Food Pantry,18 Park Street,Belchertown,MA,01007
Orange Food Pantry,118 E Main Street,Orange,MA,01364
Margaret's Pantry and Kate's Kitchen at Providence Ministries,56 Cabot Street,Holyoke,MA,01040
"Martin Luther King, Jr. Family Services (MLK) Food Pantry",106 Wilbrahm Road,Springfield,MA,01109
Tri-Parish Community Church Food Pantry,179 Main Street,Gilbertville,MA,01031
Community Survival Center,240 Main Street Indian,Orchard,MA,01151
Huntington Food Pantry - Pioneer Valley Assembly of God,63 Old Chester Road,Huntington,MA,01050
Bethany Gospel Chapel,62 Lindsay Lane,Swansea,MA,02777
Annelle Delorme Hagerman Food Pantry,2112 County Street,Somerset,MA,02726
St Mary of the Bay Food Pantry - Warren,645 Main Street,Warren,RI,02885
"Feed My Sheep Food Pantry - Fall River, MA",65 Middle St Fall,River,MA,02720
Tap-In Barrington Food Pantry,281 County Road,Barrington,RI,02806
St Anne's Parish Food Pantry,818 Middle Street Fall,River,MA,02721
Veteran's Assoc. of Bristol County,755 Pine Street Fall,River,MA,02720
Gates Of Hope,112 Flint Street Fall,River,MA,02723
East Bay Food Pantry,532 Wood St,Bristol,RI,02809
East Bay Food Pantry,532 Wood Street,Bristol,RI,02809
St Vincent de Paul/Taunton,141 Washington Street,Taunton,MA,02780
Annelle Delorme Hagerman Food Pantry,2112 County Street,Somerset,MA,02726
Self Help Attleboro,95 Pine Street Suite #6,Attleboro,MA,02703
St Vicent De Paul,71 Linden Street,Attleboro,MA,02703
Easton Food Pantry,136 Elm Street North,Easton,MA,02356
Seekonk Portuguese SDA Church,781 Newman Avenue,Seekonk,MA,02771
"The Charity Guild, Inc.",501 Main Street,Brockton,MA,02301
Bethany Gospel Chapel,62 Lindsay Lane,Swansea,MA,02777
Brockton Assembly of God,199 Warren Avenue,Brockton,MA,02301
St Vincient de Paul - St Colman's Food Pantry,54 Lyman Street,Brockton,MA,02302
Townsend Ecumenical Outreach,82 Bayberry Hill Rd.,Townsend,MA,01469
Townsend Ecumenical Outreach,82 Bayberry Hill Road,Townsend,MA,01474
Highland Baptist Church Food Pantry,19 Cedar St,Fitchburg,MA,01420
United Neighbors of Fitchburg,18 Fairmount Street,Fitchburg,MA,01420
St Vincient de Paul - St Leo's Church,108 Main Street,Leominster,MA,01453
Catholic Charities North County,196 Mechanic St,Leominster,MA,01453
St Vincient de Paul - St Raphael's Food Pantry,514 High Street West,Medford,MA,02155
Winchendon Community Action Council,273 Central Street,Winchendon,MA,01475
WHEAT Community Services,500 Main Street,Clinton,MA,01510
Wachusett Food Pantry,50 Worcester Road,Sterling,MA,01564
St Denis Church,23 Manchaug Street,Douglas,MA,01516
St Theresas Church Food Pantry,35 Dion Drive,Harrisville,RI,02830
Blackstone-Millville Food Pantry,48 St. Paul Street,Blackstone,MA,01504
St Patricks Food Closet,45 Harrisville Main St,Harrisville,RI,02830
Connecting for Children and Families,37 Center Street,Woonsocket,RI,02895
SVDP Bryan's Pantry,190 North Main Street,Woonsocket,RI,02895
All Saints Church Pantry,323 Rathbun St,Woonsocket,RI,02895
St James Episcopal Church,24 Hamlet Avenue,Woonsocket,RI,02895
Our Lady Queen of Martyrs,1409 Park Avenue,Woonsocket,RI,02895
St Agatha's Church,34 Joffre Avenue,Woonsocket,RI,02895
Wakefield Interfaith Food Pantry,467 Main Street,Wakefield,MA,01880
Anchor Baptist Church Pantry,29A Montvale Avenue,Woburn,MA,01801
Woburn Council of Social Concern,2 Merrimac Street,Woburn,MA,01801
Malden YMCA Food Market,99 Dartmouth Street,Malden,MA,02148
Bread of Life Food Distribution,54 Eastern Avenue,Malden,MA,02148
Bread of Life Food Pantry,109 Madison St,Malden,MA,02148
Bread of Life - Everett Food Pantry,117 Edith St. Suite 209,Everett,MA,02149
Unitarian Universalist Church Pantry,147 High Street,Medford,MA,02155
Mystic Community Market,291 Mystic Avenue,Medford,MA,02155
Burlington Food Pantry,10 St. Marks Road,Burlington,MA,01803
 Waltham Fields Community Farm,240 Beaver Street,Waltham,MA,02452
St Vincient de Paul/St Patrick's Food Pantry-Watertown,25 Chestnut St,Watertown,MA,02472
ABCD Allston/Brighton Pantry,640 Washington Street Suite #203,Brighton,MA,02135
Belmont Church of God Food Pantry,25 Marlboro Street,Belmont,MA,02478
Allston-Brighton Food Pantry,404 Washington Street,Brighton,MA,02135
Arlington Food Pantry,74 Pleasant Street,Arlington,MA,02476
St James Episcopal - Helping Hand Pantry,1991 Massachusetts Ave,Cambridge,MA,02140
Brookline Emergency Food Pantry,210 Harvard Street,Brookline,MA,02446
Cambridge Seniors Center Food Pantry,806 Massachusetts Ave.,Cambridge,MA,02139
Unitarian Universalist Church Pantry,147 High Street,Medford,MA,02155
St Vincient de Paul/Food Pantry of Wareham,82 High Street,Wareham,MA,02571
Salvation Army Plymouth - FoodPantry,52 Long Pond Rd,Plymouth,MA,02360
The Shepherd's Pantry,1215 N Main Street,Acushnet,MA,02743
SSCAC/ Emergency Assistance Food Program,71 Obery Street,Plymouth,MA,02360
"Sandwich Food Pantry, Inc",331 Cotuit Rd.,Sandwich,MA,02563
St Vincient de Paul/Sandwich,324 Quaker Meeting House Road East,Sandwich,MA,02537
St Anthony of Padua Food Pantry,1359 Acushnet Avenue New,Bedford,MA,02746
St Vincient de Paul/Christ the King,Rt 151 and Jobs FIshing Rd,Mashpee,MA,02649
St Martin's Food and Pet Pantry,136 Rivet Street New,Bedford,MA,02744
St Vincient de Paul/Our Lady of the Lake,580 Monponsett Street,Halifax,MA,02338
St Vincient de Paul/St Patrick's Food Pantry-Watertown,25 Chestnut St,Watertown,MA,02472
Belmont Church of God Food Pantry,25 Marlboro Street,Belmont,MA,02478
ABCD Allston/Brighton Pantry,640 Washington Street Suite #203,Brighton,MA,02135
 Waltham Fields Community Farm,240 Beaver Street,Waltham,MA,02452
Allston-Brighton Food Pantry,404 Washington Street,Brighton,MA,02135
Arlington Food Pantry,74 Pleasant Street,Arlington,MA,02476
St James Episcopal - Helping Hand Pantry,1991 Massachusetts Ave,Cambridge,MA,02140
Brookline Emergency Food Pantry,210 Harvard Street,Brookline,MA,02446
Cambridge Seniors Center Food Pantry,806 Massachusetts Ave.,Cambridge,MA,02139
St Paul's AME Church Pantry,85 Bishop Allen Drive,Cambridge,MA,02139
Webster-Dudley Food Share ,4 Church Street,Webster,MA,01570
St Denis Church,23 Manchaug Street,Douglas,MA,01516
Southbridge Food Share,79 Elm Street,Southbridge,MA,01550
South Central WIC Program,29 Pine St.,Southbridge,MA,01550
St Patricks Food Closet,45 Harrisville Main St,Harrisville,RI,02830
Auburn Youth & Family Services,21 Pheasant Ct,Auburn,MA,01501
St Theresas Church Food Pantry,35 Dion Drive,Harrisville,RI,02830
"Community Harvest Project, Inc.",37 Wheeler Rd North,Grafton,MA,01536
St Vincient de Paul - Sacred Heart Church,596 Cambridge Street,Worcester,MA,01610
South Worcester Neighborhood Center. - Lakeside Center,28 Lakeside Ave.,Worcester,MA,01603
West Boylston Food Pantry - First Congregational Church,26 Central Street West,Boylston,MA,01583
Wachusett Food Pantry,50 Worcester Road,Sterling,MA,01564
WHEAT Community Services,500 Main Street,Clinton,MA,01510
Rachel's Table,633 Salisbury Street,Worcester,MA,01609
Worcester County Food Bank Inc,474 Boston Turnpike Road,Shrewsbury,MA,01545
St Anne's Human Services,130 Boston Turnpike,Shrewsbury,MA,01545
Worcester Community Action Council Inc,484 Main St,Worchester,MA,01608
St Paul's Outreach,19 Chatham Street,Worcester,MA,01609
The Mustard Seed,93 Piedmont Street,Worcester,MA,01609
South Worcester Neighborhood Center.- Green Island Neighborhood Center,50 Canton Street,Worcester,MA,01610
Unitarian Universalist Church Pantry,147 High Street,Medford,MA,02155
Arlington Food Pantry,74 Pleasant Street,Arlington,MA,02476
Mystic Community Market,291 Mystic Avenue,Medford,MA,02155
St James Episcopal - Helping Hand Pantry,1991 Massachusetts Ave,Cambridge,MA,02140
Bread of Life Food Pantry,109 Madison St,Malden,MA,02148
Malden YMCA Food Market,99 Dartmouth Street,Malden,MA,02148
Bread of Life Food Distribution,54 Eastern Avenue,Malden,MA,02148
Anchor Baptist Church Pantry,29A Montvale Avenue,Woburn,MA,01801
Food 4 All-sha4cd,59 cross st Somerville,,MA,02145
Somerville Homeless Coalition Main Food Pantry - Saint Benedict's Church (rear basement),15 Franklin Street East,Somerville,MA,02145
Parish Cupboard,1023 Main Street West,Springfield,MA,01089
Bethany Food Pantry,580 Main Street,Agawam,MA,01001
Open Pantry Emergency ,287 State Street,Springfield,MA,01101
"Martin Luther King, Jr. Family Services (MLK) Food Pantry",106 Wilbrahm Road,Springfield,MA,01109
Westfield Emergency Food Pantry,101 Meadow Street Suite 1,Westfield,MA,01085
"Salvation Army - Westfield, MA",12 Arnold Street,Westfield,MA,01085
Margaret's Pantry and Kate's Kitchen at Providence Ministries,56 Cabot Street,Holyoke,MA,01040
Valley Opportunity Council WIC - Westfield,77 Mill Street,Westfield,MA,01085
Community Survival Center,240 Main Street Indian,Orchard,MA,01151
Our Community Pantry,220 College Highway,Southwick,MA,01077
Westborough Food Pantry - Forbes Community House,9 East Main Street,Westborough,MA,01581
Southborough Food Pantry,15 Common Street,Southborough,MA,01772
"Community Harvest Project, Inc.",37 Wheeler Rd North,Grafton,MA,01536
Worcester County Food Bank Inc,474 Boston Turnpike Road,Shrewsbury,MA,01545
St Anne's Human Services,130 Boston Turnpike,Shrewsbury,MA,01545
Ashland Food Pantry,162 W Union Street,Ashland,MA,01721
Worcester Community Action Council Inc,484 Main St,Worchester,MA,01608
South Worcester Neighborhood Center.- Green Island Neighborhood Center,50 Canton Street,Worcester,MA,01610
St Paul's Outreach,19 Chatham Street,Worcester,MA,01609
St Bridget's Food Pantry,830 Worcester,Rd,Ro, 9 Fr
"Salvation Army - Westfield, MA",12 Arnold Street,Westfield,MA,01085
Westfield Emergency Food Pantry,101 Meadow Street Suite 1,Westfield,MA,01085
Valley Opportunity Council WIC - Westfield,77 Mill Street,Westfield,MA,01085
Our Community Pantry,220 College Highway,Southwick,MA,01077
"Martin Luther King, Jr. Family Services (MLK) Food Pantry",106 Wilbrahm Road,Springfield,MA,01109
Parish Cupboard,1023 Main Street West,Springfield,MA,01089
Bethany Food Pantry,580 Main Street,Agawam,MA,01001
Margaret's Pantry and Kate's Kitchen at Providence Ministries,56 Cabot Street,Holyoke,MA,01040
Open Pantry Emergency ,287 State Street,Springfield,MA,01101
Huntington Food Pantry - Pioneer Valley Assembly of God,63 Old Chester Road,Huntington,MA,01050
Westport Food Pantry,400 Old County Road,Westport,MA,02790
East Bay Community Action Program Tiverton Pantry,1048 Stafford Road,Tiverton,RI,02878
Gates Of Hope,112 Flint Street Fall,River,MA,02723
St Anthony of Padua Food Pantry,1359 Acushnet Avenue New,Bedford,MA,02746
Veteran's Assoc. of Bristol County,755 Pine Street Fall,River,MA,02720
St Martin's Food and Pet Pantry,136 Rivet Street New,Bedford,MA,02744
St Anne's Parish Food Pantry,818 Middle Street Fall,River,MA,02721
St Josephs Church Food Pantry,5 Mann St,Newport,RI,02840
"Feed My Sheep Food Pantry - Fall River, MA",65 Middle St Fall,River,MA,02720
Annelle Delorme Hagerman Food Pantry,2112 County Street,Somerset,MA,02726
Westwood Council on Aging,60 Nahatan St.,Westwood,MA,02090
Temple Salem SDA Church,222 Woodrow Ave,Dorchester,MA,02124
St Matthew's Church Food Pantry,33 Stanton Street,Dorchester,MA,02124
Zion Temple Church Food Pantry,79 Stanton Street,Dorchester,MA,02124
Natick Service Council,11 Pond St.,Natick,MA,01760
Berea Church Pantry,108 Seaver Street,Dorchester,MA,02121
ABCD Roxbury/North Dorchester Pantry,565 Warren Street,Roxbury,MA,02121
Destiny Molders Church,247 North Main Street at One Credit Union Way / 2nd floor,Randolph,MA,02368
ABCD Allston/Brighton Pantry,640 Washington Street Suite #203,Brighton,MA,02135
"Friendly Food Pantry of Randolph, Inc.",1 Donald S McNeil Way,Randolph,MA,02368
Weymouth Council for the Hungry,1189 Commercial Street,Weymouth,MA,02189
Marge Crispin Center,46 Lincoln Street,Braintree,MA,02184
Braintree Community Food Pantry,14 Storrs Avenue,Braintree,MA,02184
Salvation Army/Quincy Food Pantry,6 Baxter Street,Quincy,MA,02169
YMCA/Germantown Neighborhood Food Pantry,33 Palmer Street,Quincy,MA,02169
Holbrook Ecumenical Food Pantry,322 South Franklin Street,Holbrook,MA,02343
Destiny Molders Church,247 North Main Street at One Credit Union Way / 2nd floor,Randolph,MA,02368
"Friendly Food Pantry of Randolph, Inc.",1 Donald S McNeil Way,Randolph,MA,02368
Brookville's Basket,871 South Franklin Street,Holbrook,MA,02343
Avon Baptist Church,119 N Main Street,Avon,MA,02322
Winchendon Community Action Council,273 Central Street,Winchendon,MA,01475
Compassion Food Pantry,48 Stratton Road,Jaffrey,NH,03452
United Neighbors of Fitchburg,18 Fairmount Street,Fitchburg,MA,01420
Orange Food Pantry,118 E Main Street,Orange,MA,01364
Highland Baptist Church Food Pantry,19 Cedar St,Fitchburg,MA,01420
Monadnock Area Food Bank,49 Concord St All Saints Parish,Peterborough,NH,03458
Townsend Ecumenical Outreach,82 Bayberry Hill Road,Townsend,MA,01474
Townsend Ecumenical Outreach,82 Bayberry Hill Rd.,Townsend,MA,01469
St Vincient de Paul - St Leo's Church,108 Main Street,Leominster,MA,01453
Catholic Charities North County,196 Mechanic St,Leominster,MA,01453
Winthrop Community Food Pantry,222 Bowdoin Street,Winthrop,MA,02152
Project Bread - The Walk For Hunger of Massachusetts,145 Border St,Boston,MA,02128
Crossroads Family Shelter,56 Havre Street East,Boston,MA,02128
ABCD North End Pantry,1 Michelangelo Street,Boston,MA,02113
The Harvest on Vine,49 Vine Street,Charlestown,MA,02129
Combined Jewish Philanthropies,126 High Street,Boston,MA,02110
Friends Of The Boston Public Market Inc,40 Court St,Boston,MA,02108
St Anthony Shrine/Franciscan Food Center,100 Arch Street,Boston,MA,02110
Boston Rescue Mission,39 Kingston St,Boston,MA,02111
The Paulist Center,5 Park Street,Boston,MA,02108
Anchor Baptist Church Pantry,29A Montvale Avenue,Woburn,MA,01801
Woburn Council of Social Concern,2 Merrimac Street,Woburn,MA,01801
Burlington Food Pantry,10 St. Marks Road,Burlington,MA,01803
Wakefield Interfaith Food Pantry,467 Main Street,Wakefield,MA,01880
Unitarian Universalist Church Pantry,147 High Street,Medford,MA,02155
Arlington Food Pantry,74 Pleasant Street,Arlington,MA,02476
Malden YMCA Food Market,99 Dartmouth Street,Malden,MA,02148
Bread of Life Food Pantry,109 Madison St,Malden,MA,02148
Bread of Life Food Distribution,54 Eastern Avenue,Malden,MA,02148
Mystic Community Market,291 Mystic Avenue,Medford,MA,02155
Rachel's Table,633 Salisbury Street,Worcester,MA,01609
The Mustard Seed,93 Piedmont Street,Worcester,MA,01609
St Vincient de Paul - Sacred Heart Church,596 Cambridge Street,Worcester,MA,01610
St Vincient de Paul - St Peter's Church,929 Main Street,Worcester,MA,01610
St Paul's Outreach,19 Chatham Street,Worcester,MA,01609
South Worcester Neighborhood Center. - Lakeside Center,28 Lakeside Ave.,Worcester,MA,01603
South Worcester Neighborhood Center.- Green Island Neighborhood Center,50 Canton Street,Worcester,MA,01610
Salvation Army - Citadel,640 Main Street,Worcester,MA,01608
Quinsigamond Village Neighborhood Center.,16 Greenwood Street,Worcester,MA,01607
Pernet Family Health Service,237 Millbury Street,Worcester,MA,01610
Worcester Community Action Council Inc,484 Main St,Worchester,MA,01608
Arlington Food Shelf,165 Old Mill Road,Arlington,VT,05250
Cambridge Loaves and Fishes Food Pantry,81 E Main Street,Cambridge,NY,12816
Cambridge Seniors Building Food Pantry,5 Park Pl,Cambridge,NY,12816
Cambridge Food Pantry - Cambridge United Presbyterian Church,59 S Park Street,Cambridge,NY,12816
Bible Baptist Church of Bennington,1425 Harwood Hill,Bennington,VT,05201
BROC Community Food Shelf- Bennington,332 Orchard Road,Bennington,VT,05201
Cossayuna Satellite Pantry,21 Bunker Hill Rd,Cossayuna,NY,12823
Comfort Food Community ,2530 Rte 40,Greenwich,NY,12834
Ascutney Union Church,5243 Route 5,Ascutney,VT,05030
Claremont Soup Kitchen & Food Pantry,51-53 Central Street,Claremont,NH,03743
First Congregational Church of Hartland,10 Station Road,Hartland,VT,05048
Black River Good Neighbor Services,37B Main Street,Ludlow,VT,05149
Chester-Andover Family Center,908 VT-103,Chester,VT,05143
"Grafton County Senior Citizens Council, Inc.",P.O. Box 433,Lebanon,NH,03766
Vermont Foodbank,33 Parker Road,Barre,VT,05641
Barre Baptist Fellowship,84 Summer Street,Barre,VT,05641
Christ Church of Montpelier,64 State Street,Montpelier,VT,05602
Community Emergency Relief Volunteers,31 Dog River Drive Northfield,Falls,VT,05663
Bradford Area Interchurch Council,172 North Main Street,Bradford,VT,05033
Bethel Area Food Shelf,129 Church Street,Bethel,VT,05032
BROC Community Food Shelf- Bennington,332 Orchard Road,Bennington,VT,05201
Bible Baptist Church of Bennington,1425 Harwood Hill,Bennington,VT,05201
Arlington Food Shelf,165 Old Mill Road,Arlington,VT,05250
Friendship Center Food Pantry of the Northern Berkshire Interfaith Action Initiative ,43 Eagle St North,Adams,MA,01247
Cambridge Food Pantry - Cambridge United Presbyterian Church,59 S Park Street,Cambridge,NY,12816
Cambridge Seniors Building Food Pantry,5 Park Pl,Cambridge,NY,12816
Cambridge Loaves and Fishes Food Pantry,81 E Main Street,Cambridge,NY,12816
Comfort Food Community ,2530 Rte 40,Greenwich,NY,12834
Cossayuna Satellite Pantry,21 Bunker Hill Rd,Cossayuna,NY,12823
Bethel Area Food Shelf,129 Church Street,Bethel,VT,05032
Rutland Community Cupboard,65 River St,Rutland,VT,05701
BROC Community Food Shelf  Rutland,45 Union Street,Rutland,VT,05701
First Congregational Church of Hartland,10 Station Road,Hartland,VT,05048
Community Emergency Relief Volunteers,31 Dog River Drive Northfield,Falls,VT,05663
Vermont Foodbank,33 Parker Road,Barre,VT,05641
Barre Baptist Fellowship,84 Summer Street,Barre,VT,05641
Ascutney Union Church,5243 Route 5,Ascutney,VT,05030
Bradford Area Interchurch Council,172 North Main Street,Bradford,VT,05033
Vermont Foodbank,33 Parker Road,Barre,VT,05641
Barre Baptist Fellowship,84 Summer Street,Barre,VT,05641
"Grafton County Senior Citizens Council, Inc.",P.O. Box 433,Lebanon,NH,03766
All Saints Church Food Pantry,35 School Street,Littleton,NH,03561
Brandon Area Emergency Food Shelf,74 Park Street,Brandon,VT,05733
BROC Community Food Shelf  Rutland,45 Union Street,Rutland,VT,05701
Rutland Community Cupboard,65 River St,Rutland,VT,05701
Addison Community Action - CVOEO,54 Creek Road Suite A,Middlebury,VT,05753
The Crown Point Health Center Food Pantry,2679 Main St. Crown,Point,NY,12928
Assembly of God Christian Center,1759 Route 7,Vergennes,VT,05491
Agape Christian Fellowship,30 Canal Street,Brattleboro,VT,05301
Community Bible Chapel,107 Atwood Street,Brattleboro,VT,05301
Orange Food Pantry,118 E Main Street,Orange,MA,01364
Chester-Andover Family Center,908 VT-103,Chester,VT,05143
Chittenden Emergency Food Shelf,228 North Winooski Ave,Burlington,VT,05401
Charlotte Food Shelf and Assistance,403 Church Hill Road,Charlotte,VT,05445
Champlain Islands United Methodist,12 Hyde Rd Grand,Isle,VT,05458
Assembly of God Christian Center,1759 Route 7,Vergennes,VT,05491
Cambridge Community Food Shelf,16 Church Street,Jeffersonville,VT,05464
Cvoeo Outreach Office - Grand Isle,5 Lemnah Drive Suite 5 St.,Albans,VT,05478
Charlotte Food Shelf and Assistance,403 Church Hill Road,Charlotte,VT,05445
Assembly of God Christian Center,1759 Route 7,Vergennes,VT,05491
Chittenden Emergency Food Shelf,228 North Winooski Ave,Burlington,VT,05401
Addison Community Action - CVOEO,54 Creek Road Suite A,Middlebury,VT,05753
The Crown Point Health Center Food Pantry,2679 Main St. Crown,Point,NY,12928
Cambridge Community Food Shelf,16 Church Street,Jeffersonville,VT,05464
Chester-Andover Family Center,908 VT-103,Chester,VT,05143
Black River Good Neighbor Services,37B Main Street,Ludlow,VT,05149
Ascutney Union Church,5243 Route 5,Ascutney,VT,05030
Claremont Soup Kitchen & Food Pantry,51-53 Central Street,Claremont,NH,03743
First Congregational Church of Hartland,10 Station Road,Hartland,VT,05048
Rutland Community Cupboard,65 River St,Rutland,VT,05701
BROC Community Food Shelf  Rutland,45 Union Street,Rutland,VT,05701
"Grafton County Senior Citizens Council, Inc.",P.O. Box 433,Lebanon,NH,03766
Champlain Islands United Methodist,12 Hyde Rd Grand,Isle,VT,05458
Cvoeo Outreach Office - Grand Isle,5 Lemnah Drive Suite 5 St.,Albans,VT,05478
Chittenden Emergency Food Shelf,228 North Winooski Ave,Burlington,VT,05401
First Congregational Church of Hartland,10 Station Road,Hartland,VT,05048
"Grafton County Senior Citizens Council, Inc.",P.O. Box 433,Lebanon,NH,03766
Ascutney Union Church,5243 Route 5,Ascutney,VT,05030
Claremont Soup Kitchen & Food Pantry,51-53 Central Street,Claremont,NH,03743
Black River Good Neighbor Services,37B Main Street,Ludlow,VT,05149
Bethel Area Food Shelf,129 Church Street,Bethel,VT,05032
Chester-Andover Family Center,908 VT-103,Chester,VT,05143
Cambridge Community Food Shelf,16 Church Street,Jeffersonville,VT,05464
Cvoeo Outreach Office - Grand Isle,5 Lemnah Drive Suite 5 St.,Albans,VT,05478
Black River Good Neighbor Services,37B Main Street,Ludlow,VT,05149
Chester-Andover Family Center,908 VT-103,Chester,VT,05143
Ascutney Union Church,5243 Route 5,Ascutney,VT,05030
Claremont Soup Kitchen & Food Pantry,51-53 Central Street,Claremont,NH,03743
First Congregational Church of Hartland,10 Station Road,Hartland,VT,05048
Rutland Community Cupboard,65 River St,Rutland,VT,05701
BROC Community Food Shelf  Rutland,45 Union Street,Rutland,VT,05701
Addison Community Action - CVOEO,54 Creek Road Suite A,Middlebury,VT,05753
The Crown Point Health Center Food Pantry,2679 Main St. Crown,Point,NY,12928
Assembly of God Christian Center,1759 Route 7,Vergennes,VT,05491
Brandon Area Emergency Food Shelf,74 Park Street,Brandon,VT,05733
Charlotte Food Shelf and Assistance,403 Church Hill Road,Charlotte,VT,05445
BROC Community Food Shelf  Rutland,45 Union Street,Rutland,VT,05701
Rutland Community Cupboard,65 River St,Rutland,VT,05701
Christ Church of Montpelier,64 State Street,Montpelier,VT,05602
Barre Baptist Fellowship,84 Summer Street,Barre,VT,05641
Vermont Foodbank,33 Parker Road,Barre,VT,05641
Community Emergency Relief Volunteers,31 Dog River Drive Northfield,Falls,VT,05663
Cambridge Community Food Shelf,16 Church Street,Jeffersonville,VT,05464
Community Emergency Relief Volunteers,31 Dog River Drive Northfield,Falls,VT,05663
Christ Church of Montpelier,64 State Street,Montpelier,VT,05602
Barre Baptist Fellowship,84 Summer Street,Barre,VT,05641
Vermont Foodbank,33 Parker Road,Barre,VT,05641
Bethel Area Food Shelf,129 Church Street,Bethel,VT,05032
BROC Community Food Shelf  Rutland,45 Union Street,Rutland,VT,05701
Rutland Community Cupboard,65 River St,Rutland,VT,05701
Brandon Area Emergency Food Shelf,74 Park Street,Brandon,VT,05733
Black River Good Neighbor Services,37B Main Street,Ludlow,VT,05149
Bethel Area Food Shelf,129 Church Street,Bethel,VT,05032
Addison Community Action - CVOEO,54 Creek Road Suite A,Middlebury,VT,05753
Chester-Andover Family Center,908 VT-103,Chester,VT,05143
Cvoeo Outreach Office - Grand Isle,5 Lemnah Drive Suite 5 St.,Albans,VT,05478
Assembly of God Christian Center,1759 Route 7,Vergennes,VT,05491
Addison Community Action - CVOEO,54 Creek Road Suite A,Middlebury,VT,05753
The Crown Point Health Center Food Pantry,2679 Main St. Crown,Point,NY,12928
Charlotte Food Shelf and Assistance,403 Church Hill Road,Charlotte,VT,05445
Brandon Area Emergency Food Shelf,74 Park Street,Brandon,VT,05733
Antrim Baptist Church Food Pantry,85 Main Street,Antrim,NH,03440
Monadnock Area Food Bank,49 Concord St All Saints Parish,Peterborough,NH,03458
Community Church of New Boston,2 Meetinghouse Hill Rd New,Boston,NH,03070
Compassion Food Pantry,48 Stratton Road,Jaffrey,NH,03452
Boscawen Congregational Church,12 High Street,Boscawen,NH,03303
Claremont Soup Kitchen & Food Pantry,51-53 Central Street,Claremont,NH,03743
Barrington Community Food Pantry,105C Ramsdell Lane,Barrington,NH,03825
Community Food Pantry - Somersworth,176 W High Street,Somersworth,NH,03878
Common Table,101 Chapel Street,Portsmouth,NH,03801
Chester Congregational Baptist Church,4 Chester Street,Chester,NH,03036
Arundel Food Pantry,1237 Alfred Road,Arundel,ME,04046
New Hampshire Food Bank,700 East Industrial Park Drive,Manchester,NH,03109
Boscawen Congregational Church,12 High Street,Boscawen,NH,03303
Bristol Community Service Food Pantry,21 North Main Street,Bristol,NH,03222
Calvary Bible Church Food Pantry,6 St. James Street,Meredith,NH,03253
Agape Food Pantry,80 Bean Road Center,Harbor,NH,03226
Belknap/Merrimack County CAP,121 Belmont Road,Laconia,NH,03246
Boscawen Congregational Church,12 High Street,Boscawen,NH,03303
Loudon Food Pantry,30 Chichester,Rd.,Un,D Lou
Bradford Area Interchurch Council,172 North Main Street,Bradford,VT,05033
Agape Food Pantry,80 Bean Road Center,Harbor,NH,03226
Calvary Bible Church Food Pantry,6 St. James Street,Meredith,NH,03253
Belknap/Merrimack County CAP,121 Belmont Road,Laconia,NH,03246
Bristol Community Service Food Pantry,21 North Main Street,Bristol,NH,03222
Agape Ministries,1895 New Hampshire Route 16 West,Ossipee,NH,03890
Boscawen Congregational Church,12 High Street,Boscawen,NH,03303
Chester Congregational Baptist Church,4 Chester Street,Chester,NH,03036
New Hampshire Food Bank,700 East Industrial Park Drive,Manchester,NH,03109
New Hampshire Catholic Charities Inc,215 Myrtle St,Manchester,NH,03104
Cedar Street Salvation Army,121 Cedar Street,Manchester,NH,03101
Blessed Sacrament Food Pantry,14 Elm Street,Manchester,NH,03103
St James United Methodist Church Food Pantry,646 Daniel Webster Highway,Merrimack,NH,03054
Belknap/Merrimack County CAP,15 Glass,Street,Su, 104 
Allenstown and Pembroke Interfaith Food Pantry,147 Main Street,Suncook,NH,03275
Barrington Community Food Pantry,105C Ramsdell Lane,Barrington,NH,03825
Belknap/Merrimack County CAP,2 Industrial Park Drive Building #2,Concord,NH,03301
Claremont Soup Kitchen & Food Pantry,51-53 Central Street,Claremont,NH,03743
Ascutney Union Church,5243 Route 5,Ascutney,VT,05030
First Congregational Church of Hartland,10 Station Road,Hartland,VT,05048
Chester-Andover Family Center,908 VT-103,Chester,VT,05143
Black River Good Neighbor Services,37B Main Street,Ludlow,VT,05149
"Grafton County Senior Citizens Council, Inc.",P.O. Box 433,Lebanon,NH,03766
Antrim Baptist Church Food Pantry,85 Main Street,Antrim,NH,03440
Center Point Pantry,20 North State Street,Concord,NH,03301
Belknap/Merrimack County CAP,2 Industrial Park Drive Building #2,Concord,NH,03301
Loudon Food Pantry,30 Chichester,Rd.,Un,D Lou
Allenstown and Pembroke Interfaith Food Pantry,147 Main Street,Suncook,NH,03275
Belknap/Merrimack County CAP,15 Glass,Street,Su, 104 
Boscawen Congregational Church,12 High Street,Boscawen,NH,03303
New Hampshire Catholic Charities Inc,215 Myrtle St,Manchester,NH,03104
Cedar Street Salvation Army,121 Cedar Street,Manchester,NH,03101
Blessed Sacrament Food Pantry,14 Elm Street,Manchester,NH,03103
New Hampshire Food Bank,700 East Industrial Park Drive,Manchester,NH,03109
Compassion Food Pantry,48 Stratton Road,Jaffrey,NH,03452
Monadnock Area Food Bank,49 Concord St All Saints Parish,Peterborough,NH,03458
Antrim Baptist Church Food Pantry,85 Main Street,Antrim,NH,03440
Winchendon Community Action Council,273 Central Street,Winchendon,MA,01475
Townsend Ecumenical Outreach,82 Bayberry Hill Rd.,Townsend,MA,01469
Townsend Ecumenical Outreach,82 Bayberry Hill Road,Townsend,MA,01474
Orange Food Pantry,118 E Main Street,Orange,MA,01364
United Neighbors of Fitchburg,18 Fairmount Street,Fitchburg,MA,01420
Community Church of New Boston,2 Meetinghouse Hill Rd New,Boston,NH,03070
Highland Baptist Church Food Pantry,19 Cedar St,Fitchburg,MA,01420
Belknap/Merrimack County CAP,121 Belmont Road,Laconia,NH,03246
Calvary Bible Church Food Pantry,6 St. James Street,Meredith,NH,03253
Agape Food Pantry,80 Bean Road Center,Harbor,NH,03226
Bristol Community Service Food Pantry,21 North Main Street,Bristol,NH,03222
Boscawen Congregational Church,12 High Street,Boscawen,NH,03303
Loudon Food Pantry,30 Chichester,Rd.,Un,D Lou
Agape Ministries,1895 New Hampshire Route 16 West,Ossipee,NH,03890
Belknap/Merrimack County CAP,2 Industrial Park Drive Building #2,Concord,NH,03301
Center Point Pantry,20 North State Street,Concord,NH,03301
Christ United Methodist Church,135 Main Street,Lancaster,NH,03584
The Friends and Neighbors Food Pantry,38 King Square,Whitefield,NH,03598
All Saints Church Food Pantry,35 School Street,Littleton,NH,03561
"Grafton County Senior Citizens Council, Inc.",P.O. Box 433,Lebanon,NH,03766
First Congregational Church of Hartland,10 Station Road,Hartland,VT,05048
Ascutney Union Church,5243 Route 5,Ascutney,VT,05030
Claremont Soup Kitchen & Food Pantry,51-53 Central Street,Claremont,NH,03743
Bethel Area Food Shelf,129 Church Street,Bethel,VT,05032
Bradford Area Interchurch Council,172 North Main Street,Bradford,VT,05033
Chester-Andover Family Center,908 VT-103,Chester,VT,05143
All Saints Church Food Pantry,35 School Street,Littleton,NH,03561
The Friends and Neighbors Food Pantry,38 King Square,Whitefield,NH,03598
Christ United Methodist Church,135 Main Street,Lancaster,NH,03584
Bradford Area Interchurch Council,172 North Main Street,Bradford,VT,05033
Loudon Food Pantry,30 Chichester,Rd.,Un,D Lou
Belknap/Merrimack County CAP,2 Industrial Park Drive Building #2,Concord,NH,03301
Center Point Pantry,20 North State Street,Concord,NH,03301
Boscawen Congregational Church,12 High Street,Boscawen,NH,03303
Allenstown and Pembroke Interfaith Food Pantry,147 Main Street,Suncook,NH,03275
Belknap/Merrimack County CAP,15 Glass,Street,Su, 104 
Belknap/Merrimack County CAP,121 Belmont Road,Laconia,NH,03246
New Hampshire Catholic Charities Inc,215 Myrtle St,Manchester,NH,03104
Cedar Street Salvation Army,121 Cedar Street,Manchester,NH,03101
New Hampshire Food Bank,700 East Industrial Park Drive,Manchester,NH,03109
Cedar Street Salvation Army,121 Cedar Street,Manchester,NH,03101
New Hampshire Catholic Charities Inc,215 Myrtle St,Manchester,NH,03104
Blessed Sacrament Food Pantry,14 Elm Street,Manchester,NH,03103
New Hampshire Food Bank,700 East Industrial Park Drive,Manchester,NH,03109
St James United Methodist Church Food Pantry,646 Daniel Webster Highway,Merrimack,NH,03054
Belknap/Merrimack County CAP,15 Glass,Street,Su, 104 
Allenstown and Pembroke Interfaith Food Pantry,147 Main Street,Suncook,NH,03275
Chester Congregational Baptist Church,4 Chester Street,Chester,NH,03036
Community Church of New Boston,2 Meetinghouse Hill Rd New,Boston,NH,03070
Belknap/Merrimack County CAP,2 Industrial Park Drive Building #2,Concord,NH,03301
Calvary Bible Church Food Pantry,6 St. James Street,Meredith,NH,03253
Agape Food Pantry,80 Bean Road Center,Harbor,NH,03226
Belknap/Merrimack County CAP,121 Belmont Road,Laconia,NH,03246
Bristol Community Service Food Pantry,21 North Main Street,Bristol,NH,03222
Agape Ministries,1895 New Hampshire Route 16 West,Ossipee,NH,03890
Boscawen Congregational Church,12 High Street,Boscawen,NH,03303
Loudon Food Pantry,30 Chichester,Rd.,Un,D Lou
St James United Methodist Church Food Pantry,646 Daniel Webster Highway,Merrimack,NH,03054
Blessed Sacrament Food Pantry,14 Elm Street,Manchester,NH,03103
Cedar Street Salvation Army,121 Cedar Street,Manchester,NH,03101
New Hampshire Food Bank,700 East Industrial Park Drive,Manchester,NH,03109
New Hampshire Catholic Charities Inc,215 Myrtle St,Manchester,NH,03104
St Vincient de Paul - St Raphael's Food Pantry,514 High Street West,Medford,MA,02155
Community Church of New Boston,2 Meetinghouse Hill Rd New,Boston,NH,03070
Chester Congregational Baptist Church,4 Chester Street,Chester,NH,03036
"Merrimack Valley Food Bank, Inc.",735 Broadway St,Lowell,MA,01854
Belknap/Merrimack County CAP,15 Glass,Street,Su, 104 
Community Church of New Boston,2 Meetinghouse Hill Rd New,Boston,NH,03070
Blessed Sacrament Food Pantry,14 Elm Street,Manchester,NH,03103
Cedar Street Salvation Army,121 Cedar Street,Manchester,NH,03101
New Hampshire Catholic Charities Inc,215 Myrtle St,Manchester,NH,03104
St James United Methodist Church Food Pantry,646 Daniel Webster Highway,Merrimack,NH,03054
Antrim Baptist Church Food Pantry,85 Main Street,Antrim,NH,03440
New Hampshire Food Bank,700 East Industrial Park Drive,Manchester,NH,03109
Monadnock Area Food Bank,49 Concord St All Saints Parish,Peterborough,NH,03458
Belknap/Merrimack County CAP,15 Glass,Street,Su, 104 
Allenstown and Pembroke Interfaith Food Pantry,147 Main Street,Suncook,NH,03275
Monadnock Area Food Bank,49 Concord St All Saints Parish,Peterborough,NH,03458
Compassion Food Pantry,48 Stratton Road,Jaffrey,NH,03452
Antrim Baptist Church Food Pantry,85 Main Street,Antrim,NH,03440
Community Church of New Boston,2 Meetinghouse Hill Rd New,Boston,NH,03070
Townsend Ecumenical Outreach,82 Bayberry Hill Rd.,Townsend,MA,01469
Townsend Ecumenical Outreach,82 Bayberry Hill Road,Townsend,MA,01474
Winchendon Community Action Council,273 Central Street,Winchendon,MA,01475
United Neighbors of Fitchburg,18 Fairmount Street,Fitchburg,MA,01420
Highland Baptist Church Food Pantry,19 Cedar St,Fitchburg,MA,01420
St Vincient de Paul - St Leo's Church,108 Main Street,Leominster,MA,01453
Common Table,101 Chapel Street,Portsmouth,NH,03801
Community Food Pantry - Somersworth,176 W High Street,Somersworth,NH,03878
Barrington Community Food Pantry,105C Ramsdell Lane,Barrington,NH,03825
Arundel Food Pantry,1237 Alfred Road,Arundel,ME,04046
Community Food Pantry - Somersworth,176 W High Street,Somersworth,NH,03878
Barrington Community Food Pantry,105C Ramsdell Lane,Barrington,NH,03825
Common Table,101 Chapel Street,Portsmouth,NH,03801
Arundel Food Pantry,1237 Alfred Road,Arundel,ME,04046
Chester Congregational Baptist Church,4 Chester Street,Chester,NH,03036
Buxton Food Co-op,262 Haines Meadow Road,Buxton,ME,04093
Buxton Community Cupboard,938 Long Plains Road,Buxton,ME,04093
Allenstown and Pembroke Interfaith Food Pantry,147 Main Street,Suncook,NH,03275
Belknap/Merrimack County CAP,15 Glass,Street,Su, 104 
Belknap/Merrimack County CAP,2 Industrial Park Drive Building #2,Concord,NH,03301
Center Point Pantry,20 North State Street,Concord,NH,03301
Loudon Food Pantry,30 Chichester,Rd.,Un,D Lou
New Hampshire Catholic Charities Inc,215 Myrtle St,Manchester,NH,03104
Cedar Street Salvation Army,121 Cedar Street,Manchester,NH,03101
New Hampshire Food Bank,700 East Industrial Park Drive,Manchester,NH,03109
Blessed Sacrament Food Pantry,14 Elm Street,Manchester,NH,03103
Boscawen Congregational Church,12 High Street,Boscawen,NH,03303
Agape Ministries,1895 New Hampshire Route 16 West,Ossipee,NH,03890
Agape Food Pantry,80 Bean Road Center,Harbor,NH,03226
Brownfield Food Pantry,701 Pequaket Trail,Brownfield,ME,04010
Calvary Bible Church Food Pantry,6 St. James Street,Meredith,NH,03253
Belknap/Merrimack County CAP,121 Belmont Road,Laconia,NH,03246
The Friends and Neighbors Food Pantry,38 King Square,Whitefield,NH,03598
Christ United Methodist Church,135 Main Street,Lancaster,NH,03584
All Saints Church Food Pantry,35 School Street,Littleton,NH,03561
Andover Food Pantry,39 Elm Street,Andover,ME,04216
Apostolic Church of Rumford Food Pantry,135 South Rumford Road,Rumford,ME,04276
Arundel Food Pantry,1237 Alfred Road,Arundel,ME,04046
Ashland Food Pantry,31-A Station Street,Ashland,ME,04732
Good Shepherd Food Bank,3121 Hotel,Road,PO,x 180
Buckfield Food Pantry,56 Turner St,Buckfield,ME,04220
Augusta Food Bank,9 Summer St,Augusta,ME,04330
Belgrade-Rome Special Needs Food Pantry,508 Smithfield Rd,Belgrade,ME,04917
Bar Harbor Food Pantry,36 Mt. Desert Street Bar,Harbor,ME,04609
Maine Sea Coast Missionary Society,127 West St Bar,Harbor,ME,04609
Bath Area Food Bank and Soup Kitchen,807 Middle Street,Bath,ME,04530
Bath Area Food Bank,150 Congress Avenue,Bath,ME,04530
Boothbay Region Food Pantry,1 Eastern Avenue,Boothbay,ME,04537
Congregational Church of Boothbay Harbor,125 Townsend Avenue Boothbay,Harbor,ME,04538
Belgrade-Rome Special Needs Food Pantry,508 Smithfield Rd,Belgrade,ME,04917
Augusta Food Bank,9 Summer St,Augusta,ME,04330
Sandy River Charitable Foundation,349 Voter Hill Rd,Farmington,ME,04938
Canaan Community Food Bank,272 Main Street,Canaan,ME,04924
Bethel Church of the Nazarene,16 Church St.,Bethel,ME,04217
Apostolic Church of Rumford Food Pantry,135 South Rumford Road,Rumford,ME,04276
Andover Food Pantry,39 Elm Street,Andover,ME,04216
Bridgton Food Pantry,214 Main Street,Bridgton,ME,04009
Boothbay Region Food Pantry,1 Eastern Avenue,Boothbay,ME,04537
Congregational Church of Boothbay Harbor,125 Townsend Avenue Boothbay,Harbor,ME,04538
Bath Area Food Bank and Soup Kitchen,807 Middle Street,Bath,ME,04530
Bath Area Food Bank,150 Congress Avenue,Bath,ME,04530
Congregational Church of Boothbay Harbor,125 Townsend Avenue Boothbay,Harbor,ME,04538
Boothbay Region Food Pantry,1 Eastern Avenue,Boothbay,ME,04537
Bath Area Food Bank and Soup Kitchen,807 Middle Street,Bath,ME,04530
Bath Area Food Bank,150 Congress Avenue,Bath,ME,04530
Bridgton Food Pantry,214 Main Street,Bridgton,ME,04009
Brownfield Food Pantry,701 Pequaket Trail,Brownfield,ME,04010
Buckfield Food Pantry,56 Turner St,Buckfield,ME,04220
Bethel Church of the Nazarene,16 Church St.,Bethel,ME,04217
Buxton Community Cupboard,938 Long Plains Road,Buxton,ME,04093
Buxton Food Co-op,262 Haines Meadow Road,Buxton,ME,04093
Brownfield Food Pantry,701 Pequaket Trail,Brownfield,ME,04010
Bridgton Food Pantry,214 Main Street,Bridgton,ME,04009
Agape Ministries,1895 New Hampshire Route 16 West,Ossipee,NH,03890
Buxton Community Cupboard,938 Long Plains Road,Buxton,ME,04093
Buxton Food Co-op,262 Haines Meadow Road,Buxton,ME,04093
Buckfield Food Pantry,56 Turner St,Buckfield,ME,04220
Good Shepherd Food Bank,3121 Hotel,Road,PO,x 180
Apostolic Church of Rumford Food Pantry,135 South Rumford Road,Rumford,ME,04276
Bridgton Food Pantry,214 Main Street,Bridgton,ME,04009
Sandy River Charitable Foundation,349 Voter Hill Rd,Farmington,ME,04938
Andover Food Pantry,39 Elm Street,Andover,ME,04216
Buxton Community Cupboard,938 Long Plains Road,Buxton,ME,04093
Buxton Food Co-op,262 Haines Meadow Road,Buxton,ME,04093
Project FEED,202 Woodford Street,Portland,ME,04103
Preble Street Resource Center Soup Kitchen and Food Pantry,252 Oxford Street,Portland,ME,04141
Preble Street Teen Center Soup Kitchen,343 Cumberland Avenue,Portland,ME,04101
First Congregational Church,301 Cottage Road South,Portland,ME,04106
Arundel Food Pantry,1237 Alfred Road,Arundel,ME,04046
Brownfield Food Pantry,701 Pequaket Trail,Brownfield,ME,04010
Bridgton Food Pantry,214 Main Street,Bridgton,ME,04009
Good Shepherd Food Bank,3121 Hotel,Road,PO,x 180
Camden Area Christian Food Pantry,128 Mount Battie Street,Camden,ME,04843
Area Interfaith Outreach,1 Gordon Drive,Rockland,ME,04841
Canaan Community Food Bank,272 Main Street,Canaan,ME,04924
Belgrade-Rome Special Needs Food Pantry,508 Smithfield Rd,Belgrade,ME,04917
Bread of Life Soup Kitchen,62 Collins Street,Caribou,ME,04736
Aroostook Band of Mic Macs Food Pantry,9 Northern Road Presque,Isle,ME,04769
Ashland Food Pantry,31-A Station Street,Ashland,ME,04732
Sandy River Charitable Foundation,349 Voter Hill Rd,Farmington,ME,04938
Belgrade-Rome Special Needs Food Pantry,508 Smithfield Rd,Belgrade,ME,04917
Augusta Food Bank,9 Summer St,Augusta,ME,04330
Buckfield Food Pantry,56 Turner St,Buckfield,ME,04220
ACAP Food Pantry,40 Alfalfa Avenue Suite 102 Fort,Kent,ME,04743
Ashland Food Pantry,31-A Station Street,Ashland,ME,04732
Preble Street Resource Center Soup Kitchen and Food Pantry,252 Oxford Street,Portland,ME,04141
Preble Street Teen Center Soup Kitchen,343 Cumberland Avenue,Portland,ME,04101
Project FEED,202 Woodford Street,Portland,ME,04103
First Congregational Church,301 Cottage Road South,Portland,ME,04106
Buxton Community Cupboard,938 Long Plains Road,Buxton,ME,04093
Buxton Food Co-op,262 Haines Meadow Road,Buxton,ME,04093
Good Shepherd Food Bank,3121 Hotel,Road,PO,x 180
Aroostook Band of Mic Macs Food Pantry,9 Northern Road Presque,Isle,ME,04769
Bread of Life Soup Kitchen,62 Collins Street,Caribou,ME,04736
Area Interfaith Outreach,1 Gordon Drive,Rockland,ME,04841
Camden Area Christian Food Pantry,128 Mount Battie Street,Camden,ME,04843
Apostolic Church of Rumford Food Pantry,135 South Rumford Road,Rumford,ME,04276
Andover Food Pantry,39 Elm Street,Andover,ME,04216
Bethel Church of the Nazarene,16 Church St.,Bethel,ME,04217
Buckfield Food Pantry,56 Turner St,Buckfield,ME,04220
First Congregational Church,301 Cottage Road South,Portland,ME,04106
Preble Street Teen Center Soup Kitchen,343 Cumberland Avenue,Portland,ME,04101
Preble Street Resource Center Soup Kitchen and Food Pantry,252 Oxford Street,Portland,ME,04141
Project FEED,202 Woodford Street,Portland,ME,04103
Buxton Community Cupboard,938 Long Plains Road,Buxton,ME,04093
Buxton Food Co-op,262 Haines Meadow Road,Buxton,ME,04093
Good Shepherd Food Bank,3121 Hotel,Road,PO,x 180
